District,Zone ID,Zone Name,Zone Type,Zone Speed Limit,Latitude,Longitude,Pincode
Gujarat,Z100,Ahmadabad Vadodara Expressway,motorway,100,22.6031845,72.97568355,387310
Gujarat,Z100,Ahmadabad Vadodara Expressway,motorway,100,22.5919625,72.98739555,388360
Gujarat,Z100,Ahmadabad Vadodara Expressway,motorway,100,22.60118865,72.97801695,388360
Gujarat,Z100,Ahmadabad Vadodara Expressway,motorway,100,22.6647864,72.91892325,387315
Gujarat,Z100,Ahmadabad Vadodara Expressway,motorway,100,22.5997925,72.97914845,388360
Gujarat,Z100,Ahmadabad Vadodara Expressway,motorway,100,22.60124025,72.97765485,388360
Gujarat,Z100,Ahmadabad Vadodara Expressway,motorway,100,22.599804,72.97939115,388360
Gujarat,Z100,Ahmadabad Vadodara Expressway,motorway,100,22.59861135,72.9805707,388360
Gujarat,Z100,Ahmadabad Vadodara Expressway,motorway,100,22.5985137,72.98046865,388360
Gujarat,Z100,Ahmadabad Vadodara Expressway,motorway,100,22.59379365,72.9852917,388360
Gujarat,Z100,Ahmadabad Vadodara Expressway,motorway,100,22.59373785,72.98556955,388360
Gujarat,Z100,Ahmadabad Vadodara Expressway,motorway,100,22.5984738,72.980721,388360
Gujarat,Z100,Ahmadabad Vadodara Expressway,motorway,100,22.59364255,72.98544625,388360
Gujarat,Z100,Ahmadabad Vadodara Expressway,motorway,100,22.8735447,72.80083685,387110
Gujarat,Z100,Ahmadabad Vadodara Expressway,motorway,100,22.98825395,72.62887125,380026
Gujarat,Z100,Ahmadabad Vadodara Expressway,motorway,100,22.87222435,72.80176985,Pincode Not Found
Gujarat,Z100,Ahmadabad Vadodara Expressway,motorway,100,22.6685668,72.91593815,387370
Gujarat,Z100,Ahmadabad Vadodara Expressway,motorway,100,22.52580545,73.04663205,388365
Gujarat,Z100,Ahmadabad Vadodara Expressway,motorway,100,22.525888,73.0467895,388365
Gujarat,Z100,Ahmadabad Vadodara Expressway,motorway,100,22.5275872,73.04549095,388330
Gujarat,Z100,Ahmadabad Vadodara Expressway,motorway,100,22.5249778,73.04738585,388365
Gujarat,Z100,Ahmadabad Vadodara Expressway,motorway,100,22.4819856,73.09018265,388306
Gujarat,Z100,Ahmadabad Vadodara Expressway,motorway,100,22.481845,73.09025375,388306
Gujarat,Z100,Ahmadabad Vadodara Expressway,motorway,100,22.48232995,73.0937666,388306
Gujarat,Z100,Ahmadabad Vadodara Expressway,motorway,100,22.4815357,73.08699215,388365
Gujarat,-,Unnamed Zone,secondary,50,22.27853295,73.2060689,390001
Gujarat,Z101,GANESH CIRCLE.ANAND,trunk,40,22.5459353,72.9703477,388001
Gujarat,-,Unnamed Zone,primary,40,22.55614465,72.925095,388120
Gujarat,Z102,nana bazar,residential,30,22.5627334,72.9340864,388120
Gujarat,Z102,nana bazar,residential,30,22.5618409,72.934017,388120
Gujarat,Z102,nana bazar,residential,30,22.5615199,72.93413715,388120
Gujarat,Z103,Kalaghoda Circle,trunk,20,22.3091199,73.1880591,390001
Gujarat,Z100,Ahmadabad Vadodara Expressway,motorway_link,100,22.3667558,73.1902527,390001
Gujarat,Z100,Ahmadabad Vadodara Expressway,motorway,100,22.37178725,73.18607395,390001
Gujarat,Z100,Ahmadabad Vadodara Expressway,motorway,100,22.3716612,73.18597405,390001
Gujarat,Z100,Ahmadabad Vadodara Expressway,motorway,100,22.3723336,73.1854111,390001
Gujarat,Z100,Ahmadabad Vadodara Expressway,motorway,100,22.42832965,73.1339397,390025
Gujarat,Z100,Ahmadabad Vadodara Expressway,motorway,100,22.4289657,73.1333459,391350
Gujarat,Z100,Ahmadabad Vadodara Expressway,motorway,100,22.4288783,73.1331989,391350
Gujarat,Z100,Ahmadabad Vadodara Expressway,motorway,100,22.43032145,73.1318364,391350
Gujarat,Z100,Ahmadabad Vadodara Expressway,motorway,100,22.3854427,73.1743938,390025
Gujarat,Z100,Ahmadabad Vadodara Expressway,motorway,100,22.3838267,73.17599735,390001
Gujarat,Z100,Ahmadabad Vadodara Expressway,motorway,100,22.38314865,73.1765647,390001
Gujarat,Z100,Ahmadabad Vadodara Expressway,motorway,100,22.3837127,73.1758701,390001
Gujarat,-,Unnamed Zone,primary,30,22.30017945,73.2105025,390001
Gujarat,-,Unnamed Zone,primary,20,22.3021547,73.2053641,390001
Gujarat,Z104,Natubhai Circle,primary,50,22.3098461,73.15867185,390007
Gujarat,Z100,Ahmadabad Vadodara Expressway,motorway,100,22.98621815,72.6323667,380026
Gujarat,Z100,Ahmadabad Vadodara Expressway,motorway,100,22.98618005,72.6321398,380026
Gujarat,Z100,Ahmadabad Vadodara Expressway,motorway,100,22.98604125,72.63267115,380026
Gujarat,Z100,Ahmadabad Vadodara Expressway,motorway,100,22.9873707,72.6300847,380026
Gujarat,Z100,Ahmadabad Vadodara Expressway,motorway,100,22.98364335,72.6368501,380026
Gujarat,Z100,Ahmadabad Vadodara Expressway,motorway,100,22.983108,72.6377828,382245
Gujarat,Z100,Ahmadabad Vadodara Expressway,motorway,100,22.98356055,72.6367146,380026
Gujarat,Z100,Ahmadabad Vadodara Expressway,motorway,100,22.9847279,72.63467895,380026
Gujarat,Z100,Ahmadabad Vadodara Expressway,motorway,100,22.98016545,72.6426188,382245
Gujarat,Z100,Ahmadabad Vadodara Expressway,motorway,100,22.97979155,72.6432712,382245
Gujarat,Z100,Ahmadabad Vadodara Expressway,motorway,100,22.9799079,72.6433456,382245
Gujarat,Z100,Ahmadabad Vadodara Expressway,motorway,100,22.97785905,72.6469223,382245
Gujarat,Z105,Variyali Bazar Main Road,secondary,30,21.2075427,72.82465855,395003
Gujarat,Z106,SV Desai Marg,tertiary,40,23.0255454,72.5563169,380009
Gujarat,Z107,lal bahadur shashtri road,secondary,50,23.00953525,72.5172433,380051
Gujarat,Z108,Danapith Road,tertiary,40,23.0161697,72.59039885,380001
Gujarat,Z109,Gupta Nagar road,tertiary,5,22.99682815,72.539281,380055
Gujarat,Z110,State Highway 9,trunk_link,60,23.5796054,72.9580931,383001
Gujarat,Z111,Daman Road,primary,60,20.365917,72.92120625,396195
Gujarat,-,Unnamed Zone,unclassified,60,20.46797195,72.92418505,396185
Gujarat,-,Unnamed Zone,primary,60,23.3172007,71.8284086,382750
Gujarat,Z112,Kalaghoda Road,tertiary,40,23.164877,71.7132997,382765
Gujarat,-,Unnamed Zone,primary,50,23.0641972,71.75104645,382745
Gujarat,Z113,Rajkot - Morbi Highway,primary,60,22.63768185,70.7528349,Pincode Not Found
Gujarat,-,Unnamed Zone,trunk,80,23.0759062,70.79558225,363670
Gujarat,-,Unnamed Zone,trunk,60,22.7317644,71.6282107,363001
Gujarat,-,Unnamed Zone,trunk,80,22.5747847,71.80858795,363421
Gujarat,-,Unnamed Zone,trunk,60,23.82847815,71.61944355,385340
Gujarat,-,Unnamed Zone,primary,60,23.5806957,70.64620825,370155
Gujarat,-,Unnamed Zone,trunk_link,60,23.54972015,70.98366285,370155
Gujarat,-,Unnamed Zone,trunk_link,60,23.555192,70.98753285,370155
Gujarat,Z114,NH27 NorthEast bound,trunk,60,23.3076384,70.51075975,370150
Gujarat,-,Unnamed Zone,trunk,60,23.4018517,70.7941362,Pincode Not Found
Gujarat,-,Unnamed Zone,trunk,60,23.4843367,70.93538255,370155
Gujarat,-,Unnamed Zone,trunk,60,23.6564998,71.06196265,385350
Gujarat,-,Unnamed Zone,trunk,60,23.4042971,70.66844575,370145
Gujarat,Z115,Sanand-Viramgam Highway,trunk,60,23.02286685,72.32072785,Pincode Not Found
Gujarat,Z116,SH6 Southbound Bachau-Maliya,trunk,80,23.18894315,70.7199054,Pincode Not Found
Gujarat,Z116,SH6 Southbound Bachau-Maliya,trunk,80,23.19702115,70.71799585,Pincode Not Found
Gujarat,Z117,State Highway 7,primary,60,22.99525365,71.47509775,363300
Gujarat,Z118,Nana Mava Main Road,tertiary,40,22.27582575,70.77787845,360004
Gujarat,Z119,Kachhiya Sheri,residential,20,21.2056169,72.82863415,395003
Gujarat,Z120,Siddheshwari Society Road,residential,20,23.23656175,72.49067865,382700
Gujarat,-,Unnamed Zone,primary,60,24.18754,72.9975813,Pincode Not Found
Gujarat,-,Unnamed Zone,primary,60,23.723917,72.97768,383430
Gujarat,Z110,State Highway 9,primary,60,24.2936921,72.9473962,Pincode Not Found
Gujarat,-,Unnamed Zone,primary,60,23.9408458,73.03815495,362248
Gujarat,Z110,State Highway 9,primary,60,24.29379645,72.9449241,385110
Gujarat,-,Unnamed Zone,primary,60,24.0664775,73.0100546,Pincode Not Found
Gujarat,-,Unnamed Zone,trunk,60,23.8374917,73.00238065,383430
Gujarat,Z110,State Highway 9,primary,60,24.2314534,73.0049059,Pincode Not Found
Gujarat,Z121,Port Road NorthEastbound Bhachau,trunk,80,23.19984495,70.2394572,370140
Gujarat,-,Unnamed Zone,trunk,100,22.0677855,69.15044235,Pincode Not Found
Gujarat,Z122,Samana road,primary,40,22.4598796,70.06649535,361005
Gujarat,-,Unnamed Zone,trunk,80,22.9390969,69.1729257,370405
Gujarat,-,Unnamed Zone,trunk,80,23.07404125,69.0208189,370490
Gujarat,-,Unnamed Zone,trunk,80,23.05402515,69.04470535,370490
Gujarat,Z123,Daman to NH48,trunk,60,20.4658101,72.88864005,396180
Gujarat,Z111,Daman Road,primary,60,20.40542695,72.8857512,396191
Gujarat,Z111,Daman Road,construction,60,20.3761692,72.9102912,396191
Gujarat,Z124,M.G. Road,secondary,40,20.95003025,72.92482595,396400
Gujarat,Z125,Patel colony Road no 6,residential,40,22.48410715,70.0578639,361008
Gujarat,Z126,Navagam Road,tertiary,40,22.47869265,70.06296975,361008
Gujarat,Z127,Patel colony Road no 8,residential,30,22.4848458,70.0570566,361008
Gujarat,Z128,Guru Dattatrey Mandir Road,unclassified,40,22.4788906,70.05759015,361008
Gujarat,Z129,Patel colony Road no 7,residential,30,22.48449105,70.05744465,361008
Gujarat,Z130,Patel colony Road no 3,tertiary,40,22.48458875,70.0623717,361008
Gujarat,Z131,Patel colony Road no 5,residential,30,22.48374765,70.05825665,361008
Gujarat,Z132,Patel colony Road no 9,residential,40,22.4847682,70.05622065,361008
Gujarat,Z133,Patel colony Road no 1,tertiary,40,22.4873857,70.05510575,361008
Gujarat,Z134,Patel colony Road no 4,residential,40,22.48521865,70.06303215,361008
Gujarat,Z135,Joggers park Road,unclassified,30,22.4795777,70.05099565,361008
Gujarat,Z136,Patel colony Road no 2,tertiary,40,22.48871855,70.05636785,361008
Gujarat,Z137,Palace Road,unclassified,50,22.47538835,70.051925,361008
Gujarat,Z138,State Highway 72,trunk,60,24.0728646,71.5903154,385320
Gujarat,-,Unnamed Zone,primary,60,23.5118646,71.78492355,384246
Gujarat,-,Unnamed Zone,primary,50,23.31706745,71.8286963,382750
Gujarat,Z139,Chitari Road,tertiary,40,22.31537865,72.61841125,388600
Gujarat,-,Unnamed Zone,trunk,80,23.63192285,68.5439994,370627
Gujarat,-,Unnamed Zone,trunk,80,23.55034185,68.6750518,370601
Gujarat,-,Unnamed Zone,trunk,80,23.2670351,68.85173585,370655
Gujarat,-,Unnamed Zone,trunk,80,23.26641155,68.8512494,370655
Gujarat,-,Unnamed Zone,trunk,80,23.13629065,68.9269894,370645
Gujarat,-,Unnamed Zone,trunk,80,23.13678185,68.92690945,370660
Gujarat,-,Unnamed Zone,trunk,80,23.12723105,68.9327481,370645
Gujarat,-,Unnamed Zone,trunk,80,23.07470365,69.0199551,370490
Gujarat,Z140,Tunda-Mandvi,primary,80,22.83280175,69.36031675,370405
Gujarat,-,Unnamed Zone,trunk,80,22.98889145,69.1213727,370405
Gujarat,-,Unnamed Zone,trunk,80,23.00822615,69.10418895,370405
Gujarat,-,Unnamed Zone,trunk,80,22.98848425,69.12196335,370405
Gujarat,-,Unnamed Zone,trunk,80,22.93919595,69.17379585,370405
Gujarat,-,Unnamed Zone,trunk,80,23.00889785,69.10337695,370405
Gujarat,-,Unnamed Zone,trunk,80,22.9014691,69.21180765,370405
Gujarat,Z141,Mandvi - Layja Road,trunk,80,22.84467515,69.32297205,370405
Gujarat,-,Unnamed Zone,trunk,80,22.885092,69.2243964,370405
Gujarat,-,Unnamed Zone,trunk,80,22.84366885,69.32565835,370405
Gujarat,-,Unnamed Zone,trunk,80,22.84457365,69.32324135,370405
Gujarat,-,Unnamed Zone,trunk,80,22.84382765,69.3252463,370405
Gujarat,-,Unnamed Zone,trunk,80,22.83507575,69.35740005,370405
Gujarat,-,Unnamed Zone,residential,50,22.3606175,69.8344186,361280
Gujarat,Z142,DSP Bunglow road,primary,30,22.4713721,70.07101135,361002
Gujarat,-,Unnamed Zone,trunk,100,22.3095495,69.73583925,Pincode Not Found
Gujarat,Z143,Jawaharlal Nehru Road,trunk,40,22.9957006,72.53424085,380055
Gujarat,Z110,State Highway 9,primary,60,23.6749703,72.96881455,Pincode Not Found
Gujarat,Z110,State Highway 9,primary,60,23.58312325,72.95790095,383001
Gujarat,Z144,State Highway 54,trunk,50,24.3493808,71.628163,385565
Gujarat,Z144,State Highway 54,trunk,50,24.2835327,71.6444666,Pincode Not Found
Gujarat,Z144,State Highway 54,trunk,50,24.21990565,71.6490352,Pincode Not Found
Gujarat,Z144,State Highway 54,trunk,50,24.3842638,71.6328691,385565
Gujarat,Z144,State Highway 54,trunk,50,24.3167477,71.63075885,Pincode Not Found
Gujarat,Z144,State Highway 54,trunk,50,24.2831814,71.64485315,Pincode Not Found
Gujarat,Z144,State Highway 54,trunk,50,24.2048987,71.64380575,Pincode Not Found
Gujarat,-,Unnamed Zone,trunk,60,23.8317602,71.6230334,385340
Gujarat,-,Unnamed Zone,primary,60,24.1584,71.3587244,385570
Gujarat,-,Unnamed Zone,trunk,60,22.71538835,71.67734325,363030
Gujarat,-,Unnamed Zone,trunk,60,22.71682775,71.6771364,363035
Gujarat,-,Unnamed Zone,trunk,80,22.8974702,69.45247135,Pincode Not Found
Gujarat,-,Unnamed Zone,trunk,80,22.9024955,69.4843646,370405
Gujarat,Z145,Mundra Fort-Dhrab,primary,80,22.83548475,69.6854854,370421
Gujarat,Z146,Jarpata-Shiracha,primary,80,22.83611585,69.62909605,Pincode Not Found
Gujarat,-,Unnamed Zone,primary,80,22.8347438,69.6810355,370421
Gujarat,Z147,Fort-Dhrab-Jarpata,primary,80,22.83601435,69.64838235,370405
Gujarat,-,Unnamed Zone,primary,50,23.51396765,72.07990235,334220
Gujarat,Z148,Vakil Society,residential,20,22.68751315,72.8640654,387001
Gujarat,Z149,Santram Society,residential,20,22.6887185,72.862825,387001
Gujarat,Z149,Santram Society,residential,10 mph,22.68829035,72.8628304,387001
Gujarat,Z150,VKV Road,secondary,30,22.6811807,72.86768035,387001
Gujarat,Z151,Mota Kumbhnath Road,residential,10,22.68014505,72.87091325,387001
Gujarat,Z152,Santram Society Road,residential,10,22.68898275,72.86241955,387001
Gujarat,Z153,Vaishali Talkis road,secondary,20,22.69062755,72.86179885,387001
Gujarat,Z154,Vaishali Talkis Road,secondary,20,22.6909068,72.86205215,387001
Gujarat,Z155,Indira Gandhi Road,tertiary,30,22.6865668,72.8626061,387001
Gujarat,Z156,Santram Deri Road,unclassified,20,22.66937245,72.86817635,387001
Gujarat,Z157,New Rahul Hospital Road,tertiary,10,22.6868214,72.86624975,387001
Gujarat,Z158,Nana Kumbhnath Road,secondary,30,22.6895138,72.8678477,387001
Gujarat,Z159,Alkapuri Road,tertiary,20,22.68881705,72.87224805,387001
Gujarat,Z160,Civil Hospital Road,tertiary,20,22.6830571,72.8716694,387001
Gujarat,Z155,Indira Gandhi Road,tertiary,20,22.68716685,72.85998025,387001
Gujarat,Z155,Indira Gandhi Road,tertiary,15 mph,22.6887898,72.860815,387001
Gujarat,Z154,Vaishali Talkis Road,secondary,20,22.6846574,72.8593388,387001
Gujarat,Z161,Mai Mandir Road,unclassified,20,22.68621755,72.85024145,387001
Gujarat,Z162,Station Road,primary,20,22.6929627,72.85965765,387001
Gujarat,Z162,Station Road,primary,20,22.6940416,72.8589548,387001
Gujarat,Z163,Sindhi Market,residential,5 mph,22.6939451,72.8584667,387001
Gujarat,Z162,Station Road,primary,30,22.6937775,72.85772075,387001
Gujarat,Z164,Gulbai Tekra Road,secondary,50,23.0228828,72.55577325,380006
Gujarat,Z165,Side Road,trunk_link,20,22.99552355,72.5340027,380055
Gujarat,Z165,Side Road,trunk_link,20,22.9951706,72.5336587,380055
Gujarat,Z143,Jawaharlal Nehru Road,trunk,30,22.99641675,72.53779395,380055
Gujarat,Z143,Jawaharlal Nehru Road,trunk,30,22.9962266,72.5366044,380055
Gujarat,Z166,Parimal Underpass,primary,50,23.01864015,72.55776025,380007
Gujarat,Z166,Parimal Underpass,primary,50,23.01522585,72.5588121,380007
Gujarat,Z167,Dr. Hariprasad Desai Marg,residential,40,23.0170017,72.5626204,380006
Gujarat,Z168,132 Ft. Ring Road,primary,40,22.9966029,72.53766065,380055
Gujarat,Z168,132 Ft. Ring Road,primary,40,23.00657295,72.53299705,380055
Gujarat,Z169,chikali - majigam road,tertiary,20,20.756481,73.05367045,396521
Gujarat,Z170,Chikhali Majigam road,tertiary,20,20.7509924,73.04266705,396325
Gujarat,Z171,Kubernagar road,tertiary,40,23.0710081,72.64185275,382325
Gujarat,Z172,Anupam Bridge | Kankaria Railway Overbridge,primary,50,23.0081189,72.6064269,380002
Gujarat,-,Unnamed Zone,primary,80,22.8370822,69.69526165,370415
Gujarat,-,Unnamed Zone,primary,80,22.8372663,69.6959443,370415
Gujarat,-,Unnamed Zone,primary,80,22.8371882,69.6959885,370415
Gujarat,-,Unnamed Zone,primary,80,22.8371699,69.69525575,370415
Gujarat,Z145,Mundra Fort-Dhrab,primary,80,22.8378062,69.7007359,370421
Gujarat,-,Unnamed Zone,primary,50,23.01444405,72.633012,380026
Gujarat,-,Unnamed Zone,primary,50,23.00555245,72.62723025,380023
Gujarat,Z173,RTO Road,tertiary,40,22.99818435,72.6478236,382418
Gujarat,Z174,Swami Vivekananda Road,secondary,50,23.01680865,72.59081675,380001
Gujarat,-,Unnamed Zone,trunk,60,23.09696345,72.107563,Pincode Not Found
Gujarat,-,Unnamed Zone,trunk,60,23.0977664,72.09440935,Pincode Not Found
Gujarat,-,Unnamed Zone,trunk,60,23.0820867,71.8391942,Pincode Not Found
Gujarat,-,Unnamed Zone,trunk,60,23.0977944,72.0612405,382150
Gujarat,-,Unnamed Zone,trunk,60,23.097785,72.06269165,382150
Gujarat,-,Unnamed Zone,trunk,60,23.09786825,72.067585,382150
Gujarat,-,Unnamed Zone,trunk,80,22.58977565,72.0662376,Pincode Not Found
Gujarat,Z175,Ahmdavad- rajkot hway,trunk,80,22.5896998,72.066371,Pincode Not Found
Gujarat,-,Unnamed Zone,trunk,80,22.8384543,72.365972,382220
Gujarat,Z100,Ahmadabad Vadodara Expressway,motorway,100,22.95235335,72.69245945,382449
Gujarat,Z100,Ahmadabad Vadodara Expressway,motorway,100,22.9513781,72.69457465,382449
Gujarat,Z100,Ahmadabad Vadodara Expressway,motorway,100,22.95125255,72.69450935,382449
Gujarat,Z100,Ahmadabad Vadodara Expressway,motorway,100,22.9510992,72.69508595,382449
Gujarat,-,Unnamed Zone,primary,60,24.3590342,72.81643005,Pincode Not Found
Gujarat,-,Unnamed Zone,trunk,60,23.889701,73.033783,383235
Gujarat,-,Unnamed Zone,primary,60,23.8458494,73.021471,383235
Gujarat,-,Unnamed Zone,trunk,60,24.0096696,71.60332055,Pincode Not Found
Gujarat,-,Unnamed Zone,trunk,60,24.0099343,71.6032803,385320
Gujarat,-,Unnamed Zone,trunk,60,23.31762495,70.5319344,370150
Gujarat,-,Unnamed Zone,trunk,80,22.6862026,70.9462495,Pincode Not Found
Gujarat,Z114,NH27 NorthEast bound,trunk,60,23.3127817,70.5185098,370150
Gujarat,Z114,NH27 NorthEast bound,trunk,60,23.3120244,70.51805665,370150
Gujarat,-,Unnamed Zone,trunk,60,23.4341333,70.90161995,370155
Gujarat,-,Unnamed Zone,trunk,60,24.5846384,71.71849365,Pincode Not Found
Gujarat,Z176,Vijalpore Road,secondary,30,20.94742065,72.9239678,396445
Gujarat,Z177,Maneklal Road,unclassified,40,20.94684675,72.92158615,396445
Gujarat,Z178,Thakorwadi Rd.,unclassified,30,20.94952675,72.91583115,396445
Gujarat,Z179,Medicare Hospital Road,residential,40,20.60868055,72.92790205,395125
Gujarat,Z117,State Highway 7,primary,60,22.9898807,71.47215255,363300
Gujarat,Z180,Tirupati Road,tertiary,30,23.09300445,72.55927175,382481
Gujarat,-,Unnamed Zone,trunk,60,23.4037259,70.79508705,370145
Gujarat,-,Unnamed Zone,trunk,60,23.5573547,70.9884931,370155
Gujarat,-,Unnamed Zone,trunk,60,23.4046474,70.79523235,Pincode Not Found
Gujarat,-,Unnamed Zone,trunk,60,23.404577,70.79545145,Pincode Not Found
Gujarat,-,Unnamed Zone,trunk,60,23.5646436,70.98745375,370155
Gujarat,-,Unnamed Zone,trunk,60,23.4332227,70.9007663,370155
Gujarat,-,Unnamed Zone,trunk,60,23.5567333,70.9881175,370155
Gujarat,-,Unnamed Zone,trunk,60,23.43331465,70.90068355,370155
Gujarat,-,Unnamed Zone,trunk,60,23.48662185,70.9379684,370155
Gujarat,-,Unnamed Zone,trunk,60,23.4296483,70.8963766,370155
Gujarat,-,Unnamed Zone,trunk,60,23.4055128,70.79562615,370145
Gujarat,-,Unnamed Zone,trunk,60,23.43278105,70.90025165,370145
Gujarat,-,Unnamed Zone,trunk,60,23.5644012,70.98771425,370155
Gujarat,-,Unnamed Zone,trunk,60,23.5647162,70.9875615,370155
Gujarat,-,Unnamed Zone,trunk,60,23.5567089,70.9882363,370155
Gujarat,-,Unnamed Zone,trunk,60,23.5562006,70.9879143,370155
Gujarat,-,Unnamed Zone,trunk,60,23.828121,71.61910365,385340
Gujarat,-,Unnamed Zone,trunk,60,23.82816915,71.6189613,385340
Gujarat,-,Unnamed Zone,trunk,60,23.56506845,70.98726925,370155
Gujarat,-,Unnamed Zone,trunk,60,23.82643475,71.6139776,385340
Gujarat,-,Unnamed Zone,trunk,60,23.82618505,71.61179375,385340
Gujarat,-,Unnamed Zone,trunk,60,23.8274611,71.61784825,385340
Gujarat,-,Unnamed Zone,trunk,60,23.9041123,71.6268141,Pincode Not Found
Gujarat,-,Unnamed Zone,trunk,60,23.907041,71.62700885,Pincode Not Found
Gujarat,-,Unnamed Zone,primary,60,23.88536725,73.0345864,383235
Gujarat,Z110,State Highway 9,primary,60,24.22577175,73.0096431,383270
Gujarat,-,Unnamed Zone,primary,60,23.88583865,73.03456475,383235
Gujarat,-,Unnamed Zone,trunk,80,23.09850605,70.7824508,363670
Gujarat,-,Unnamed Zone,trunk,60,23.0760042,70.795807,Pincode Not Found
Gujarat,-,Unnamed Zone,trunk,60,23.0110197,71.45726085,363300
Gujarat,-,Unnamed Zone,trunk,60,23.0050269,71.11520515,Pincode Not Found
Gujarat,-,Unnamed Zone,trunk,60,23.0061795,71.0716833,Pincode Not Found
Gujarat,-,Unnamed Zone,trunk,60,23.0406292,70.9134813,Pincode Not Found
Gujarat,-,Unnamed Zone,trunk,60,23.00543135,71.08648605,Pincode Not Found
Gujarat,Z181,Udhna Main Road,trunk,40,21.17525395,72.83692875,395002
Gujarat,Z182,Vadodara Bypass,trunk,80,22.24686895,73.21692065,390009
Gujarat,Z182,Vadodara Bypass,trunk,80,22.25195775,73.2207628,390009
Gujarat,-,Unnamed Zone,tertiary,60,20.9734908,72.96436275,396400
Gujarat,-,Unnamed Zone,tertiary,60,20.99325635,72.9824217,396427
Gujarat,-,Unnamed Zone,tertiary,80,22.2453135,73.2155141,390009
Gujarat,-,Unnamed Zone,tertiary,80,22.25321885,73.2218248,390009
Gujarat,Z183,Bhimrana Road,unclassified,40,22.39854775,69.00025835,361345
Gujarat,Z111,Daman Road,primary,60,20.3743454,72.91243085,396191
Gujarat,-,Unnamed Zone,primary,60,23.72005395,72.10789115,384220
Gujarat,-,Unnamed Zone,trunk,60,23.72023015,72.1082568,384220
Gujarat,-,Unnamed Zone,primary,50,23.48834495,72.0176333,334220
Gujarat,-,Unnamed Zone,primary,60,24.0351146,73.04955285,383255
Gujarat,Z110,State Highway 9,primary,60,24.2291545,73.0071295,383270
Gujarat,-,Unnamed Zone,primary,60,24.03664685,73.04999415,383255
Gujarat,-,Unnamed Zone,trunk,60,23.83490435,73.0018707,383430
Gujarat,-,Unnamed Zone,trunk,80,22.5746215,71.80789405,363421
Gujarat,-,Unnamed Zone,trunk,80,22.52473475,71.3767209,363034
Gujarat,-,Unnamed Zone,trunk,60,22.72502785,71.62905775,363001
Gujarat,-,Unnamed Zone,trunk,60,22.71818735,71.67701515,363035
Gujarat,-,Unnamed Zone,primary,60,23.47754545,71.7921158,384246
Gujarat,-,Unnamed Zone,primary,60,23.56639,71.79078815,Pincode Not Found
Gujarat,-,Unnamed Zone,primary,60,23.47255945,71.7934646,384246
Gujarat,-,Unnamed Zone,primary,60,23.5670893,71.7902188,Pincode Not Found
Gujarat,-,Unnamed Zone,primary,50,23.3213021,71.83351545,382750
Gujarat,-,Unnamed Zone,primary,50,23.1353945,71.787104,382765
Gujarat,-,Unnamed Zone,primary,50,23.13384205,71.7862099,Pincode Not Found
Gujarat,-,Unnamed Zone,primary,50,23.5187278,72.08212485,Pincode Not Found
Gujarat,-,Unnamed Zone,trunk,60,23.06345935,71.74690315,382745
Gujarat,-,Unnamed Zone,trunk,60,23.06400905,71.75003535,382745
Gujarat,-,Unnamed Zone,trunk,60,22.6626971,71.7444097,Pincode Not Found
Gujarat,-,Unnamed Zone,trunk,60,22.6392761,71.7672717,363421
Gujarat,-,Unnamed Zone,trunk,80,22.8271596,70.85760365,363600
Gujarat,-,Unnamed Zone,trunk,80,22.84285025,70.85183675,363600
Gujarat,Z184,Central Bank Road,primary,40,22.462789,70.07719295,361009
Gujarat,-,Unnamed Zone,secondary,80,23.117328,70.02759735,370110
Gujarat,-,Unnamed Zone,secondary,80,23.1167633,70.0286204,370110
Gujarat,-,Unnamed Zone,trunk,80,23.26808585,68.85264115,370655
Gujarat,-,Unnamed Zone,trunk,80,23.2491504,68.8371841,370655
Gujarat,Z185,Radhanpur-Mehsana SH-68 Extension,trunk,60,23.6063266,72.3801882,384001
Gujarat,Z186,Gondal Road,trunk,120,22.12060715,70.7779111,360024
Gujarat,-,Unnamed Zone,trunk,80,22.4258641,71.0838673,Pincode Not Found
Gujarat,-,Unnamed Zone,trunk,80,22.43172,71.0851788,Pincode Not Found
Gujarat,-,Unnamed Zone,trunk,80,22.4195364,71.1960905,363520
Gujarat,Z187,National Highway 8A,trunk,80,22.42694595,71.08422815,Pincode Not Found
Gujarat,-,Unnamed Zone,trunk,80,22.42582395,71.0840051,Pincode Not Found
Gujarat,-,Unnamed Zone,trunk,80,22.42552715,71.08390695,Pincode Not Found
Gujarat,-,Unnamed Zone,trunk,80,22.42969635,71.0852036,Pincode Not Found
Gujarat,-,Unnamed Zone,trunk,80,22.42634545,71.08315565,Pincode Not Found
Gujarat,-,Unnamed Zone,trunk,80,22.63639075,70.9615323,363621
Gujarat,-,Unnamed Zone,trunk,80,22.61130295,70.95372915,363621
Gujarat,-,Unnamed Zone,trunk,60,24.39721835,71.6383947,385565
Gujarat,Z123,Daman to NH48,trunk,60,20.46476,72.91131,396180
Gujarat,Z188,Daman to NH8,trunk,60,20.4614452,72.8872269,396210
Gujarat,-,Unnamed Zone,trunk,60,23.66446745,72.2812017,Pincode Not Found
Gujarat,-,Unnamed Zone,trunk,60,23.66533865,72.27996885,384225
Gujarat,-,Unnamed Zone,primary,60,23.69949525,71.76209665,384245
Gujarat,-,Unnamed Zone,trunk,60,23.04341385,70.9014849,Pincode Not Found
Gujarat,-,Unnamed Zone,primary,60,23.579869,70.64464945,370155
Gujarat,-,Unnamed Zone,trunk,80,23.02179005,69.0914458,370490
Gujarat,-,Unnamed Zone,trunk,80,23.0531068,69.0453315,370490
Gujarat,-,Unnamed Zone,trunk,80,23.57837335,68.6434174,370601
Gujarat,-,Unnamed Zone,primary,80,22.8354263,69.62162515,Pincode Not Found
Gujarat,-,Unnamed Zone,trunk,80,23.5841661,68.63058445,Pincode Not Found
Gujarat,-,Unnamed Zone,trunk,80,23.57817765,68.64377755,370601
Gujarat,-,Unnamed Zone,trunk,80,23.48627445,68.6924587,Pincode Not Found
Gujarat,Z146,Jarpata-Shiracha,primary,80,22.835633,69.62353505,Pincode Not Found
Gujarat,-,Unnamed Zone,trunk,80,23.48671725,68.69246255,370105
Gujarat,-,Unnamed Zone,trunk,80,23.58552015,68.6287367,370627
Gujarat,Z121,Port Road NorthEastbound Bhachau,trunk,80,23.2184425,70.26116865,370140
Gujarat,Z189,Port Road SouthWestbound Ghandhidham,trunk,80,23.21798865,70.26081205,370140
Gujarat,Z121,Port Road NorthEastbound Bhachau,trunk,80,23.2134585,70.25761135,370140
Gujarat,Z189,Port Road SouthWestbound Ghandhidham,trunk,80,23.25880305,70.3049261,Pincode Not Found
Gujarat,Z121,Port Road NorthEastbound Bhachau,trunk,80,23.25809755,70.3021986,Pincode Not Found
Gujarat,Z189,Port Road SouthWestbound Ghandhidham,trunk,80,23.2567933,70.30060125,370140
Gujarat,Z189,Port Road SouthWestbound Ghandhidham,trunk,80,23.25707425,70.3009925,Pincode Not Found
Gujarat,Z121,Port Road NorthEastbound Bhachau,trunk,80,23.2107092,70.2540839,370140
Gujarat,Z121,Port Road NorthEastbound Bhachau,trunk,80,23.2575977,70.30145795,Pincode Not Found
Gujarat,Z189,Port Road SouthWestbound Ghandhidham,trunk,80,23.21059755,70.25416315,370140
Gujarat,Z121,Port Road NorthEastbound Bhachau,trunk,80,23.2572016,70.3009058,Pincode Not Found
Gujarat,Z189,Port Road SouthWestbound Ghandhidham,trunk,80,23.25747805,70.30152575,Pincode Not Found
Gujarat,Z121,Port Road NorthEastbound Bhachau,trunk,80,23.2112645,70.25479685,370140
Gujarat,Z189,Port Road SouthWestbound Ghandhidham,trunk,80,23.21294655,70.25726145,370140
Gujarat,Z190,SH6 Eastbound Samakhyali,trunk,80,23.2978345,70.4017542,370140
Gujarat,Z121,Port Road NorthEastbound Bhachau,trunk,80,23.2601742,70.30876535,370140
Gujarat,Z189,Port Road SouthWestbound Ghandhidham,trunk,80,23.2099201,70.2532326,370140
Gujarat,Z189,Port Road SouthWestbound Ghandhidham,trunk,80,23.28609675,70.3360306,370140
Gujarat,Z189,Port Road SouthWestbound Ghandhidham,trunk,80,23.29337285,70.34963745,370140
Gujarat,Z191,SH6 Westbound Bachau,trunk,80,23.3063781,70.5221985,370150
Gujarat,Z116,SH6 Southbound Bachau-Maliya,trunk,80,23.1291811,70.76177305,363670
Gujarat,Z116,SH6 Southbound Bachau-Maliya,trunk,80,23.12189705,70.76680145,363670
Gujarat,Z191,SH6 Westbound Bachau,trunk,80,23.1218059,70.7666331,363670
Gujarat,Z191,SH6 Westbound Bachau,trunk,80,23.128965,70.76169845,363670
Gujarat,Z116,SH6 Southbound Bachau-Maliya,trunk,80,23.13332575,70.7547937,363670
Gujarat,Z191,SH6 Westbound Bachau,trunk,80,23.1331706,70.75467865,363670
Gujarat,Z191,SH6 Westbound Bachau,trunk,80,23.1334288,70.75413405,Pincode Not Found
Gujarat,Z116,SH6 Southbound Bachau-Maliya,trunk,80,23.1259601,70.7639771,363670
Gujarat,Z191,SH6 Westbound Bachau,trunk,80,23.1915055,70.717534,Pincode Not Found
Gujarat,Z191,SH6 Westbound Bachau,trunk,80,23.12262525,70.7660654,363670
Gujarat,Z116,SH6 Southbound Bachau-Maliya,trunk,80,23.13255095,70.75657945,363670
Gujarat,Z116,SH6 Southbound Bachau-Maliya,trunk,80,23.119601,70.76834995,363670
Gujarat,Z191,SH6 Westbound Bachau,trunk,80,23.1295018,70.7613233,363670
Gujarat,Z191,SH6 Westbound Bachau,trunk,80,23.2025125,70.71493095,370150
Gujarat,-,Unnamed Zone,trunk,60,23.0643031,71.7513392,382745
Gujarat,-,Unnamed Zone,trunk,60,23.0683947,71.76872235,Pincode Not Found
Gujarat,-,Unnamed Zone,trunk,60,23.0280864,71.6484666,382745
Gujarat,-,Unnamed Zone,trunk,60,23.0731632,71.7924514,Pincode Not Found
Gujarat,-,Unnamed Zone,trunk,60,23.0223152,71.60645645,Pincode Not Found
Gujarat,-,Unnamed Zone,trunk,60,23.08231255,71.8402102,Pincode Not Found
Gujarat,-,Unnamed Zone,trunk,60,23.06828445,71.7682062,382745
Gujarat,-,Unnamed Zone,trunk,60,23.02648685,71.64355905,Pincode Not Found
Gujarat,-,Unnamed Zone,trunk,60,23.00531095,71.08957355,Pincode Not Found
Gujarat,-,Unnamed Zone,trunk,60,23.02576115,71.6413873,Pincode Not Found
Gujarat,-,Unnamed Zone,trunk,60,23.06322815,71.7456056,382745
Gujarat,-,Unnamed Zone,trunk,60,23.02736415,71.64619985,Pincode Not Found
Gujarat,-,Unnamed Zone,trunk,60,23.08188485,71.8390133,Pincode Not Found
Gujarat,-,Unnamed Zone,trunk,60,23.0224109,71.6075797,Pincode Not Found
Gujarat,-,Unnamed Zone,trunk,60,23.0024824,71.53564525,363320
Gujarat,-,Unnamed Zone,primary,60,24.18076355,73.0013606,Pincode Not Found
Gujarat,-,Unnamed Zone,primary,60,24.1483566,73.01017125,Pincode Not Found
Gujarat,-,Unnamed Zone,primary,60,24.1806028,73.0018107,Pincode Not Found
Gujarat,-,Unnamed Zone,primary,60,24.04299545,73.0492856,383255
Gujarat,-,Unnamed Zone,primary,60,24.14881275,73.01013005,Pincode Not Found
Gujarat,Z110,State Highway 9,primary,60,24.29380645,72.94557125,Pincode Not Found
Gujarat,Z110,State Highway 9,primary,60,23.6074276,72.9629937,383001
Gujarat,Z110,State Highway 9,primary,60,23.6179878,72.96404665,383001
Gujarat,-,Unnamed Zone,trunk,60,23.097696,72.09269295,382150
Gujarat,-,Unnamed Zone,trunk,60,23.0977091,72.0919582,382150
Gujarat,-,Unnamed Zone,primary,60,23.56087065,71.790647,Pincode Not Found
Gujarat,-,Unnamed Zone,primary,60,23.66429365,71.77568055,384245
Gujarat,-,Unnamed Zone,primary,60,23.65831525,71.77533605,384245
Gujarat,-,Unnamed Zone,primary,60,23.57047125,71.7897439,Pincode Not Found
Gujarat,-,Unnamed Zone,primary,60,23.5603294,71.79014775,Pincode Not Found
Gujarat,-,Unnamed Zone,primary,60,23.5400742,71.78756595,384246
Gujarat,-,Unnamed Zone,primary,60,23.4477087,71.7996601,Pincode Not Found
Gujarat,-,Unnamed Zone,primary,60,23.57076295,71.7898859,Pincode Not Found
Gujarat,-,Unnamed Zone,primary,60,23.4486983,71.79942945,384246
Gujarat,-,Unnamed Zone,primary,60,23.5422928,71.78777685,384246
Gujarat,-,Unnamed Zone,primary,60,23.81182415,71.6162963,385340
Gujarat,-,Unnamed Zone,primary,60,23.77058085,71.62431175,Pincode Not Found
Gujarat,-,Unnamed Zone,primary,60,23.7101337,71.7274843,Pincode Not Found
Gujarat,-,Unnamed Zone,primary,60,23.8117056,71.6163197,385340
Gujarat,-,Unnamed Zone,primary,60,23.78520405,71.62149885,385340
Gujarat,-,Unnamed Zone,primary,60,23.70804915,71.7359595,384245
Gujarat,-,Unnamed Zone,primary,60,23.7096804,71.729349,384245
Gujarat,-,Unnamed Zone,primary,60,23.7073921,71.7386181,384245
Gujarat,-,Unnamed Zone,primary,60,23.79503445,71.6195911,385340
Gujarat,-,Unnamed Zone,primary,60,23.7675216,71.6260107,Pincode Not Found
Gujarat,-,Unnamed Zone,primary,50,23.0684798,71.7546292,Pincode Not Found
Gujarat,-,Unnamed Zone,primary,50,23.2433003,71.7724993,Pincode Not Found
Gujarat,-,Unnamed Zone,primary,50,23.3343697,71.85377875,382750
Gujarat,-,Unnamed Zone,primary,50,23.06827885,71.7544945,382745
Gujarat,-,Unnamed Zone,primary,50,23.334457,71.85402,382750
Gujarat,-,Unnamed Zone,primary,50,23.46997355,71.9609823,Pincode Not Found
Gujarat,-,Unnamed Zone,primary,50,23.215313,71.789658,382765
Gujarat,-,Unnamed Zone,primary,50,23.2161465,71.7893359,382765
Gujarat,-,Unnamed Zone,primary,50,23.4702024,71.9617545,Pincode Not Found
Gujarat,-,Unnamed Zone,primary,50,23.24382815,71.77233195,382750
Gujarat,-,Unnamed Zone,trunk,60,22.6792441,71.72757,Pincode Not Found
Gujarat,-,Unnamed Zone,trunk,60,22.6856136,71.71635075,363030
Gujarat,-,Unnamed Zone,trunk,60,22.6797792,71.7269157,Pincode Not Found
Gujarat,-,Unnamed Zone,trunk,60,22.6855507,71.71647545,Pincode Not Found
Gujarat,Z192,Bedi Road,secondary,40,22.49248815,70.0477419,361008
Gujarat,Z192,Bedi Road,secondary,10,22.49204245,70.04821995,361008
Gujarat,Z192,Bedi Road,secondary,50,22.48960825,70.0509332,361008
Gujarat,-,Unnamed Zone,primary,60,23.6860577,72.037452,Pincode Not Found
Gujarat,-,Unnamed Zone,trunk,60,23.63956915,72.3266174,384205
Gujarat,-,Unnamed Zone,trunk,60,23.66864155,72.27208545,384225
Gujarat,-,Unnamed Zone,primary,60,23.6860932,72.037915,Pincode Not Found
Gujarat,-,Unnamed Zone,primary,60,23.69437675,71.86060445,384240
Gujarat,-,Unnamed Zone,trunk,60,23.64022265,72.3262916,384205
Gujarat,Z193,Mehsana-Himatnagar Vijapur road,primary,100,23.5647878,72.42348815,384002
Gujarat,-,Unnamed Zone,trunk,60,23.66851145,72.27087435,384225
Gujarat,-,Unnamed Zone,primary,60,23.69473815,71.859394,384245
Gujarat,Z138,State Highway 72,primary,60,24.10095885,71.71427815,385330
Gujarat,Z138,State Highway 72,primary,60,24.1010403,71.714558,385330
Gujarat,-,Unnamed Zone,trunk,80,23.1545458,70.12151825,370240
Gujarat,-,Unnamed Zone,trunk,80,23.1431941,70.10196165,370110
Gujarat,Z194,Shiracha-Tunda,primary,80,22.84025685,69.56135035,370435
Gujarat,Z140,Tunda-Mandvi,primary,80,22.82698605,69.48392385,370405
Gujarat,-,Unnamed Zone,trunk,80,23.1652583,70.1393882,370240
Gujarat,-,Unnamed Zone,trunk,80,23.1541592,70.1209394,370240
Gujarat,-,Unnamed Zone,trunk,80,22.89784325,69.21452475,370405
Gujarat,-,Unnamed Zone,trunk,80,23.1875186,70.192141,370240
Gujarat,-,Unnamed Zone,trunk,80,23.1188678,70.0456163,370110
Gujarat,-,Unnamed Zone,trunk,80,23.1226929,70.0553847,370110
Gujarat,-,Unnamed Zone,trunk,80,23.6360634,68.5424721,370627
Gujarat,-,Unnamed Zone,trunk,80,23.12090385,70.050296,370110
Gujarat,-,Unnamed Zone,trunk,80,22.88522725,69.22336035,370405
Gujarat,-,Unnamed Zone,trunk,80,23.1437257,70.1023485,Pincode Not Found
Gujarat,-,Unnamed Zone,trunk,80,23.18780745,70.1927966,370240
Gujarat,-,Unnamed Zone,trunk,80,23.1215995,70.05226205,370110
Gujarat,-,Unnamed Zone,trunk,80,23.6365035,68.54254605,370627
Gujarat,-,Unnamed Zone,trunk,80,23.1227691,70.05557865,Pincode Not Found
Gujarat,Z146,Jarpata-Shiracha,primary,80,22.8402619,69.5621684,370405
Gujarat,-,Unnamed Zone,trunk,80,23.11909095,70.0461188,370110
Gujarat,-,Unnamed Zone,trunk,80,23.1736164,70.1516175,370240
Gujarat,Z140,Tunda-Mandvi,primary,80,22.82728255,69.4846983,370435
Gujarat,-,Unnamed Zone,primary,80,23.10429,69.9997969,370110
Gujarat,-,Unnamed Zone,trunk,60,23.07594205,70.7954802,363670
Gujarat,-,Unnamed Zone,trunk_link,60,23.07614165,70.795069,363670
Gujarat,-,Unnamed Zone,trunk,80,22.8517724,70.85229435,363600
Gujarat,-,Unnamed Zone,trunk,80,22.83799475,70.8505446,363600
Gujarat,-,Unnamed Zone,trunk,80,22.83493315,70.8505971,363600
Gujarat,-,Unnamed Zone,trunk,80,23.0802142,70.79298945,363670
Gujarat,-,Unnamed Zone,trunk,80,22.8759789,70.8428758,363600
Gujarat,-,Unnamed Zone,trunk,80,22.8537839,70.85278935,363600
Gujarat,-,Unnamed Zone,trunk,80,22.8391408,70.8508502,363600
Gujarat,-,Unnamed Zone,trunk,80,22.83859,70.8507881,363600
Gujarat,-,Unnamed Zone,trunk,80,22.87771375,70.8416615,363600
Gujarat,-,Unnamed Zone,trunk,80,22.8386032,70.85064835,363600
Gujarat,-,Unnamed Zone,trunk,80,22.8529348,70.8526645,363600
Gujarat,-,Unnamed Zone,trunk,80,23.0777956,70.79451555,363670
Gujarat,-,Unnamed Zone,trunk,80,23.0758408,70.7954333,363670
Gujarat,-,Unnamed Zone,trunk,80,22.85296185,70.8525374,363600
Gujarat,-,Unnamed Zone,trunk,80,22.87781465,70.8417367,363600
Gujarat,-,Unnamed Zone,trunk,80,22.82685365,70.8576734,363600
Gujarat,-,Unnamed Zone,trunk,80,23.0742016,70.796545,363600
Gujarat,-,Unnamed Zone,trunk,80,23.07675875,70.79493475,363670
Gujarat,-,Unnamed Zone,trunk,80,22.87955475,70.8405509,363600
Gujarat,-,Unnamed Zone,trunk,80,22.82618815,70.8581904,Pincode Not Found
Gujarat,-,Unnamed Zone,trunk,80,22.82774585,70.85706685,363600
Gujarat,-,Unnamed Zone,trunk,80,22.829578,70.8555917,363600
Gujarat,Z191,SH6 Westbound Bachau,trunk,80,23.10038275,70.7811057,363670
Gujarat,-,Unnamed Zone,trunk,80,22.83021865,70.8548653,363642
Gujarat,-,Unnamed Zone,trunk,80,22.83487595,70.8507964,363600
Gujarat,-,Unnamed Zone,trunk,80,22.5216477,71.00843255,Pincode Not Found
Gujarat,-,Unnamed Zone,trunk,80,22.71281175,70.93891495,Pincode Not Found
Gujarat,-,Unnamed Zone,trunk,80,22.7082055,70.9366688,Pincode Not Found
Gujarat,-,Unnamed Zone,trunk,80,22.51853395,71.0106378,Pincode Not Found
Gujarat,-,Unnamed Zone,trunk,80,22.61563745,70.95309865,363621
Gujarat,-,Unnamed Zone,trunk,80,22.62908725,70.95775915,363621
Gujarat,-,Unnamed Zone,trunk,80,22.41476905,71.12010105,Pincode Not Found
Gujarat,-,Unnamed Zone,trunk,80,22.52007405,71.0094771,Pincode Not Found
Gujarat,-,Unnamed Zone,trunk,80,22.6118791,70.953686,363621
Gujarat,-,Unnamed Zone,trunk,80,22.613422,70.9533669,363621
Gujarat,-,Unnamed Zone,trunk,80,22.63040165,70.95836345,363621
Gujarat,-,Unnamed Zone,trunk,80,22.6303519,70.9584706,363621
Gujarat,-,Unnamed Zone,trunk,80,22.5201184,71.00959225,Pincode Not Found
Gujarat,-,Unnamed Zone,trunk,80,22.73028175,70.93366475,Pincode Not Found
Gujarat,-,Unnamed Zone,trunk,80,22.7303032,70.9338031,Pincode Not Found
Gujarat,-,Unnamed Zone,trunk,80,22.6134199,70.95351165,363621
Gujarat,-,Unnamed Zone,trunk,80,22.7071268,70.9360572,Pincode Not Found
Gujarat,-,Unnamed Zone,trunk,80,22.70670045,70.9356192,Pincode Not Found
Gujarat,-,Unnamed Zone,trunk,80,22.63333895,70.960021,363621
Gujarat,-,Unnamed Zone,trunk,80,22.71326585,70.9386207,Pincode Not Found
Gujarat,-,Unnamed Zone,trunk,80,22.71665805,70.9377827,Pincode Not Found
Gujarat,-,Unnamed Zone,trunk,80,22.7062463,70.9354898,363621
Gujarat,-,Unnamed Zone,trunk,80,22.7281115,70.9344445,Pincode Not Found
Gujarat,-,Unnamed Zone,trunk,80,22.7182289,70.93719055,Pincode Not Found
Gujarat,-,Unnamed Zone,trunk,80,22.73133985,70.9333646,Pincode Not Found
Gujarat,-,Unnamed Zone,trunk,80,22.5749803,71.8411775,363421
Gujarat,Z175,Ahmdavad- rajkot hway,trunk,80,22.57487695,71.8170745,363421
Gujarat,-,Unnamed Zone,trunk,80,22.5747621,71.81571525,363421
Gujarat,-,Unnamed Zone,trunk,80,22.4400411,71.22418575,363520
Gujarat,-,Unnamed Zone,trunk,80,22.4302572,71.2057669,363520
Gujarat,-,Unnamed Zone,trunk,80,22.42204935,71.1850498,Pincode Not Found
Gujarat,-,Unnamed Zone,trunk,80,22.4798723,71.2867751,Pincode Not Found
Gujarat,-,Unnamed Zone,trunk,80,22.4415332,71.2274849,Pincode Not Found
Gujarat,-,Unnamed Zone,trunk,80,22.42218345,71.1854129,363520
Gujarat,-,Unnamed Zone,trunk,80,22.42229975,71.1853595,363520
Gujarat,-,Unnamed Zone,trunk,80,22.47698965,71.28164985,Pincode Not Found
Gujarat,-,Unnamed Zone,trunk,80,22.4225251,71.18599215,363520
Gujarat,-,Unnamed Zone,trunk,80,22.42255425,71.20155035,363520
Gujarat,-,Unnamed Zone,trunk,80,22.6016833,72.1028131,Pincode Not Found
Gujarat,-,Unnamed Zone,trunk,80,22.67258525,72.23219165,Pincode Not Found
Gujarat,-,Unnamed Zone,trunk,80,22.6914256,72.23579405,Pincode Not Found
Gujarat,-,Unnamed Zone,trunk,80,22.7834564,72.32783665,382220
Gujarat,-,Unnamed Zone,trunk,80,22.836014,72.36220255,382220
Gujarat,-,Unnamed Zone,trunk,80,22.5696084,71.78199265,363421
Gujarat,-,Unnamed Zone,trunk,80,22.56972365,71.78240585,363421
Gujarat,-,Unnamed Zone,trunk,80,22.6061829,72.11998895,Pincode Not Found
Gujarat,-,Unnamed Zone,trunk,80,22.8365625,72.36285585,382220
Gujarat,-,Unnamed Zone,trunk,80,22.7079891,72.25067775,382240
Gujarat,-,Unnamed Zone,trunk,80,22.6165457,72.15239955,Pincode Not Found
Gujarat,-,Unnamed Zone,trunk,80,22.7079155,72.25076475,382240
Gujarat,-,Unnamed Zone,trunk,80,22.6021368,72.10418295,Pincode Not Found
Gujarat,-,Unnamed Zone,trunk,80,22.60635005,72.11992805,Pincode Not Found
Gujarat,-,Unnamed Zone,trunk,80,22.6166882,72.15228245,Pincode Not Found
Gujarat,-,Unnamed Zone,trunk,80,22.8364676,72.36291605,382220
Gujarat,-,Unnamed Zone,trunk,80,22.8371604,72.36379495,382220
Gujarat,-,Unnamed Zone,trunk,80,22.6058472,72.11865585,Pincode Not Found
Gujarat,-,Unnamed Zone,trunk,80,22.602684,72.1052843,Pincode Not Found
Gujarat,-,Unnamed Zone,trunk,80,22.60672935,72.1215441,Pincode Not Found
Gujarat,-,Unnamed Zone,trunk,80,22.6139831,72.1464489,Pincode Not Found
Gujarat,-,Unnamed Zone,trunk,100,22.22140935,68.9977292,361335
Gujarat,-,Unnamed Zone,trunk,100,22.15949775,69.0509545,Pincode Not Found
Gujarat,-,Unnamed Zone,trunk,60,23.79637955,71.41365635,Pincode Not Found
Gujarat,-,Unnamed Zone,trunk,60,23.7934622,71.41737535,385340
Gujarat,-,Unnamed Zone,trunk,60,23.79637795,71.4135381,Pincode Not Found
Gujarat,-,Unnamed Zone,trunk,60,23.80647375,71.3060558,385350
Gujarat,Z195,NH27 SouthWest to SH6,trunk,60,23.3387767,70.5818458,370150
Gujarat,-,Unnamed Zone,trunk,60,23.33863915,70.58269205,Pincode Not Found
Gujarat,-,Unnamed Zone,trunk,60,23.3387762,70.5827322,Pincode Not Found
Gujarat,-,Unnamed Zone,trunk,60,23.3573377,70.6042019,370145
Gujarat,-,Unnamed Zone,trunk,80,23.0865584,70.78938585,363670
Gujarat,-,Unnamed Zone,trunk,80,23.0865257,70.78957615,363670
Gujarat,-,Unnamed Zone,trunk,80,23.0849159,70.7904658,363670
Gujarat,-,Unnamed Zone,trunk,80,23.08768205,70.7887517,363670
Gujarat,Z100,Ahmadabad Vadodara Expressway,motorway,100,22.5870469,72.99245095,388360
Gujarat,Z100,Ahmadabad Vadodara Expressway,motorway,100,22.58695085,72.9923332,388360
Gujarat,Z100,Ahmadabad Vadodara Expressway,motorway,100,22.58324415,72.996356,388330
Gujarat,Z100,Ahmadabad Vadodara Expressway,motorway,100,22.5876324,72.99163765,388360
Gujarat,Z100,Ahmadabad Vadodara Expressway,motorway,100,22.7372667,72.8652569,387002
Gujarat,Z100,Ahmadabad Vadodara Expressway,motorway,100,22.73934685,72.8642679,387002
Gujarat,Z100,Ahmadabad Vadodara Expressway,motorway,100,22.73939025,72.86441595,387002
Gujarat,Z100,Ahmadabad Vadodara Expressway,motorway,100,22.87107185,72.80240655,Pincode Not Found
Gujarat,Z100,Ahmadabad Vadodara Expressway,motorway,100,22.7411933,72.8635792,387430
Gujarat,Z100,Ahmadabad Vadodara Expressway,motorway,100,22.86839615,72.80388475,Pincode Not Found
Gujarat,Z100,Ahmadabad Vadodara Expressway,motorway,100,22.8710319,72.80225195,Pincode Not Found
Gujarat,-,Unnamed Zone,primary,50,23.6012468,72.138105,Pincode Not Found
Gujarat,-,Unnamed Zone,primary,50,23.58996235,72.1401991,Pincode Not Found
Gujarat,-,Unnamed Zone,primary,50,23.54386245,72.10682995,Pincode Not Found
Gujarat,-,Unnamed Zone,primary,50,23.5757919,72.13023895,Pincode Not Found
Gujarat,Z196,Paddhari - Mitana Highway,primary,80,22.47757805,70.65164515,Pincode Not Found
Gujarat,-,Unnamed Zone,trunk,80,23.3464453,68.773674,370655
Gujarat,-,Unnamed Zone,primary,50,23.579078,72.13328255,Pincode Not Found
Gujarat,-,Unnamed Zone,primary,50,23.57777745,72.13184895,Pincode Not Found
Gujarat,-,Unnamed Zone,trunk,60,22.74019395,71.62355445,363001
Gujarat,-,Unnamed Zone,trunk,80,23.3508026,68.7718998,370655
Gujarat,-,Unnamed Zone,trunk,80,23.3515572,68.7714828,370511
Gujarat,-,Unnamed Zone,trunk,60,23.69385065,72.17108875,Pincode Not Found
Gujarat,-,Unnamed Zone,trunk,60,23.6942795,72.17033495,384220
Gujarat,Z100,Ahmadabad Vadodara Expressway,motorway,100,22.68798335,72.90394985,387001
Gujarat,Z100,Ahmadabad Vadodara Expressway,motorway,100,22.684294,72.9063809,387370
Gujarat,Z100,Ahmadabad Vadodara Expressway,motorway,100,22.6873753,72.90452645,387360
Gujarat,Z100,Ahmadabad Vadodara Expressway,motorway,100,22.6873282,72.90432815,387360
Gujarat,Z100,Ahmadabad Vadodara Expressway,motorway,100,22.85088875,72.8136519,387430
Gujarat,Z100,Ahmadabad Vadodara Expressway,motorway,100,22.85306735,72.81226215,387130
Gujarat,Z100,Ahmadabad Vadodara Expressway,motorway,100,22.85316155,72.8123777,387130
Gujarat,Z100,Ahmadabad Vadodara Expressway,motorway,100,22.8562777,72.8104642,387130
Gujarat,Z197,Vakil Scoiety,residential,20,22.68789225,72.8644945,387001
Gujarat,Z197,Vakil Scoiety,residential,20,22.68780455,72.86410765,387001
Gujarat,-,Unnamed Zone,primary,50,23.64699055,72.14103425,Pincode Not Found
Gujarat,-,Unnamed Zone,primary,50,23.64734395,72.1402784,384220
Gujarat,-,Unnamed Zone,primary,60,23.47871875,70.40648085,Pincode Not Found
Gujarat,-,Unnamed Zone,primary,60,23.4361354,70.3405116,370140
Gujarat,-,Unnamed Zone,primary,60,23.5309826,70.4393254,370140
Gujarat,-,Unnamed Zone,trunk,60,23.0564259,70.85699615,Pincode Not Found
Gujarat,-,Unnamed Zone,trunk,60,23.05549225,70.8590866,Pincode Not Found
Gujarat,-,Unnamed Zone,trunk,60,23.763812,71.1742032,385350
Gujarat,-,Unnamed Zone,trunk,60,23.76256395,71.17114,385350
Gujarat,-,Unnamed Zone,trunk,60,23.75833425,71.1611497,385350
Gujarat,-,Unnamed Zone,trunk,60,23.763013,71.1725515,385350
Gujarat,-,Unnamed Zone,trunk,60,23.0978769,72.0679422,382150
Gujarat,Z198,Sanad-Viram gam Sachana hwy,trunk,60,23.07990585,72.1859631,Pincode Not Found
Gujarat,-,Unnamed Zone,trunk,60,23.09787135,72.063032,382150
Gujarat,-,Unnamed Zone,trunk,60,23.0197637,71.5823525,363320
Gujarat,-,Unnamed Zone,trunk,60,23.0254784,71.6409461,Pincode Not Found
Gujarat,-,Unnamed Zone,trunk,60,23.0909201,72.0279768,382150
Gujarat,-,Unnamed Zone,trunk,60,23.02218785,71.6064614,Pincode Not Found
Gujarat,-,Unnamed Zone,trunk,60,23.0272142,71.6462568,Pincode Not Found
Gujarat,-,Unnamed Zone,trunk,60,23.02563495,71.64142005,Pincode Not Found
Gujarat,-,Unnamed Zone,trunk,60,23.0824221,71.84012265,Pincode Not Found
Gujarat,-,Unnamed Zone,trunk,60,23.08337195,71.99702445,Pincode Not Found
Gujarat,-,Unnamed Zone,trunk,60,23.0730134,71.79241685,Pincode Not Found
Gujarat,-,Unnamed Zone,trunk,60,23.0656141,71.757283,382745
Gujarat,-,Unnamed Zone,trunk,60,23.06570795,71.75725645,382745
Gujarat,-,Unnamed Zone,trunk,60,23.068154,71.7681964,382745
Gujarat,-,Unnamed Zone,trunk,60,23.0201033,71.58439385,363320
Gujarat,-,Unnamed Zone,trunk,60,23.0199807,71.5844087,363320
Gujarat,-,Unnamed Zone,trunk,60,23.0732951,71.7931898,Pincode Not Found
Gujarat,-,Unnamed Zone,trunk,60,23.08324765,71.99695035,Pincode Not Found
Gujarat,-,Unnamed Zone,trunk,60,23.02664155,71.64449225,Pincode Not Found
Gujarat,-,Unnamed Zone,trunk,60,23.08357585,71.99781515,382150
Gujarat,-,Unnamed Zone,trunk,60,23.02031065,71.5863895,Pincode Not Found
Gujarat,-,Unnamed Zone,trunk,60,23.06287145,71.7443244,382745
Gujarat,-,Unnamed Zone,trunk,60,23.06790135,71.76705405,382745
Gujarat,-,Unnamed Zone,trunk,60,23.08273065,71.8410074,Pincode Not Found
Gujarat,-,Unnamed Zone,trunk,60,23.0830665,71.9962466,Pincode Not Found
Gujarat,-,Unnamed Zone,trunk,60,23.02206105,71.6052396,Pincode Not Found
Gujarat,-,Unnamed Zone,trunk,60,23.0658135,71.7577135,382745
Gujarat,-,Unnamed Zone,trunk,60,23.0810922,71.9898881,Pincode Not Found
Gujarat,-,Unnamed Zone,trunk,60,23.0728378,71.7913828,Pincode Not Found
Gujarat,-,Unnamed Zone,trunk,60,23.0530358,70.8652321,Pincode Not Found
Gujarat,-,Unnamed Zone,trunk,60,23.00539885,71.0920596,363330
Gujarat,-,Unnamed Zone,trunk,60,23.0387209,70.92167355,Pincode Not Found
Gujarat,-,Unnamed Zone,trunk,60,23.0556582,70.85903675,Pincode Not Found
Gujarat,-,Unnamed Zone,trunk,60,23.068191,70.82407715,Pincode Not Found
Gujarat,-,Unnamed Zone,trunk,60,23.06805395,70.82399495,Pincode Not Found
Gujarat,-,Unnamed Zone,trunk,60,23.03884335,70.92169555,Pincode Not Found
Gujarat,-,Unnamed Zone,trunk,60,23.00549375,71.08954005,Pincode Not Found
Gujarat,-,Unnamed Zone,trunk,60,23.03890295,70.9208888,Pincode Not Found
Gujarat,-,Unnamed Zone,trunk,60,23.03802465,70.92509175,Pincode Not Found
Gujarat,-,Unnamed Zone,trunk,60,23.0687208,70.8219193,Pincode Not Found
Gujarat,-,Unnamed Zone,trunk,60,23.0678565,70.82514975,Pincode Not Found
Gujarat,-,Unnamed Zone,primary,60,23.38449005,71.8016522,Pincode Not Found
Gujarat,-,Unnamed Zone,primary,60,23.38401345,71.80135785,Pincode Not Found
Gujarat,-,Unnamed Zone,primary,50,23.4133397,71.91138085,Pincode Not Found
Gujarat,-,Unnamed Zone,primary,50,23.41343155,71.9114386,Pincode Not Found
Gujarat,Z110,State Highway 9,primary,60,23.58381475,72.9581065,383001
Gujarat,Z110,State Highway 9,primary,60,23.5839273,72.9580845,383001
Gujarat,-,Unnamed Zone,trunk,60,23.0979816,72.06842485,382150
Gujarat,-,Unnamed Zone,trunk,60,23.0978141,72.09273895,382150
Gujarat,-,Unnamed Zone,trunk,80,22.884448,69.5284383,370405
Gujarat,-,Unnamed Zone,trunk,80,22.43009245,71.08513255,Pincode Not Found
Gujarat,Z114,NH27 NorthEast bound,trunk,60,23.3078733,70.5145861,370150
Gujarat,Z191,SH6 Westbound Bachau,trunk,80,23.3076451,70.50982255,370150
Gujarat,-,Unnamed Zone,trunk,80,23.3453064,68.7742619,370655
Gujarat,-,Unnamed Zone,residential,20,23.06792725,72.56555925,382480
Gujarat,-,Unnamed Zone,residential,20,23.068493,72.56390685,382480
Gujarat,-,Unnamed Zone,residential,20,23.0691174,72.5638886,382480
Gujarat,-,Unnamed Zone,residential,20,23.0690927,72.56450585,382480
Gujarat,-,Unnamed Zone,residential,20,23.0688488,72.56589675,382480
Gujarat,-,Unnamed Zone,residential,20,23.0693536,72.56471425,382480
Gujarat,Z199,Anand Mahal Road,secondary,40,21.1924831,72.79974365,392009
Gujarat,Z200,Ramannagar Society,residential,15,22.9946024,72.6117779,380008
Gujarat,Z201,Ramanagar Society (Dead end),residential,15,22.99434475,72.6114868,380008
Gujarat,Z202,Charotar Patel Society,residential,15,22.99470305,72.61082385,380008
Gujarat,Z203,Harihar Society,residential,15,22.9931823,72.6113888,380008
Gujarat,Z204,Dalal Colony,residential,15,22.99192775,72.6114426,380008
Gujarat,-,Unnamed Zone,residential,15,22.99321275,72.61071955,380008
Gujarat,Z205,Sitabaug Society,residential,15,22.99222195,72.6101133,380008
Gujarat,-,Unnamed Zone,residential,15,22.99270435,72.6090522,380008
Gujarat,Z206,Kalgi Apartment (Gate-II),residential,15,22.9925659,72.6089924,380008
Gujarat,-,Unnamed Zone,tertiary_link,40,23.0156793,72.56270405,380007
Gujarat,Z100,Ahmadabad Vadodara Expressway,motorway,100,22.94881325,72.6990201,382449
Gujarat,Z100,Ahmadabad Vadodara Expressway,motorway,100,22.9489521,72.6990674,382449
Gujarat,Z100,Ahmadabad Vadodara Expressway,motorway,100,22.9501184,72.69659925,382449
Gujarat,Z100,Ahmadabad Vadodara Expressway,motorway,100,22.9476881,72.7014271,382449
Gujarat,Z100,Ahmadabad Vadodara Expressway,motorway,100,22.9154223,72.76026465,387110
Gujarat,Z100,Ahmadabad Vadodara Expressway,motorway,100,22.9125789,72.7634562,387110
Gujarat,Z100,Ahmadabad Vadodara Expressway,motorway,100,22.91333385,72.7624618,387110
Gujarat,Z207,Dhrol - Tankara State Highway,primary,80,22.59367675,70.6647274,Pincode Not Found
Gujarat,-,Unnamed Zone,tertiary,40,21.19774005,72.7797243,395009
Gujarat,-,Unnamed Zone,trunk,60,22.8669303,71.58532515,Pincode Not Found
Gujarat,-,Unnamed Zone,trunk,60,22.8658852,71.5858969,Pincode Not Found
Gujarat,-,Unnamed Zone,trunk,60,22.7478998,71.62186,363001
Gujarat,-,Unnamed Zone,trunk,60,22.87622675,71.5597605,Pincode Not Found
Gujarat,-,Unnamed Zone,trunk,60,22.74862745,71.6216979,363001
Gujarat,-,Unnamed Zone,trunk,60,22.74758075,71.62196065,363001
Gujarat,-,Unnamed Zone,trunk,60,22.7442241,71.62262175,363001
Gujarat,-,Unnamed Zone,trunk,60,22.74505685,71.62249015,363001
Gujarat,-,Unnamed Zone,trunk,60,22.87716985,71.55678095,Pincode Not Found
Gujarat,-,Unnamed Zone,trunk,60,22.74886885,71.62163135,363001
Gujarat,-,Unnamed Zone,trunk_link,60,23.0759543,70.7957535,Pincode Not Found
Gujarat,Z170,Chikhali Majigam road,unclassified,20,20.7510877,73.03960665,396325
Gujarat,Z208,Gunatit Nagar,residential,30,21.17172175,72.81429115,359007
Gujarat,Z209,Parth Home,residential,50,23.07463555,72.5592592,382480
Gujarat,-,Unnamed Zone,residential,15,22.2825333,73.1909617,390001
Gujarat,-,Unnamed Zone,residential,15,22.28277995,73.19145135,390011
Gujarat,-,Unnamed Zone,residential,15,22.28281965,73.1912113,390011
Gujarat,-,Unnamed Zone,residential,15,22.2826273,73.1916964,390001
Gujarat,-,Unnamed Zone,residential,15,22.28232535,73.19149225,390001
Gujarat,-,Unnamed Zone,residential,15,22.2975675,73.1647894,390020
Gujarat,-,Unnamed Zone,service,20,22.3114589,73.182772,390001
Gujarat,-,Unnamed Zone,service,20,22.3110049,73.1837273,390001
Gujarat,-,Unnamed Zone,service,20,22.31252785,73.18359505,390001
Gujarat,-,Unnamed Zone,service,15,22.3121706,73.1831992,390001
Gujarat,-,Unnamed Zone,residential,20,22.98203795,72.61090155,380050
Gujarat,-,Unnamed Zone,residential,100,22.98262255,72.60817075,380050
Gujarat,-,Unnamed Zone,residential,20,22.98285715,72.60824185,380050
Gujarat,-,Unnamed Zone,residential,30,23.08623705,72.56038405,382480
Gujarat,Z210,Gangotri Duplex 7-23,residential,15,23.0867858,72.5628234,382480
Gujarat,Z211,Gangotri 1-6,residential,10,23.08683385,72.5630779,382480
Gujarat,Z212,Chandlodia Lake Road,tertiary,20,23.08047895,72.5505526,382481
Gujarat,Z213,Ranip Gam Road,tertiary,30,23.08014355,72.5686025,382480
Gujarat,-,Unnamed Zone,residential,30,23.08217055,72.56958315,382480
Gujarat,Z214,Sattapir Road,tertiary,20,20.9533687,72.92763035,396400
Gujarat,-,Unnamed Zone,residential,30,23.1104243,72.54951625,382470
Gujarat,Z215,Kavi Shri Umashankar Joshi Bridge,primary,60,23.58675425,72.95750965,383001
Gujarat,Z110,State Highway 9,primary,60,23.5909555,72.9577196,383001
Gujarat,Z216,IIM Overbridge,secondary,50,23.03526705,72.53368145,380052
Gujarat,Z216,IIM Overbridge,secondary,50,23.03282095,72.53706475,380052
Gujarat,Z217,Sarjan Road No C 1,residential,40,21.1700655,72.794627,395007
Gujarat,Z218,Sarjan Society Entry No 01,residential,40,21.1714605,72.79031565,395007
Gujarat,Z219,Sarjan Road No A 1,residential,40,21.16976165,72.79075705,395007
Gujarat,Z117,State Highway 7,primary,60,22.99862505,71.44304665,363300
Gujarat,Z117,State Highway 7,primary,60,22.99471915,71.4591729,363300
Gujarat,Z117,State Highway 7,primary,60,22.99089865,71.46153625,363300
Gujarat,-,Unnamed Zone,trunk,60,23.00363855,71.1850915,363330
Gujarat,-,Unnamed Zone,trunk,60,23.0035344,71.1845044,363330
Gujarat,-,Unnamed Zone,trunk,60,23.00364005,71.18424645,363330
Gujarat,-,Unnamed Zone,trunk,60,23.0035347,71.1831464,363330
Gujarat,Z220,Anavil Street,residential,40,20.92369505,72.9280927,396400
Gujarat,Z221,Ellis Flyover,secondary,60,23.0224671,72.5731414,380043
Gujarat,Z221,Ellis Flyover,secondary,60,23.02259135,72.5730279,380043
Gujarat,Z221,Ellis Flyover,secondary,60,23.022527,72.57263595,380006
Gujarat,Z207,Dhrol - Tankara State Highway,primary,80,22.5779017,70.41033155,361210
Gujarat,Z100,Ahmadabad Vadodara Expressway,motorway,100,22.6367085,72.94164695,387310
Gujarat,Z100,Ahmadabad Vadodara Expressway,motorway,100,22.63853415,72.93952125,387315
Gujarat,Z100,Ahmadabad Vadodara Expressway,motorway,100,22.63805955,72.940008,387315
Gujarat,-,Unnamed Zone,residential,50,22.3744368,69.8334123,361280
Gujarat,-,Unnamed Zone,residential,50,22.37614645,69.8387983,361280
Gujarat,-,Unnamed Zone,residential,50,22.3742288,69.83148015,361280
Gujarat,-,Unnamed Zone,residential,50,22.37458805,69.83166965,361280
Gujarat,-,Unnamed Zone,residential,50,22.37529725,69.83166345,361280
Gujarat,-,Unnamed Zone,residential,50,22.3761765,69.83124375,361280
Gujarat,-,Unnamed Zone,residential,50,22.3760682,69.83216345,361280
Gujarat,-,Unnamed Zone,residential,50,22.3753224,69.83447485,361280
Gujarat,-,Unnamed Zone,residential,50,22.3774537,69.8330639,361280
Gujarat,-,Unnamed Zone,residential,50,22.37804085,69.8330252,361280
Gujarat,-,Unnamed Zone,residential,50,22.3780622,69.8339868,361280
Gujarat,-,Unnamed Zone,residential,50,22.3783168,69.83224925,361280
Gujarat,-,Unnamed Zone,residential,50,22.3789532,69.8321359,361280
Gujarat,-,Unnamed Zone,service,110,22.34054635,69.87032785,Pincode Not Found
Gujarat,-,Unnamed Zone,primary,60,22.99015485,71.4723292,363300
Gujarat,-,Unnamed Zone,trunk,60,23.0122748,71.2735611,Pincode Not Found
Gujarat,-,Unnamed Zone,trunk,60,23.01190315,71.2728681,Pincode Not Found
Gujarat,-,Unnamed Zone,trunk,60,23.0120318,71.2728656,Pincode Not Found
Gujarat,-,Unnamed Zone,trunk,60,23.01185845,71.2727387,Pincode Not Found
Gujarat,-,Unnamed Zone,service,100,22.3558604,69.84503395,361280
Gujarat,Z222,Sukharam Nagar Road,secondary,40,23.01417395,72.6131416,380023
Gujarat,-,Unnamed Zone,service,100,22.3782314,69.86389065,Pincode Not Found
Gujarat,Z221,Ellis Flyover,secondary,60,23.0235806,72.56628485,380006
Gujarat,Z166,Parimal Underpass,primary,50,23.01692025,72.55807655,380007
Gujarat,Z166,Parimal Underpass,primary,50,23.0169282,72.55814945,380007
Gujarat,Z166,Parimal Underpass,primary,50,23.01647555,72.55829485,380007
Gujarat,Z166,Parimal Underpass,primary,50,23.0173776,72.55794995,380007
Gujarat,Z223,Vastrapur Vasahat Road,tertiary,60,23.0390514,72.53239005,380054
Gujarat,-,Unnamed Zone,residential,20,23.00055445,72.5344263,380055
Gujarat,Z224,Local street sector 23,residential,20,23.24137335,72.6490184,382024
Gujarat,Z225,Somnath Park Society Road,residential,20,23.19548935,72.6118007,382006
Gujarat,-,Unnamed Zone,residential,40,22.99998425,72.55743945,380007
Gujarat,Z226,Nehru Colony Road,residential,30,22.4843084,70.0663815,361008
Gujarat,Z155,Indira Gandhi Road,primary,50,22.47353205,70.0686128,361002
Gujarat,Z227,Summair Club Road,primary,30,22.4683894,70.05865225,361001
Gujarat,Z228,Vinumakad Road,unclassified,30,22.4696674,70.064908,361002
Gujarat,Z229,Gurudwara Road,unclassified,30,22.4717084,70.0657419,361002
Gujarat,Z230,Limbda Lane Road,unclassified,40,22.47182465,70.06577675,361002
Gujarat,Z231,Vishwakarma Road,unclassified,40,22.4642498,70.07784805,361009
Gujarat,Z232,Air Force Road,tertiary,40,22.47133135,70.02695705,361006
Gujarat,Z233,Kamdar Colony Road,unclassified,40,22.4710301,70.05140635,361001
Gujarat,Z234,Patel Samaj Road,tertiary,40,22.4654921,70.05301065,361001
Gujarat,Z155,Indira Gandhi Road,secondary,40,22.46159265,70.04953215,361001
Gujarat,Z235,Janta fatak road,tertiary,40,22.4653236,70.0449847,361001
Gujarat,Z236,Avash Colony Road,unclassified,40,22.4644513,70.0403853,361006
Gujarat,Z237,Airforce Road,secondary,40,22.46082275,70.0412399,361006
Gujarat,Z238,Hirji Mistry Road,secondary,40,22.46224435,70.0589991,361005
Gujarat,-,Unnamed Zone,residential,20,23.0280187,72.503081,380059
Gujarat,Z239,G.G Hospital Road,unclassified,40,22.47330405,70.0653775,361002
Gujarat,-,Unnamed Zone,tertiary,60,22.35990255,73.2051977,390001
Gujarat,-,Unnamed Zone,residential,50,22.3586564,73.2058047,390001
Gujarat,-,Unnamed Zone,residential,50,22.35639915,73.20479595,390001
Gujarat,-,Unnamed Zone,residential,50,22.35373105,73.20624055,390001
Gujarat,-,Unnamed Zone,residential,60,22.3524537,73.2003,390024
Gujarat,-,Unnamed Zone,residential,50,22.3528393,73.2021242,390024
Gujarat,-,Unnamed Zone,residential,50,22.35327895,73.20216305,390001
Gujarat,-,Unnamed Zone,residential,60,22.3527929,73.20222165,390024
Gujarat,-,Unnamed Zone,residential,60,22.3527239,73.2025997,390001
Gujarat,-,Unnamed Zone,residential,40,22.3561926,73.2043171,390001
Gujarat,-,Unnamed Zone,residential,50,22.3542016,73.2046006,390001
Gujarat,-,Unnamed Zone,residential,60,22.3539591,73.204562,390001
Gujarat,-,Unnamed Zone,residential,50,22.352185,73.20288615,390024
Gujarat,Z240,Amit Nagar Flyover,primary,60,22.3275757,73.21040605,390018
Gujarat,-,Unnamed Zone,primary,60,22.3272119,73.21342885,390018
Gujarat,Z240,Amit Nagar Flyover,primary,80,22.3273112,73.20676335,390018
Gujarat,Z240,Amit Nagar Flyover,primary,80,22.32743025,73.2074691,390018
Gujarat,-,Unnamed Zone,primary,80,22.32678295,73.20355415,390018
Gujarat,Z240,Amit Nagar Flyover,primary,60,22.32760605,73.21007075,390018
Gujarat,-,Unnamed Zone,primary,80,22.32763515,73.21089045,390018
Gujarat,Z240,Amit Nagar Flyover,primary,80,22.32709715,73.20516955,390018
Gujarat,-,Unnamed Zone,primary,80,22.32521915,73.1975695,390018
Gujarat,-,Unnamed Zone,primary,80,22.3266277,73.20293445,390018
Gujarat,Z241,Canal Corridor,secondary,50,21.1909247,72.8630744,395010
Gujarat,-,Unnamed Zone,service,40,20.92703575,72.89620555,396439
Gujarat,-,Unnamed Zone,tertiary,60,20.93135625,72.9803304,396400
Gujarat,-,Unnamed Zone,trunk_link,60,20.93643325,72.97501435,396400
Gujarat,-,Unnamed Zone,tertiary,60,20.9334182,72.9778455,396400
Gujarat,-,Unnamed Zone,primary_link,40,20.93323135,72.97772075,396400
Gujarat,-,Unnamed Zone,secondary,40,20.94691075,72.93622945,396400
Gujarat,-,Unnamed Zone,secondary,40,20.94633265,72.9358113,396400
Gujarat,-,Unnamed Zone,tertiary,60,20.94461695,72.9328461,396400
Gujarat,-,Unnamed Zone,secondary,40,20.94993355,72.92472415,396400
Gujarat,-,Unnamed Zone,trunk,40,20.953186,72.9229131,396400
Gujarat,Z242,Sardar Chowk,secondary,30,20.9467105,72.9215802,396445
Gujarat,Z176,Vijalpore Road,secondary,30,20.9423239,72.91965975,396445
Gujarat,Z176,Vijalpore Road,secondary,30,20.9421557,72.919506,396445
Gujarat,Z176,Vijalpore Road,secondary,30,20.94208605,72.9194234,396445
Gujarat,Z176,Vijalpore Road,secondary,30,20.94683535,72.92194935,396445
Gujarat,Z176,Vijalpore Road,secondary,30,20.94738655,72.9235867,396445
Gujarat,-,Unnamed Zone,secondary,60,20.87255995,72.97637705,396350
Gujarat,-,Unnamed Zone,secondary,60,20.8602628,72.90915185,396406
Gujarat,-,Unnamed Zone,secondary,60,20.87112425,72.93146955,396472
Gujarat,-,Unnamed Zone,secondary,60,20.8710061,72.9312912,396472
Gujarat,-,Unnamed Zone,secondary,60,20.8604943,72.9095419,396472
Gujarat,Z168,132 Ft. Ring Road,primary,20,22.9964398,72.5377316,380055
Gujarat,Z168,132 Ft. Ring Road,primary,20,22.99646345,72.5378252,380055
Gujarat,Z243,Dediyasan Road,residential,20 mph,23.60970165,72.3908105,384001
Gujarat,Z244,Atlantis Lane,service,40,22.3168503,73.1675662,390007
Gujarat,Z245,Road,residential,40,22.288992,73.12985825,390001
Gujarat,-,Unnamed Zone,residential,20,22.2935143,70.80621835,360001
Gujarat,-,Unnamed Zone,residential,40,22.2894349,70.80306465,360001
Gujarat,Z246,40 ft. road,residential,20,22.26785125,70.7822284,360004
Gujarat,-,Unnamed Zone,residential,20,23.05421245,72.5445147,380063
Gujarat,-,Unnamed Zone,tertiary,60,23.21701015,72.6708011,382019
Gujarat,-,Unnamed Zone,residential,50,22.37726615,69.83660405,361280
Gujarat,Z117,State Highway 7,primary,60,22.9965794,71.45731625,363300
Gujarat,Z100,Ahmadabad Vadodara Expressway,motorway,100,22.91342615,72.7625683,387110
Gujarat,Z100,Ahmadabad Vadodara Expressway,motorway,100,22.63817685,72.940148,387315
Gujarat,-,Unnamed Zone,primary,60,23.57153165,70.9905559,370155
Gujarat,-,Unnamed Zone,residential,50,22.37738655,69.8386071,361280
Gujarat,-,Unnamed Zone,residential,50,22.3797387,69.83880065,361280
Gujarat,-,Unnamed Zone,residential,50,22.37720055,69.83848815,361280
Gujarat,-,Unnamed Zone,residential,50,22.3795496,69.8378568,361280
Gujarat,-,Unnamed Zone,residential,50,22.3783127,69.83216725,361280
Gujarat,Z138,State Highway 72,primary,60,24.0970078,71.6667269,Pincode Not Found
Gujarat,Z186,Gondal Road,secondary,40,22.28258915,70.7995191,360001
Gujarat,Z186,Gondal Road,secondary,40,22.29194705,70.79903645,360001
Gujarat,Z247,Ring Road -2,primary,50,22.3282568,70.73604385,360006
Gujarat,-,Unnamed Zone,trunk_link,60,23.55669935,70.9873905,370155
Gujarat,Z248,Zadeshwar Village Road,tertiary,30,21.717122,73.0332651,392011
Gujarat,Z249,Rajkot-Ahmedabad NH-47,trunk,80,22.53818785,71.4835548,363430
Gujarat,-,Unnamed Zone,trunk,60,22.7402311,71.6235341,363001
Gujarat,Z250,Mundra-Luni,primary,80,22.8635469,69.75220315,370410
Gujarat,-,Unnamed Zone,trunk,80,22.9071113,69.71588085,370415
Gujarat,-,Unnamed Zone,trunk,80,22.88195595,69.6469183,Pincode Not Found
Gujarat,-,Unnamed Zone,trunk,80,22.896996,69.69455805,370415
Gujarat,-,Unnamed Zone,trunk,80,22.89539295,69.67965975,Pincode Not Found
Gujarat,-,Unnamed Zone,trunk,80,22.9226672,69.7871156,370410
Gujarat,-,Unnamed Zone,trunk,80,22.9069607,69.71590395,370415
Gujarat,-,Unnamed Zone,trunk,80,22.881791,69.6470545,Pincode Not Found
Gujarat,-,Unnamed Zone,trunk,80,22.89525485,69.6797086,Pincode Not Found
Gujarat,-,Unnamed Zone,trunk,80,22.9224791,69.78716455,370410
Gujarat,-,Unnamed Zone,trunk,80,22.90380045,69.7476684,Pincode Not Found
Gujarat,-,Unnamed Zone,trunk,80,22.90366775,69.74776945,Pincode Not Found
Gujarat,-,Unnamed Zone,trunk,80,22.88406755,69.62190985,370405
Gujarat,-,Unnamed Zone,trunk,80,22.88417995,69.62176425,370405
Gujarat,-,Unnamed Zone,trunk,80,22.89702305,69.69470225,370415
Gujarat,-,Unnamed Zone,trunk,80,22.9069201,69.71502105,370415
Gujarat,-,Unnamed Zone,trunk,80,22.9040516,69.74805445,370410
Gujarat,-,Unnamed Zone,trunk,80,22.90715455,69.71678755,370415
Gujarat,-,Unnamed Zone,trunk,80,22.9035352,69.7475095,370415
Gujarat,-,Unnamed Zone,trunk,80,22.92221115,69.7857555,370410
Gujarat,-,Unnamed Zone,trunk,80,22.895124,69.6780581,Pincode Not Found
Gujarat,-,Unnamed Zone,trunk,80,22.88380585,69.6553812,Pincode Not Found
Gujarat,-,Unnamed Zone,trunk,80,22.8817985,69.64683955,370405
Gujarat,-,Unnamed Zone,trunk,80,22.88780325,69.63177915,370405
Gujarat,-,Unnamed Zone,trunk,80,22.8835201,69.56683165,370405
Gujarat,-,Unnamed Zone,trunk,80,22.87943145,69.61083965,370405
Gujarat,-,Unnamed Zone,trunk,80,22.89568085,69.68294645,Pincode Not Found
Gujarat,-,Unnamed Zone,trunk,80,22.94237375,69.81010955,370410
Gujarat,-,Unnamed Zone,trunk,80,22.922727,69.78738235,370410
Gujarat,-,Unnamed Zone,trunk,80,22.8836085,69.5635182,370435
Gujarat,-,Unnamed Zone,trunk,80,23.04045675,69.90473775,Pincode Not Found
Gujarat,-,Unnamed Zone,trunk,80,23.08089155,69.95130675,370110
Gujarat,-,Unnamed Zone,trunk,80,23.08759385,69.9655808,370110
Gujarat,-,Unnamed Zone,trunk,80,23.04772735,69.9137289,370130
Gujarat,-,Unnamed Zone,trunk,80,22.9822845,69.8387378,370410
Gujarat,-,Unnamed Zone,trunk,80,23.0041562,69.85542075,370130
Gujarat,-,Unnamed Zone,trunk,80,23.0246872,69.8891409,370130
Gujarat,-,Unnamed Zone,trunk,80,23.0050501,69.85652325,370130
Gujarat,-,Unnamed Zone,trunk,80,23.04700425,69.91281525,Pincode Not Found
Gujarat,-,Unnamed Zone,trunk,80,23.0268317,69.89123025,370130
Gujarat,-,Unnamed Zone,trunk,80,23.004592,69.8560957,370130
Gujarat,-,Unnamed Zone,trunk,80,23.00472115,69.8559983,370130
Gujarat,-,Unnamed Zone,trunk,80,23.02846165,69.8926581,370130
Gujarat,-,Unnamed Zone,trunk,80,22.982215,69.83890165,370410
Gujarat,-,Unnamed Zone,trunk,80,22.94824755,69.8134346,370410
Gujarat,-,Unnamed Zone,trunk,80,23.0273332,69.89166425,370130
Gujarat,-,Unnamed Zone,trunk,80,23.02740495,69.8914862,370130
Gujarat,-,Unnamed Zone,trunk,80,23.0468885,69.91294235,Pincode Not Found
Gujarat,-,Unnamed Zone,trunk,80,22.94832825,69.81327975,370410
Gujarat,-,Unnamed Zone,trunk,80,23.0269024,69.89103605,370130
Gujarat,-,Unnamed Zone,trunk,80,23.0285399,69.8924964,370130
Gujarat,-,Unnamed Zone,trunk,80,23.0406392,69.9049826,Pincode Not Found
Gujarat,-,Unnamed Zone,trunk,80,23.04074465,69.9048744,Pincode Not Found
Gujarat,-,Unnamed Zone,trunk,80,22.94907305,69.81368995,370410
Gujarat,-,Unnamed Zone,trunk,80,22.98201985,69.83876515,370410
Gujarat,Z251,SH6,trunk,80,23.0803379,69.949858,370130
Gujarat,-,Unnamed Zone,trunk,80,23.04123765,69.90552065,Pincode Not Found
Gujarat,-,Unnamed Zone,trunk,80,23.04637645,69.91230415,Pincode Not Found
Gujarat,-,Unnamed Zone,trunk_link,80,22.92207325,69.78725695,370410
Gujarat,-,Unnamed Zone,trunk,80,23.02936165,69.89322015,370130
Gujarat,-,Unnamed Zone,trunk_link,80,22.9243028,69.79030845,370410
Gujarat,-,Unnamed Zone,trunk,80,23.094165,70.06583845,370110
Gujarat,Z252,Mundra port road,trunk,80,23.09384525,70.10010255,370110
Gujarat,-,Unnamed Zone,trunk,80,23.09343445,70.0545605,370110
Gujarat,-,Unnamed Zone,trunk,80,23.0940877,70.10330715,370201
Gujarat,Z252,Mundra port road,trunk,80,23.09404475,70.0650848,370110
Gujarat,-,Unnamed Zone,trunk,80,23.0932319,70.0491462,370110
Gujarat,-,Unnamed Zone,trunk,80,23.09401635,70.06076105,370110
Gujarat,-,Unnamed Zone,trunk,80,23.0939361,70.10335055,370201
Gujarat,-,Unnamed Zone,primary,80,23.0939841,70.0379643,370110
Gujarat,-,Unnamed Zone,tertiary,80,23.09307775,70.03948275,370110
Gujarat,-,Unnamed Zone,trunk,80,23.0929648,70.04656385,370110
Gujarat,-,Unnamed Zone,primary,80,23.09284755,70.0383993,370110
Gujarat,-,Unnamed Zone,trunk,80,23.0930903,70.04431365,370110
Gujarat,-,Unnamed Zone,trunk,80,23.09371775,70.05919595,370110
Gujarat,-,Unnamed Zone,trunk,80,23.09419535,70.1067214,370201
Gujarat,-,Unnamed Zone,trunk,80,23.0944592,70.129934,370201
Gujarat,-,Unnamed Zone,trunk,80,23.09381065,70.0577883,370110
Gujarat,-,Unnamed Zone,tertiary,80,23.09288645,70.04459625,370110
Gujarat,-,Unnamed Zone,trunk,80,23.0928203,70.04031005,370110
Gujarat,-,Unnamed Zone,trunk,80,23.09283395,70.03635215,370110
Gujarat,-,Unnamed Zone,primary,80,23.09285435,70.03850655,370110
Gujarat,-,Unnamed Zone,trunk,80,23.08773665,69.96551045,370110
Gujarat,-,Unnamed Zone,trunk,80,23.09288005,70.04333885,370110
Gujarat,-,Unnamed Zone,tertiary,80,23.09265135,70.03782365,370110
Gujarat,-,Unnamed Zone,trunk,80,23.086871,69.9635042,370110
Gujarat,-,Unnamed Zone,trunk,80,23.0813778,69.98944845,370110
Gujarat,-,Unnamed Zone,trunk,80,23.08790505,69.96547465,370110
Gujarat,Z121,Port Road NorthEastbound Bhachau,trunk,80,23.2865259,70.33687705,370140
Gujarat,Z121,Port Road NorthEastbound Bhachau,trunk,80,23.28947555,70.3441271,370140
Gujarat,Z189,Port Road SouthWestbound Ghandhidham,trunk,80,23.2863002,70.336526,370140
Gujarat,Z121,Port Road NorthEastbound Bhachau,trunk,80,23.2863143,70.3362282,370140
Gujarat,Z190,SH6 Eastbound Samakhyali,trunk,80,23.3067751,70.5008066,370150
Gujarat,-,Unnamed Zone,trunk,80,23.29735335,70.40131975,370140
Gujarat,Z191,SH6 Westbound Bachau,trunk,80,23.3066033,70.50084825,370150
Gujarat,Z189,Port Road SouthWestbound Ghandhidham,trunk,80,23.2884908,70.34331925,370140
Gujarat,Z190,SH6 Eastbound Samakhyali,trunk,80,23.3070256,70.50136585,370150
Gujarat,-,Unnamed Zone,trunk,80,23.29743155,70.40156695,370140
Gujarat,Z191,SH6 Westbound Bachau,trunk,80,23.29688775,70.4010403,370140
Gujarat,-,Unnamed Zone,tertiary,30,23.0973725,72.5472799,382470
Gujarat,Z253,Radar Road,residential,30,22.46331495,70.0467075,361001
Gujarat,Z254,Patel park road.,unclassified,30,22.441462,70.0651096,361004
Gujarat,Z255,Arya-samaj road,primary,40,22.45698645,70.0682274,361009
Gujarat,Z256,Khoja Road,tertiary,40,22.4606696,70.07105155,361009
Gujarat,Z257,Main City Road,primary,40,22.4628723,70.06394015,361005
Gujarat,Z258,Bypass road,tertiary,30,22.4509941,70.03852125,361006
Gujarat,Z259,Gokulnagar Main Road,unclassified,40,22.4528464,70.0428751,361006
Gujarat,Z260,Vrudh Ashram Road,unclassified,40,22.468352,70.0410809,361006
Gujarat,Z261,Hapa Road,tertiary,40,22.4613239,70.0836605,361009
Gujarat,Z262,Hapa Fly-over,primary,30,22.478008,70.1015368,361009
Gujarat,-,Unnamed Zone,residential,50,22.46255745,70.0703505,361009
Gujarat,Z235,Janta fatak road,unclassified,40,22.46527225,70.04470475,361006
Gujarat,Z100,Ahmadabad Vadodara Expressway,motorway,100,22.36754035,73.18946385,390001
Gujarat,Z100,Ahmadabad Vadodara Expressway,motorway_link,100,22.36606995,73.18939265,390001
Gujarat,Z263,Gaytri Mandir Road,tertiary,50,23.60618155,72.40178895,384001
Gujarat,Z264,Post office road,tertiary,30,23.6119053,72.39916525,384001
Gujarat,Z265,police headquarter Road,tertiary,20,23.61027255,72.39338745,384001
Gujarat,Z266,PayalPark society Road,residential,30,23.0565158,72.64121675,382345
Gujarat,-,Unnamed Zone,residential,15,23.18016285,72.57312795,382423
Gujarat,Z267,Darshanam Eco Vista,residential,30,22.2457837,73.2178268,390009
Gujarat,-,Unnamed Zone,tertiary,30,22.2472696,73.21778255,390009
Gujarat,-,Unnamed Zone,tertiary,50,22.28066265,73.2120433,390001
Gujarat,-,Unnamed Zone,residential,20,22.2766988,73.2119416,390001
Gujarat,-,Unnamed Zone,residential,20,22.2770752,73.2119298,390001
Gujarat,-,Unnamed Zone,secondary,50,22.273407,73.2128279,390001
Gujarat,-,Unnamed Zone,residential,20,22.2752306,73.221294,390001
Gujarat,-,Unnamed Zone,residential,20,22.275141,73.22184675,390001
Gujarat,-,Unnamed Zone,residential,20,22.27516785,73.22169185,390001
Gujarat,Z268,Jamnagar GIDC Road Phase-II,service,40,22.4100199,70.0592748,361004
Gujarat,-,Unnamed Zone,unclassified,40,22.41227185,70.06287385,361004
Gujarat,Z269,Ranasan Road,residential,50,23.465301,73.1128976,383305
Gujarat,Z270,Gorthiya Temple Road,unclassified,40,23.43947155,73.0473862,383305
Gujarat,-,Unnamed Zone,residential,50,23.46681535,73.11341815,383305
Gujarat,Z271,School Side Road,secondary_link,40,23.46715715,73.110445,383305
Gujarat,-,Unnamed Zone,residential,30,23.46694305,73.1117429,383305
Gujarat,Z247,Ring Road -2,primary,50,22.2903627,70.73177735,360005
Gujarat,Z100,Ahmadabad Vadodara Expressway,motorway,100,22.92632415,72.7413973,387110
Gujarat,Z100,Ahmadabad Vadodara Expressway,motorway,100,22.9261934,72.7413234,387110
Gujarat,Z100,Ahmadabad Vadodara Expressway,motorway,100,22.92720665,72.7392922,387110
Gujarat,Z100,Ahmadabad Vadodara Expressway,motorway,100,22.92515185,72.743782,387110
Gujarat,Z269,Ranasan Road,residential,50,23.46551365,73.1131951,383305
Gujarat,Z272,Main Market Road,residential,65,23.4670119,73.1149095,383305
Gujarat,Z269,Ranasan Road,residential,50,23.4653607,73.11306545,383305
Gujarat,Z269,Ranasan Road,residential,50,23.46552135,73.1131407,383305
Gujarat,Z273,Pipaliya Goga Maharaj Road,residential,30,23.46483905,73.1052163,383305
Gujarat,Z274,Shilp Bunglows Road,residential,20,23.0612979,72.66338775,382330
Gujarat,Z161,Mai Mandir Road,unclassified,20,22.68374685,72.8464144,387001
Gujarat,Z247,Ring Road -2,secondary,50,22.2698405,70.746305,360005
Gujarat,-,Unnamed Zone,trunk,60,23.83112055,71.6233466,385340
Gujarat,-,Unnamed Zone,service,20,22.3108991,73.160877,390007
Gujarat,Z160,Civil Hospital Road,tertiary,20,22.67407295,72.8755732,387001
Gujarat,Z160,Civil Hospital Road,tertiary,20,22.67423065,72.8753254,387001
Gujarat,Z275,Street No. 1,residential,50,22.47394305,70.0777959,361001
Gujarat,Z156,Santram Deri Road,unclassified,20,22.66480165,72.86390255,387001
Gujarat,Z156,Santram Deri Road,service,20,22.66302685,72.8652725,387001
Gujarat,Z156,Santram Deri Road,unclassified,20,22.669293,72.86804845,387001
Gujarat,Z156,Santram Deri Road,unclassified,20,22.66511675,72.8639033,387001
Gujarat,Z161,Mai Mandir Road,unclassified,20,22.6859694,72.8498619,387001
Gujarat,Z161,Mai Mandir Road,unclassified,20,22.6859141,72.8497853,387001
Gujarat,Z276,Radhanpur-Mehsana sh-68ext,trunk,60,23.6203955,72.3436809,384205
Gujarat,-,Unnamed Zone,living_street,20,22.48692205,70.0534389,361008
Gujarat,-,Unnamed Zone,living_street,20,22.48757885,70.0523677,361008
Gujarat,Z144,State Highway 54,trunk,50,24.20529415,71.64396105,Pincode Not Found
Gujarat,Z144,State Highway 54,trunk,50,24.21963925,71.64860165,Pincode Not Found
Gujarat,Z138,State Highway 72,primary,60,24.1120686,71.7805828,385330
Gujarat,-,Unnamed Zone,service,20,22.468607,70.0762574,361008
Gujarat,-,Unnamed Zone,unclassified,40,22.47075075,70.0769294,361009
Gujarat,Z277,transoptroad,service,20,22.4922496,70.0522587,361008
Gujarat,Z278,poilstation,service,20,22.4916942,70.05212375,361001
Gujarat,Z279,Jor pa Main road,residential,20,21.0415385,70.37452725,Pincode Not Found
Gujarat,Z280,Amba Township Main Road,tertiary,30,23.1899675,72.5768925,382423
Gujarat,-,Unnamed Zone,residential,20,23.18814915,72.5741739,382423
Gujarat,Z281,Katopor bazar road,unclassified,20,21.69590895,72.9805241,392001
Gujarat,-,Unnamed Zone,tertiary,30,23.0798076,72.5744793,382480
Gujarat,Z282,LP Savani Road,secondary,60,21.18570315,72.79321605,359009
Gujarat,-,Unnamed Zone,trunk,80,22.5657894,71.75082845,Pincode Not Found
Gujarat,-,Unnamed Zone,secondary,60,20.86035255,72.90929445,396406
Gujarat,Z283,Gaurav Path Road,secondary,60,21.1898219,72.77184015,395009
Gujarat,Z283,Gaurav Path Road,secondary,60,21.21619935,72.76683925,395009
Gujarat,-,Unnamed Zone,residential,20,23.18672885,72.5740592,382423
Gujarat,-,Unnamed Zone,residential,20,23.1867209,72.573634,382423
Gujarat,-,Unnamed Zone,residential,40,22.9806971,72.4575981,382213
Gujarat,-,Unnamed Zone,residential,40,22.97389355,72.4571905,382213
Gujarat,Z284,Morbi to Amanran Road,secondary,60,22.7934212,70.5802136,Pincode Not Found
Gujarat,-,Unnamed Zone,service,20,23.1276981,72.5410321,382470
Gujarat,-,Unnamed Zone,service,20,23.12769645,72.54122245,382470
Gujarat,-,Unnamed Zone,service,20,23.12769495,72.54139955,382470
Gujarat,-,Unnamed Zone,service,20,23.1276924,72.5415684,382470
Gujarat,-,Unnamed Zone,service,20,23.128097,72.54174345,382470
Gujarat,-,Unnamed Zone,service,20,23.12730445,72.54170405,382470
Gujarat,-,Unnamed Zone,service,20,23.1281579,72.5415648,382470
Gujarat,-,Unnamed Zone,service,20,23.12841895,72.54129425,382470
Gujarat,-,Unnamed Zone,service,20,23.12832375,72.5412953,382470
Gujarat,-,Unnamed Zone,service,20,23.12822475,72.54129635,382470
Gujarat,-,Unnamed Zone,residential,30,23.60066155,72.410442,384001
Gujarat,Z285,Lane to Police Line Control Office,service,20,22.3002513,73.1760876,390001
Gujarat,Z286,Sanmati Society Access Road,residential,20,22.295582,73.1754659,390020
Gujarat,-,Unnamed Zone,residential,30,22.30554855,73.1639036,390007
Gujarat,Z287,Kansarakui Road,tertiary,50,23.65021125,72.48211635,384305
Gujarat,-,Unnamed Zone,track,20,23.1272535,72.5427192,382470
Gujarat,-,Unnamed Zone,service,20,23.130021,72.54639325,382470
Gujarat,Z100,Ahmadabad Vadodara Expressway,motorway,100,22.96868305,72.6626236,382245
Gujarat,Z100,Ahmadabad Vadodara Expressway,motorway,100,22.97215015,72.6566016,382245
Gujarat,-,Unnamed Zone,trunk,40,21.1703584,72.8397921,395002
Gujarat,Z282,LP Savani Road,secondary,60,21.194165,72.7864362,395009
Gujarat,Z282,LP Savani Road,secondary,60,21.1982228,72.7837641,395009
Gujarat,Z282,LP Savani Road,secondary,60,21.20997145,72.7824126,395005
Gujarat,Z288,Asnani Road,tertiary,40,21.1939225,72.7859196,395009
Gujarat,-,Unnamed Zone,unclassified,40,20.80178165,70.8133526,Pincode Not Found
Gujarat,-,Unnamed Zone,unclassified,30,20.78175445,71.14807405,362550
Gujarat,-,Unnamed Zone,residential,40,21.17561415,72.78851075,395007
Gujarat,-,Unnamed Zone,tertiary,40,21.1717682,72.79093215,395007
Gujarat,-,Unnamed Zone,residential,40,21.1755737,72.79126755,395007
Gujarat,-,Unnamed Zone,trunk,80,22.8975795,69.44835385,370405
Gujarat,-,Unnamed Zone,trunk,80,23.08523665,69.9602885,370110
Gujarat,-,Unnamed Zone,trunk_link,80,23.0865018,69.96227335,370110
Gujarat,Z121,Port Road NorthEastbound Bhachau,trunk,80,23.1933084,70.21842735,370140
Gujarat,Z289,Port Road Southbound Ghandhidham,trunk,80,23.1963627,70.2222463,370140
Gujarat,-,Unnamed Zone,trunk,60,23.0112198,71.45799075,363300
Gujarat,-,Unnamed Zone,trunk,60,23.01104435,71.46263465,363300
Gujarat,-,Unnamed Zone,trunk,60,23.00842055,71.48097325,363300
Gujarat,-,Unnamed Zone,trunk,60,23.0085039,71.4810758,363300
Gujarat,-,Unnamed Zone,trunk,60,23.0069881,71.48282765,363300
Gujarat,-,Unnamed Zone,trunk,60,22.9981702,71.49299235,363300
Gujarat,-,Unnamed Zone,trunk,60,23.01111845,71.4634433,363300
Gujarat,-,Unnamed Zone,trunk,60,23.01123325,71.46345135,363300
Gujarat,-,Unnamed Zone,trunk,60,23.01132215,71.4644706,363300
Gujarat,-,Unnamed Zone,trunk,60,23.00924635,71.480013,363300
Gujarat,Z290,State Highway 20,primary,60,22.9670942,71.4934801,363300
Gujarat,-,Unnamed Zone,trunk,100,22.30874535,69.73443505,Pincode Not Found
Gujarat,Z291,Common Way,residential,30,23.01588215,72.53681815,380015
Gujarat,-,Unnamed Zone,trunk,80,23.11742145,70.04201505,370110
Gujarat,Z267,Darshanam Eco Vista,residential,20,22.2451892,73.2181337,390009
Gujarat,Z267,Darshanam Eco Vista,residential,20,22.24511265,73.2184346,390009
Gujarat,Z267,Darshanam Eco Vista,residential,20,22.245079,73.2187349,390009
Gujarat,Z267,Darshanam Eco Vista,residential,20,22.24462035,73.21939675,390009
Gujarat,Z267,Darshanam Eco Vista,residential,20,22.2449124,73.21965405,390001
Gujarat,Z267,Darshanam Eco Vista,residential,20,22.2439864,73.21962655,390001
Gujarat,Z267,Darshanam Eco Vista,residential,20,22.24376325,73.21950455,390001
Gujarat,Z267,Darshanam Eco Vista,residential,20,22.2440368,73.22005515,390001
Gujarat,Z267,Darshanam Eco Vista,residential,20,22.24433415,73.2203071,390009
Gujarat,Z242,Sardar Chowk,residential,5,22.54885055,73.0014515,388320
Gujarat,Z292,Sanand Bypass,primary,50,22.997018,72.3609286,382110
Gujarat,Z280,Amba Township Main Road,tertiary,30,23.1859864,72.5706481,382423
Gujarat,Z123,Daman to NH48,trunk,60,20.4628976,72.888622,396180
Gujarat,Z100,Ahmadabad Vadodara Expressway,motorway,100,22.9588748,72.6806137,382449
Gujarat,Z100,Ahmadabad Vadodara Expressway,motorway,100,22.95729585,72.68354845,382449
Gujarat,Z100,Ahmadabad Vadodara Expressway,motorway,100,22.96111975,72.67614615,382445
Gujarat,Z100,Ahmadabad Vadodara Expressway,motorway,100,22.958737,72.6805773,382449
Gujarat,Z100,Ahmadabad Vadodara Expressway,motorway,100,22.9305711,72.7328199,387110
Gujarat,Z100,Ahmadabad Vadodara Expressway,motorway,100,22.9293045,72.73539345,387110
Gujarat,Z100,Ahmadabad Vadodara Expressway,motorway,100,22.9367511,72.72061115,382449
Gujarat,Z100,Ahmadabad Vadodara Expressway,motorway,100,22.93037985,72.73289375,387110
Gujarat,-,Unnamed Zone,unclassified,40,21.2673135,73.0717312,394330
Gujarat,-,Unnamed Zone,unclassified,50,22.36114855,73.200596,390001
Gujarat,-,Unnamed Zone,primary,60,23.71885415,72.1054829,384220
Gujarat,-,Unnamed Zone,primary,60,23.5517092,70.47119115,370165
Gujarat,-,Unnamed Zone,primary,60,23.54795175,70.4609889,370140
Gujarat,-,Unnamed Zone,primary,60,23.58801505,70.56137285,370165
Gujarat,Z100,Ahmadabad Vadodara Expressway,motorway,100,22.4818936,73.09747725,388306
Gujarat,Z100,Ahmadabad Vadodara Expressway,motorway,100,22.48198375,73.09610975,388306
Gujarat,Z100,Ahmadabad Vadodara Expressway,motorway,100,22.4815452,73.09908665,391350
Gujarat,Z100,Ahmadabad Vadodara Expressway,motorway,100,22.48175245,73.097398,388306
Gujarat,Z293,G4God Road,residential,40,21.85371355,70.2453029,360450
Gujarat,-,Unnamed Zone,trunk,60,23.79944105,71.41099205,Pincode Not Found
Gujarat,-,Unnamed Zone,trunk,60,23.8069605,71.3072635,Pincode Not Found
Gujarat,-,Unnamed Zone,trunk,60,23.7621002,71.1703103,385350
Gujarat,-,Unnamed Zone,trunk,60,23.75868825,71.1616691,385350
Gujarat,Z156,Santram Deri Road,unclassified,20,22.6649221,72.86377805,387001
Gujarat,Z160,Civil Hospital Road,tertiary,20,22.67408725,72.87545215,387001
Gujarat,-,Unnamed Zone,trunk,80,22.94291235,69.8104166,370410
Gujarat,-,Unnamed Zone,trunk,80,22.94302045,69.8102609,370410
Gujarat,-,Unnamed Zone,trunk,80,22.94432675,69.8109958,370410
Gujarat,-,Unnamed Zone,trunk,80,22.94743825,69.8129762,370410
Gujarat,-,Unnamed Zone,trunk,80,22.6431537,72.2044835,Pincode Not Found
Gujarat,-,Unnamed Zone,trunk,80,22.6432344,72.20443905,Pincode Not Found
Gujarat,-,Unnamed Zone,trunk,80,22.6196489,72.15913685,Pincode Not Found
Gujarat,-,Unnamed Zone,trunk,80,22.6372885,72.1907089,Pincode Not Found
Gujarat,-,Unnamed Zone,trunk,60,24.67179105,71.76477545,Pincode Not Found
Gujarat,Z232,Air Force Road,service,40,22.47135805,70.0266453,361006
Gujarat,-,Unnamed Zone,residential,20,23.19232,72.61339625,382006
Gujarat,-,Unnamed Zone,trunk,60,23.06309955,71.74564905,382745
Gujarat,-,Unnamed Zone,trunk,60,23.0654799,71.75671915,382745
Gujarat,Z294,Sarjan Road No C 2,residential,30,21.170199,72.79306525,395007
Gujarat,Z295,Sarjan Road No C 3,residential,30,21.17013515,72.7924746,395007
Gujarat,Z296,Sarjan Road No B,residential,40,21.1695029,72.7924379,395007
Gujarat,Z297,Sarjan Road No B 1,residential,40,21.16943205,72.79292105,395007
Gujarat,Z298,Sarjan Road No B 2,residential,30,21.16902815,72.79298455,395007
Gujarat,Z299,Sarjan Road No B 3,residential,40,21.1687362,72.7923079,395007
Gujarat,Z300,Sarjan Road No B 4,residential,30,21.16860785,72.79306345,395007
Gujarat,Z301,Sarjan Road No C 4,residential,30,21.17057555,72.79241525,395007
Gujarat,Z302,Sarjan Roiad No C 5,residential,30,21.1709459,72.79233145,395007
Gujarat,Z303,Sarjan Road No C 6,residential,30,21.17135565,72.79225365,395007
Gujarat,Z304,Sarjan Road No C,residential,40,21.1714955,72.7924708,395007
Gujarat,Z305,Sarjan Society Entry No 02,residential,40,21.17265735,72.792409,395007
Gujarat,Z306,Sarjan Road No A,residential,40,21.1694941,72.7905256,395007
Gujarat,Z307,Sarjan Road No A 2,residential,30,21.16938325,72.79123865,395007
Gujarat,Z308,Sarjan Road No A 3,residential,30,21.1689901,72.7912943,395007
Gujarat,-,Unnamed Zone,residential,30,21.1697192,72.7918886,395007
Gujarat,Z309,Sarjan Road No A 4,residential,30,21.16850875,72.7901938,395007
Gujarat,Z310,Sarjan Road No A 5,residential,40,21.1685858,72.7913321,395007
Gujarat,Z311,Sarjan Road No A 6,residential,30,21.1680577,72.7900662,395007
Gujarat,Z312,Sarjan Road NO A 7,residential,30,21.1679598,72.7909095,395007
Gujarat,Z313,Sarjan Road No A 8,residential,30,21.1676156,72.79004155,395007
Gujarat,Z314,Sarjan Road No A 9,residential,30,21.1675574,72.79097935,395007
Gujarat,-,Unnamed Zone,residential,40,21.1684956,72.79208835,395007
Gujarat,-,Unnamed Zone,residential,30,21.1676065,72.79135975,395007
Gujarat,Z315,Sarjan Road No A 10,residential,40,21.1672272,72.7900859,395007
Gujarat,-,Unnamed Zone,residential,40,21.1655746,72.79028455,395007
Gujarat,-,Unnamed Zone,residential,40,21.1664448,72.7905192,395007
Gujarat,-,Unnamed Zone,residential,40,21.16730745,72.78940185,395007
Gujarat,Z100,Ahmadabad Vadodara Expressway,motorway,100,22.90657135,72.7696836,387110
Gujarat,Z100,Ahmadabad Vadodara Expressway,motorway,100,22.90770165,72.76827075,387110
Gujarat,Z100,Ahmadabad Vadodara Expressway,motorway,100,22.9080401,72.76792325,387110
Gujarat,Z100,Ahmadabad Vadodara Expressway,motorway,100,22.9078979,72.7683125,387110
Gujarat,-,Unnamed Zone,tertiary,60,20.46676,72.911665,396185
Gujarat,Z316,Momai Nagar Road,residential,20,23.08698925,72.54899275,382481
Gujarat,-,Unnamed Zone,trunk,80,22.54034335,71.0010382,Pincode Not Found
Gujarat,-,Unnamed Zone,trunk,80,22.5405338,71.0009876,363621
Gujarat,-,Unnamed Zone,trunk,80,22.54025145,71.00115975,Pincode Not Found
Gujarat,-,Unnamed Zone,trunk,80,22.5403887,71.0011248,Pincode Not Found
Gujarat,Z249,Rajkot-Ahmedabad NH-47,trunk,80,22.53817935,71.4767051,363430
Gujarat,-,Unnamed Zone,trunk,80,22.56185205,71.6434242,363435
Gujarat,-,Unnamed Zone,trunk,80,22.5618801,71.64355065,Pincode Not Found
Gujarat,Z185,Radhanpur-Mehsana SH-68 Extension,trunk,60,23.60992335,72.36768515,384001
Gujarat,Z185,Radhanpur-Mehsana SH-68 Extension,trunk,60,23.60978195,72.36818305,384001
Gujarat,-,Unnamed Zone,trunk,100,22.28395885,69.6950132,Pincode Not Found
Gujarat,-,Unnamed Zone,trunk,100,22.2817261,69.69262375,361300
Gujarat,-,Unnamed Zone,trunk,100,22.3375844,69.78840595,361280
Gujarat,-,Unnamed Zone,trunk,100,22.33810165,69.789532,361280
Gujarat,-,Unnamed Zone,trunk,100,22.3435471,69.80102305,361280
Gujarat,-,Unnamed Zone,trunk,100,22.3442777,69.802404,361280
Gujarat,-,Unnamed Zone,trunk,100,22.3350709,69.78293395,361280
Gujarat,-,Unnamed Zone,trunk,100,22.33460405,69.7819176,361280
Gujarat,Z317,Chanod Colony,living_street,40,20.34993745,72.93296895,396191
Gujarat,Z318,Chanod Village,living_street,40,20.33039955,72.92808025,396191
Gujarat,-,Unnamed Zone,trunk,80,22.60230315,72.1041028,Pincode Not Found
Gujarat,-,Unnamed Zone,trunk,60,22.87811235,71.55381375,Pincode Not Found
Gujarat,-,Unnamed Zone,trunk,60,22.8804722,71.5464035,Pincode Not Found
Gujarat,-,Unnamed Zone,trunk,60,22.9119609,71.51109415,Pincode Not Found
Gujarat,-,Unnamed Zone,trunk,60,22.912705,71.5105815,Pincode Not Found
Gujarat,-,Unnamed Zone,trunk,60,23.00997275,71.25395315,Pincode Not Found
Gujarat,-,Unnamed Zone,trunk,60,23.00989225,71.2534168,Pincode Not Found
Gujarat,-,Unnamed Zone,trunk,60,23.00964935,71.2565643,Pincode Not Found
Gujarat,-,Unnamed Zone,trunk,60,23.00957955,71.255927,Pincode Not Found
Gujarat,-,Unnamed Zone,trunk,100,22.39989985,69.87141515,361140
Gujarat,-,Unnamed Zone,trunk,100,22.40011525,69.87171445,Pincode Not Found
Gujarat,Z319,street road 1,residential,30,23.3491524,73.2058867,383310
Gujarat,Z193,Mehsana-Himatnagar Vijapur road,primary,100,23.567005,72.3900973,384002
Gujarat,Z193,Mehsana-Himatnagar Vijapur road,primary,100,23.56710295,72.38403,384001
Gujarat,Z261,Hapa Road,tertiary,40,22.46287055,70.08903325,361009
Gujarat,Z261,Hapa Road,tertiary,40,22.46396815,70.09098755,361009
Gujarat,-,Unnamed Zone,trunk,60,22.8283524,71.60142595,Pincode Not Found
Gujarat,-,Unnamed Zone,trunk,60,22.82866855,71.60122715,Pincode Not Found
Gujarat,-,Unnamed Zone,trunk,60,23.01206075,71.2237841,Pincode Not Found
Gujarat,-,Unnamed Zone,trunk,60,23.01197985,71.22313015,363330
Gujarat,-,Unnamed Zone,trunk,60,23.01193005,71.22377,Pincode Not Found
Gujarat,-,Unnamed Zone,trunk,60,23.0118862,71.22589705,Pincode Not Found
Gujarat,-,Unnamed Zone,trunk,60,23.0074212,71.4464406,363300
Gujarat,-,Unnamed Zone,trunk,60,23.00807635,71.44666425,363300
Gujarat,-,Unnamed Zone,trunk,60,23.0069692,71.44641425,Pincode Not Found
Gujarat,-,Unnamed Zone,trunk,60,23.0074085,71.4465681,363300
Gujarat,-,Unnamed Zone,trunk,80,22.5245744,71.3752945,363034
Gujarat,-,Unnamed Zone,trunk,80,22.52462925,71.37567775,363034
Gujarat,Z113,Rajkot - Morbi Highway,primary,60,22.55775975,70.74765585,Pincode Not Found
Gujarat,-,Unnamed Zone,primary,60,22.5602211,70.74684865,Pincode Not Found
Gujarat,-,Unnamed Zone,primary,60,22.3994123,70.79400405,Pincode Not Found
Gujarat,-,Unnamed Zone,primary,60,22.39912195,70.79413685,Pincode Not Found
Gujarat,-,Unnamed Zone,trunk,60,23.09795765,72.07841255,382150
Gujarat,-,Unnamed Zone,trunk,60,23.0978509,72.0769408,382150
Gujarat,-,Unnamed Zone,trunk,60,23.09784505,72.0784114,382150
Gujarat,-,Unnamed Zone,trunk,60,23.097966,72.07914745,382150
Gujarat,-,Unnamed Zone,trunk,60,23.02107235,70.9942812,Pincode Not Found
Gujarat,-,Unnamed Zone,trunk,60,23.0216555,70.9906419,Pincode Not Found
Gujarat,-,Unnamed Zone,trunk,60,23.0209683,70.9942578,Pincode Not Found
Gujarat,-,Unnamed Zone,trunk,60,23.02102325,70.99453755,Pincode Not Found
Gujarat,-,Unnamed Zone,trunk,60,22.72511985,71.63639335,363002
Gujarat,-,Unnamed Zone,trunk,60,22.725108,71.636628,363002
Gujarat,-,Unnamed Zone,trunk,60,22.72510735,71.63593195,363002
Gujarat,-,Unnamed Zone,trunk,60,22.72502335,71.63715135,363035
Gujarat,-,Unnamed Zone,trunk,60,23.0021711,71.5331671,363320
Gujarat,-,Unnamed Zone,trunk,60,23.0023101,71.53458025,363320
Gujarat,Z115,Sanand-Viramgam Highway,trunk,60,23.09635335,72.1101947,Pincode Not Found
Gujarat,Z198,Sanad-Viram gam Sachana hwy,trunk,60,23.0965028,72.10932925,Pincode Not Found
Gujarat,Z145,Mundra Fort-Dhrab,primary,80,22.84000905,69.7101772,370421
Gujarat,-,Unnamed Zone,primary,80,22.84033,69.708615,370421
Gujarat,Z145,Mundra Fort-Dhrab,primary,80,22.83977405,69.7117322,370421
Gujarat,Z194,Shiracha-Tunda,primary,80,22.842694,69.5378535,370435
Gujarat,Z194,Shiracha-Tunda,primary,80,22.84257865,69.5370924,370435
Gujarat,-,Unnamed Zone,trunk,80,22.88452465,69.5268711,370405
Gujarat,-,Unnamed Zone,trunk,80,22.90253955,69.4867094,370405
Gujarat,Z140,Tunda-Mandvi,primary,80,22.83353875,69.35859845,370405
Gujarat,Z146,Jarpata-Shiracha,primary,80,22.83619265,69.63011645,370405
Gujarat,-,Unnamed Zone,primary,80,22.91843535,69.783267,370410
Gujarat,-,Unnamed Zone,primary,80,22.91757025,69.78227175,370410
Gujarat,Z320,SH6 link to NH41 via Gundala,primary,80,22.90519595,69.76790425,370410
Gujarat,Z114,NH27 NorthEast bound,trunk,80,23.3064962,70.52167885,370150
Gujarat,-,Unnamed Zone,trunk,80,23.09677915,70.783405,363670
Gujarat,-,Unnamed Zone,trunk,80,23.0539264,69.9168257,370130
Gujarat,-,Unnamed Zone,trunk,80,22.88778095,69.6295761,370405
Gujarat,-,Unnamed Zone,trunk,80,22.8877529,69.6307429,370405
Gujarat,-,Unnamed Zone,trunk,80,22.8879446,69.62986745,370405
Gujarat,-,Unnamed Zone,trunk,80,22.88792655,69.6295241,370405
Gujarat,-,Unnamed Zone,trunk,80,22.8878584,69.6314153,370405
Gujarat,-,Unnamed Zone,trunk,80,22.8852141,69.6230081,370405
Gujarat,-,Unnamed Zone,trunk,80,22.8877114,69.62895185,370405
Gujarat,-,Unnamed Zone,trunk,80,22.8877057,69.63138565,370405
Gujarat,Z147,Fort-Dhrab-Jarpata,primary,80,22.83645085,69.66465645,370421
Gujarat,Z147,Fort-Dhrab-Jarpata,primary,80,22.83666405,69.663704,370405
Gujarat,-,Unnamed Zone,trunk,80,22.8962533,69.6895409,370415
Gujarat,-,Unnamed Zone,trunk,80,22.8961939,69.68881265,Pincode Not Found
Gujarat,-,Unnamed Zone,trunk,80,22.89598025,69.6884069,Pincode Not Found
Gujarat,-,Unnamed Zone,trunk,80,22.8960172,69.68884615,Pincode Not Found
Gujarat,Z145,Mundra Fort-Dhrab,primary,80,22.8377159,69.7000256,370415
Gujarat,Z145,Mundra Fort-Dhrab,primary,80,22.83736465,69.6971026,370415
Gujarat,-,Unnamed Zone,trunk,80,22.8967656,69.69422995,370415
Gujarat,-,Unnamed Zone,trunk,80,22.8968341,69.6945473,370415
Gujarat,-,Unnamed Zone,trunk,80,22.5128055,71.01552615,Pincode Not Found
Gujarat,-,Unnamed Zone,trunk,80,22.51235375,71.01608225,Pincode Not Found
Gujarat,-,Unnamed Zone,trunk,80,22.5119818,71.0164056,Pincode Not Found
Gujarat,Z320,SH6 link to NH41 via Gundala,primary,80,22.9022642,69.7621628,370410
Gujarat,Z320,SH6 link to NH41 via Gundala,primary,80,22.86373055,69.74440195,370410
Gujarat,Z121,Port Road NorthEastbound Bhachau,trunk,80,23.19658395,70.223167,370140
Gujarat,Z189,Port Road SouthWestbound Ghandhidham,trunk,80,23.19647175,70.22328455,370140
Gujarat,Z191,SH6 Westbound Bachau,trunk,80,23.31187705,70.46700235,370140
Gujarat,Z190,SH6 Eastbound Samakhyali,trunk,80,23.29353225,70.35012365,370140
Gujarat,-,Unnamed Zone,primary,60,23.56152585,70.98235945,370155
Gujarat,-,Unnamed Zone,primary,60,23.43684575,70.34079995,370140
Gujarat,-,Unnamed Zone,primary,60,23.47677215,70.4060543,370140
Gujarat,Z250,Mundra-Luni,primary,80,22.8408269,69.7186412,370421
Gujarat,-,Unnamed Zone,primary,60,23.37244685,70.3498192,370140
Gujarat,-,Unnamed Zone,primary,60,23.37340015,70.3499718,370140
Gujarat,-,Unnamed Zone,tertiary,40,22.98809195,72.4713432,382213
Gujarat,Z321,VIP Road,residential,40,23.01056285,72.4566597,380058
Gujarat,-,Unnamed Zone,trunk,80,21.42516955,72.09935345,Pincode Not Found
Gujarat,Z322,Tansa Bypass,trunk,80,21.50476625,72.11944005,Pincode Not Found
Gujarat,-,Unnamed Zone,trunk,80,21.5830084,72.12510475,Pincode Not Found
Gujarat,Z323,Atal Flyover,primary,20,22.29322045,73.16420775,390007
Gujarat,Z324,Harinagar Flyover,primary,30,22.3124613,73.1494785,390021
Gujarat,-,Unnamed Zone,trunk,60,23.3565856,70.60327945,Pincode Not Found
Gujarat,-,Unnamed Zone,trunk,60,23.35662705,70.60319395,Pincode Not Found
Gujarat,-,Unnamed Zone,trunk,80,23.18363095,70.1663494,370240
Gujarat,-,Unnamed Zone,trunk,80,23.0875505,69.97087555,370110
Gujarat,-,Unnamed Zone,trunk,80,22.98280315,69.83909185,370130
Gujarat,-,Unnamed Zone,secondary,60,23.6113515,70.9582025,370155
Gujarat,-,Unnamed Zone,trunk,60,23.4038696,70.6680247,370145
Gujarat,-,Unnamed Zone,trunk,60,23.40429285,70.66864565,370145
Gujarat,-,Unnamed Zone,trunk,60,23.4022851,70.6655764,370145
Gujarat,-,Unnamed Zone,trunk,60,23.33846355,70.5845937,Pincode Not Found
Gujarat,Z190,SH6 Eastbound Samakhyali,trunk,80,23.2935167,70.352767,370140
Gujarat,-,Unnamed Zone,trunk,80,22.90095705,69.2121152,370405
Gujarat,-,Unnamed Zone,trunk,80,22.8980118,69.21418105,370405
Gujarat,-,Unnamed Zone,trunk,80,22.8796142,69.61167815,Pincode Not Found
Gujarat,-,Unnamed Zone,trunk,80,22.8828307,69.6203874,370405
Gujarat,-,Unnamed Zone,trunk,80,22.88024105,69.61334525,370405
Gujarat,-,Unnamed Zone,trunk,80,22.87979325,69.611631,Pincode Not Found
Gujarat,-,Unnamed Zone,trunk,80,22.88312465,69.65329275,Pincode Not Found
Gujarat,-,Unnamed Zone,trunk,80,22.88195595,69.6472805,Pincode Not Found
Gujarat,-,Unnamed Zone,trunk,80,22.88254005,69.6519355,Pincode Not Found
Gujarat,-,Unnamed Zone,trunk,80,22.8829865,69.65341195,Pincode Not Found
Gujarat,-,Unnamed Zone,tertiary,40,21.18583215,72.7931228,359009
Gujarat,Z282,LP Savani Road,secondary,50,21.19138685,72.78818565,359009
Gujarat,-,Unnamed Zone,trunk,80,23.0876427,69.9699852,370110
Gujarat,-,Unnamed Zone,trunk,80,23.0879845,69.96581915,370110
Gujarat,-,Unnamed Zone,trunk,80,23.0866698,69.96271065,370110
Gujarat,Z325,Komal Circle,tertiary,40,21.16799745,72.8275611,359007
Gujarat,-,Unnamed Zone,residential,20,23.0936991,72.5458481,382481
Gujarat,-,Unnamed Zone,trunk,80,23.11157095,68.96276735,370645
Gujarat,-,Unnamed Zone,trunk,60,23.35612025,70.60266225,Pincode Not Found
Gujarat,Z326,Rampuara st,residential,20,21.20930255,72.82772185,395008
Gujarat,Z327,Rampura St,residential,20,21.2093802,72.8279743,395008
Gujarat,Z327,Rampura St,residential,20,21.209478,72.8280796,395008
Gujarat,Z328,street road,residential,20,21.20897365,72.8292763,395008
Gujarat,Z328,street road,residential,20,21.20940975,72.82807705,395008
Gujarat,-,Unnamed Zone,trunk,60,24.66708875,71.7646587,Pincode Not Found
Gujarat,Z329,Nyari Dam 1 Road,tertiary,50,22.2669325,70.7256931,360005
Gujarat,Z113,Rajkot - Morbi Highway,primary,60,22.40304435,70.7912059,Pincode Not Found
Gujarat,-,Unnamed Zone,primary,60,22.40026475,70.79335525,Pincode Not Found
Gujarat,Z113,Rajkot - Morbi Highway,primary,60,22.5009164,70.7562333,Pincode Not Found
Gujarat,-,Unnamed Zone,primary,60,22.4034993,70.79105265,Pincode Not Found
Gujarat,Z113,Rajkot - Morbi Highway,primary,60,22.40039325,70.79312295,Pincode Not Found
Gujarat,-,Unnamed Zone,primary,60,22.40333975,70.79097945,Pincode Not Found
Gujarat,Z113,Rajkot - Morbi Highway,primary,60,22.40354615,70.7909067,Pincode Not Found
Gujarat,Z113,Rajkot - Morbi Highway,primary,60,22.38178595,70.8001614,Pincode Not Found
Gujarat,Z113,Rajkot - Morbi Highway,primary,60,22.3933433,70.7958121,Pincode Not Found
Gujarat,Z113,Rajkot - Morbi Highway,primary,60,22.38115875,70.80037945,Pincode Not Found
Gujarat,Z113,Rajkot - Morbi Highway,primary,60,22.3776239,70.80044195,Pincode Not Found
Gujarat,Z113,Rajkot - Morbi Highway,primary,60,22.37793295,70.80051345,Pincode Not Found
Gujarat,Z113,Rajkot - Morbi Highway,primary,60,22.3759935,70.7996629,Pincode Not Found
Gujarat,-,Unnamed Zone,primary,60,22.3761101,70.79972395,Pincode Not Found
Gujarat,Z113,Rajkot - Morbi Highway,primary,60,22.4210682,70.7852085,Pincode Not Found
Gujarat,-,Unnamed Zone,primary,60,22.42000535,70.78555565,Pincode Not Found
Gujarat,Z113,Rajkot - Morbi Highway,primary,60,22.419826,70.7857539,Pincode Not Found
Gujarat,-,Unnamed Zone,primary,60,22.42003405,70.7856871,Pincode Not Found
Gujarat,-,Unnamed Zone,primary,60,22.43172085,70.7813955,Pincode Not Found
Gujarat,Z113,Rajkot - Morbi Highway,primary,80,22.43242155,70.78138235,Pincode Not Found
Gujarat,Z113,Rajkot - Morbi Highway,primary,60,22.4313168,70.7815391,Pincode Not Found
Gujarat,-,Unnamed Zone,primary,60,22.4317325,70.7815254,Pincode Not Found
Gujarat,-,Unnamed Zone,primary,60,22.4860557,70.7610669,Pincode Not Found
Gujarat,Z113,Rajkot - Morbi Highway,primary,60,22.48673755,70.76073625,Pincode Not Found
Gujarat,Z113,Rajkot - Morbi Highway,primary,80,22.4853022,70.76157805,Pincode Not Found
Gujarat,-,Unnamed Zone,primary,60,22.48611875,70.76117685,Pincode Not Found
Gujarat,Z113,Rajkot - Morbi Highway,primary,60,22.36416425,70.80078695,Pincode Not Found
Gujarat,-,Unnamed Zone,primary,60,22.35460305,70.8037544,360003
Gujarat,Z113,Rajkot - Morbi Highway,primary,60,22.3472452,70.80793785,360003
Gujarat,Z113,Rajkot - Morbi Highway,primary,60,22.35472225,70.80370805,360003
Gujarat,-,Unnamed Zone,primary,60,22.3634597,70.8010453,Pincode Not Found
Gujarat,Z113,Rajkot - Morbi Highway,primary,60,22.373067,70.79930195,Pincode Not Found
Gujarat,Z113,Rajkot - Morbi Highway,primary,60,22.3544621,70.8039164,360003
Gujarat,-,Unnamed Zone,primary,60,22.3546353,70.8038491,360003
Gujarat,Z113,Rajkot - Morbi Highway,primary,60,22.36319665,70.8012627,360003
Gujarat,-,Unnamed Zone,primary,60,22.3634936,70.8011541,Pincode Not Found
Gujarat,Z247,Ring Road -2,primary,50,22.3023854,70.72754455,360005
Gujarat,Z247,Ring Road -2,primary,50,22.2890223,70.73289,360005
Gujarat,Z262,Hapa Fly-over,primary,30,22.47795075,70.1020867,361009
Gujarat,Z262,Hapa Fly-over,primary,30,22.47794675,70.1023218,361009
Gujarat,Z192,Bedi Road,unclassified,40,22.5074146,70.0327346,361008
Gujarat,Z247,Ring Road -2,primary,50,22.2728832,70.74461875,360005
Gujarat,Z247,Ring Road -2,primary,50,22.27345145,70.74431125,360005
Gujarat,Z247,Ring Road -2,primary,50,22.2725292,70.7448029,360005
Gujarat,Z247,Ring Road -2,primary,50,22.27236435,70.74490045,360005
Gujarat,Z186,Gondal Road,trunk,120,22.10410775,70.77806695,Pincode Not Found
Gujarat,Z186,Gondal Road,trunk,120,22.10429095,70.778091,Pincode Not Found
Gujarat,Z126,Navagam Road,tertiary,40,22.4813193,70.0665875,361008
Gujarat,Z126,Navagam Road,tertiary,40,22.4823974,70.06774975,361008
Gujarat,Z128,Guru Dattatrey Mandir Road,unclassified,40,22.4803606,70.0610912,361008
Gujarat,Z128,Guru Dattatrey Mandir Road,unclassified,40,22.48014055,70.06044525,361008
Gujarat,-,Unnamed Zone,secondary,80,23.1166917,70.028489,370110
Gujarat,-,Unnamed Zone,secondary,80,23.11669865,70.0280426,370110
Gujarat,-,Unnamed Zone,trunk,80,23.17350755,70.15146535,370240
Gujarat,-,Unnamed Zone,trunk,80,23.16542695,70.13959245,370240
Gujarat,Z133,Patel colony Road no 1,residential,40,22.48212485,70.0609184,361008
Gujarat,-,Unnamed Zone,trunk,80,23.07937875,70.02549165,370110
Gujarat,-,Unnamed Zone,trunk,80,23.0925743,70.0358664,370110
Gujarat,-,Unnamed Zone,trunk,80,23.0801029,70.0257958,370110
Gujarat,-,Unnamed Zone,trunk,80,23.0795785,70.0254121,370110
Gujarat,Z186,Gondal Road,trunk,120,22.0982602,70.7773484,Pincode Not Found
Gujarat,Z186,Gondal Road,trunk,120,22.0975456,70.77733315,Pincode Not Found
Gujarat,-,Unnamed Zone,trunk,80,23.0202216,69.8811635,370130
Gujarat,-,Unnamed Zone,trunk,80,23.01988325,69.8805944,Pincode Not Found
Gujarat,-,Unnamed Zone,trunk,80,23.01975755,69.88069855,Pincode Not Found
Gujarat,-,Unnamed Zone,trunk,80,23.01962905,69.8804872,370130
Gujarat,-,Unnamed Zone,trunk,80,23.03591035,69.89892455,Pincode Not Found
Gujarat,-,Unnamed Zone,trunk,80,23.03571135,69.8987537,Pincode Not Found
Gujarat,-,Unnamed Zone,trunk,80,23.03558955,69.8988993,Pincode Not Found
Gujarat,-,Unnamed Zone,trunk,80,23.0350109,69.89839325,370130
Gujarat,Z232,Air Force Road,tertiary,40,22.47026475,70.04013015,361006
Gujarat,Z232,Air Force Road,tertiary,40,22.47080095,70.03428505,361006
Gujarat,Z232,Air Force Road,tertiary,40,22.4708833,70.0333761,361006
Gujarat,Z232,Air Force Road,tertiary,40,22.47042225,70.03904795,361006
Gujarat,-,Unnamed Zone,trunk,80,23.038726,69.9021473,Pincode Not Found
Gujarat,-,Unnamed Zone,trunk,80,23.0384991,69.9018384,Pincode Not Found
Gujarat,-,Unnamed Zone,trunk,80,23.03834835,69.90198445,Pincode Not Found
Gujarat,-,Unnamed Zone,trunk,80,23.03803785,69.9015647,Pincode Not Found
Gujarat,-,Unnamed Zone,trunk,80,23.03714475,69.90007965,Pincode Not Found
Gujarat,-,Unnamed Zone,trunk,80,23.03703325,69.89994865,Pincode Not Found
Gujarat,-,Unnamed Zone,trunk,80,23.0368836,69.9000907,Pincode Not Found
Gujarat,-,Unnamed Zone,trunk,80,23.03671555,69.89991205,Pincode Not Found
Gujarat,-,Unnamed Zone,trunk,80,23.0427074,69.90741225,Pincode Not Found
Gujarat,-,Unnamed Zone,trunk,80,23.04215835,69.90671325,Pincode Not Found
Gujarat,-,Unnamed Zone,trunk,80,23.04200865,69.9068445,Pincode Not Found
Gujarat,-,Unnamed Zone,trunk,80,23.04174995,69.9065002,Pincode Not Found
Gujarat,-,Unnamed Zone,trunk,80,23.04358855,69.90852305,Pincode Not Found
Gujarat,-,Unnamed Zone,trunk,80,23.04322345,69.90806875,Pincode Not Found
Gujarat,-,Unnamed Zone,trunk,80,23.0430776,69.90818925,Pincode Not Found
Gujarat,-,Unnamed Zone,trunk,80,23.04289855,69.9079679,Pincode Not Found
Gujarat,-,Unnamed Zone,trunk,80,23.04532325,69.91099585,Pincode Not Found
Gujarat,-,Unnamed Zone,trunk,80,23.04516045,69.9107926,Pincode Not Found
Gujarat,-,Unnamed Zone,trunk,80,23.04569805,69.91116575,Pincode Not Found
Gujarat,-,Unnamed Zone,trunk,80,23.045455,69.9108532,Pincode Not Found
Gujarat,Z261,Hapa Road,tertiary,40,22.46316385,70.0893755,361009
Gujarat,-,Unnamed Zone,service,100,22.360339,69.8505437,361280
Gujarat,Z330,Airforce Road Underpass,secondary,40,22.46076765,70.04045455,361006
Gujarat,Z237,Airforce Road,secondary,40,22.46064915,70.03825675,361006
Gujarat,Z330,Airforce Road Underpass,secondary,40,22.46072025,70.03964325,361006
Gujarat,Z237,Airforce Road,secondary,40,22.4610511,70.0490258,361006
Gujarat,-,Unnamed Zone,service,100,22.35541055,69.84742535,361280
Gujarat,-,Unnamed Zone,service,100,22.35572505,69.84702695,361280
Gujarat,-,Unnamed Zone,service,100,22.35655065,69.8572644,361280
Gujarat,-,Unnamed Zone,service,100,22.356684,69.85725865,361280
Gujarat,Z254,Patel park road.,residential,30,22.4420994,70.0704354,361009
Gujarat,Z254,Patel park road.,residential,30,22.44311065,70.0739366,361009
Gujarat,Z254,Patel park road.,residential,30,22.44311755,70.0740212,361009
Gujarat,-,Unnamed Zone,trunk,80,23.0782303,70.0024782,370110
Gujarat,-,Unnamed Zone,trunk,80,23.07741455,70.0063001,370110
Gujarat,-,Unnamed Zone,trunk,80,23.07828485,70.002787,370110
Gujarat,-,Unnamed Zone,trunk,80,23.07836845,70.0025828,370110
Gujarat,-,Unnamed Zone,trunk,80,23.07752875,70.0074678,370110
Gujarat,-,Unnamed Zone,trunk,80,23.0775474,70.0070608,370110
Gujarat,-,Unnamed Zone,trunk,80,23.07736785,70.00728675,370110
Gujarat,-,Unnamed Zone,trunk,80,23.07886395,70.0249867,370110
Gujarat,-,Unnamed Zone,trunk,80,23.1924195,70.2061218,370140
Gujarat,-,Unnamed Zone,trunk,80,23.19190615,70.20492955,Pincode Not Found
Gujarat,Z331,Indira Gandhi road,secondary,40,22.45265115,70.04258945,361006
Gujarat,Z331,Indira Gandhi road,secondary,40,22.45322055,70.04287605,361006
Gujarat,Z331,Indira Gandhi road,secondary,40,22.4607708,70.0489943,361006
Gujarat,Z331,Indira Gandhi road,secondary,40,22.44019235,70.03381845,361006
Gujarat,Z331,Indira Gandhi road,secondary,40,22.44011935,70.03384165,361006
Gujarat,-,Unnamed Zone,residential,30,22.45170585,70.02583745,361006
Gujarat,-,Unnamed Zone,service,100,22.3747892,69.865243,Pincode Not Found
Gujarat,-,Unnamed Zone,service,100,22.37415505,69.8654907,Pincode Not Found
Gujarat,Z261,Hapa Road,tertiary,40,22.4666921,70.09804385,361009
Gujarat,Z261,Hapa Road,tertiary,40,22.46666795,70.0979803,361009
Gujarat,-,Unnamed Zone,trunk,80,23.08740385,69.9642582,370110
Gujarat,-,Unnamed Zone,trunk,80,23.0876813,69.9653069,370110
Gujarat,Z155,Indira Gandhi Road,secondary,40,22.4702851,70.05730425,361001
Gujarat,Z238,Hirji Mistry Road,secondary,40,22.46113055,70.0495525,361005
Gujarat,Z238,Hirji Mistry Road,secondary,40,22.46228475,70.05908695,361005
Gujarat,Z228,Vinumakad Road,unclassified,30,22.4697464,70.06517665,361002
Gujarat,-,Unnamed Zone,primary,80,23.1041223,69.9994312,370110
Gujarat,-,Unnamed Zone,primary,80,23.0864746,69.96228515,370110
Gujarat,-,Unnamed Zone,primary,80,23.10149975,69.99353305,370110
Gujarat,-,Unnamed Zone,primary,80,23.10162075,69.99379575,370110
Gujarat,Z329,Nyari Dam 1 Road,unclassified,50,22.2516937,70.7210599,360021
Gujarat,Z329,Nyari Dam 1 Road,unclassified,50,22.2517943,70.72104115,360021
Gujarat,Z329,Nyari Dam 1 Road,tertiary,50,22.2591858,70.72305415,360005
Gujarat,Z329,Nyari Dam 1 Road,tertiary,50,22.2595456,70.7231954,360005
Gujarat,Z329,Nyari Dam 1 Road,tertiary,50,22.2591526,70.72314655,360005
Gujarat,Z329,Nyari Dam 1 Road,tertiary,50,22.2586362,70.7229448,360005
Gujarat,-,Unnamed Zone,service,100,22.3640502,69.84750245,361280
Gujarat,-,Unnamed Zone,service,100,22.3638442,69.84758275,361280
Gujarat,Z329,Nyari Dam 1 Road,tertiary,50,22.2571126,70.7222563,360005
Gujarat,Z329,Nyari Dam 1 Road,unclassified,50,22.25658215,70.72212895,360021
Gujarat,Z329,Nyari Dam 1 Road,unclassified,50,22.25628095,70.72201015,360021
Gujarat,Z329,Nyari Dam 1 Road,unclassified,50,22.2566053,70.7220499,360021
Gujarat,Z227,Summair Club Road,primary,30,22.468339,70.05869025,361001
Gujarat,Z257,Main City Road,tertiary,40,22.46172605,70.06565075,361005
Gujarat,Z257,Main City Road,tertiary,40,22.46102855,70.070315,361009
Gujarat,-,Unnamed Zone,trunk,80,23.09305835,70.04277175,370110
Gujarat,Z189,Port Road SouthWestbound Ghandhidham,trunk,80,23.1989462,70.2382807,370140
Gujarat,Z121,Port Road NorthEastbound Bhachau,trunk,80,23.19755855,70.23264665,370140
Gujarat,Z189,Port Road SouthWestbound Ghandhidham,trunk,80,23.19716975,70.23005645,370140
Gujarat,Z121,Port Road NorthEastbound Bhachau,trunk,80,23.19664455,70.22384035,370140
Gujarat,Z262,Hapa Fly-over,primary,30,22.4779647,70.10200645,361009
Gujarat,Z142,DSP Bunglow road,primary,30,22.47328075,70.0688894,361002
Gujarat,Z142,DSP Bunglow road,primary,30,22.4735724,70.068654,361002
Gujarat,-,Unnamed Zone,trunk,80,23.08144545,69.9900522,370110
Gujarat,-,Unnamed Zone,trunk,80,23.08140665,69.9902833,370110
Gujarat,-,Unnamed Zone,trunk,80,23.08127005,69.9900657,370110
Gujarat,-,Unnamed Zone,trunk,80,23.08063305,69.9954772,370110
Gujarat,-,Unnamed Zone,trunk,80,23.08078045,69.9956486,370110
Gujarat,-,Unnamed Zone,trunk,80,23.080626,69.9963759,370110
Gujarat,-,Unnamed Zone,trunk,80,23.08060865,69.9956411,370110
Gujarat,-,Unnamed Zone,trunk,80,23.0784477,70.00192565,370110
Gujarat,-,Unnamed Zone,trunk,80,23.02602845,69.8905,370130
Gujarat,-,Unnamed Zone,trunk,80,23.0249302,69.88917165,370130
Gujarat,Z257,Main City Road,primary,40,22.46372045,70.06163345,361005
Gujarat,Z257,Main City Road,primary,40,22.4618372,70.06547195,361005
Gujarat,Z257,Main City Road,primary,40,22.4636893,70.06167965,361005
Gujarat,Z113,Rajkot - Morbi Highway,primary,60,22.34736805,70.80781325,360003
Gujarat,Z192,Bedi Road,secondary,40,22.49233285,70.04790605,361008
Gujarat,Z247,Ring Road -2,primary,50,22.2707347,70.74556505,360005
Gujarat,Z247,Ring Road -2,secondary,50,22.27046945,70.74590595,360005
Gujarat,Z232,Air Force Road,tertiary,40,22.4703143,70.0418242,361006
Gujarat,Z232,Air Force Road,tertiary,40,22.470239,70.0419861,361006
Gujarat,Z232,Air Force Road,tertiary,40,22.47047245,70.0376359,361006
Gujarat,Z257,Main City Road,tertiary,40,22.46097825,70.07059865,361009
Gujarat,Z228,Vinumakad Road,unclassified,30,22.47030285,70.06522295,361002
Gujarat,Z231,Vishwakarma Road,unclassified,40,22.46704975,70.0724794,361009
Gujarat,Z231,Vishwakarma Road,unclassified,40,22.4680832,70.0704097,361009
Gujarat,Z231,Vishwakarma Road,unclassified,40,22.46853115,70.07031625,361002
Gujarat,Z118,Nana Mava Main Road,tertiary,40,22.2734251,70.773461,360004
Gujarat,Z122,Samana road,primary,40,22.4616092,70.06569625,361005
Gujarat,Z248,Zadeshwar Village Road,tertiary,30,21.7169604,73.0333524,392011
Gujarat,-,Unnamed Zone,secondary,50,22.2674741,73.22339755,390001
Gujarat,-,Unnamed Zone,secondary,50,22.27708335,73.21152205,390001
Gujarat,Z332,Gotri Road,primary,30,22.322414,73.092395,390021
Gujarat,Z332,Gotri Road,primary,30,22.3222229,73.09257305,390021
Gujarat,Z156,Santram Deri Road,unclassified,20,22.6642446,72.86437565,387001
Gujarat,Z156,Santram Deri Road,unclassified,20,22.6635374,72.86515255,387001
Gujarat,Z151,Mota Kumbhnath Road,unclassified,10,22.6771239,72.87107935,387001
Gujarat,Z156,Santram Deri Road,unclassified,20,22.67995395,72.86725875,387001
Gujarat,Z156,Santram Deri Road,unclassified,20,22.68031755,72.86730855,387001
Gujarat,Z156,Santram Deri Road,unclassified,20,22.6799164,72.86719375,387001
Gujarat,Z332,Gotri Road,primary,30,22.31805515,73.12411765,390021
Gujarat,Z332,Gotri Road,primary,30,22.3180731,73.12385245,390021
Gujarat,Z332,Gotri Road,primary,30,22.3158861,73.1366299,390021
Gujarat,Z332,Gotri Road,primary,30,22.315936,73.13645205,390021
Gujarat,Z332,Gotri Road,primary,30,22.31816755,73.12338265,390021
Gujarat,Z332,Gotri Road,primary,30,22.31812485,73.1235634,390021
Gujarat,Z100,Ahmadabad Vadodara Expressway,motorway,100,22.7233152,72.8760959,387360
Gujarat,Z100,Ahmadabad Vadodara Expressway,motorway,100,22.7259501,72.8736492,387002
Gujarat,Z100,Ahmadabad Vadodara Expressway,motorway,100,22.729801,72.86992355,387002
Gujarat,Z100,Ahmadabad Vadodara Expressway,motorway,100,22.7258199,72.87350335,387002
Gujarat,-,Unnamed Zone,residential,50,22.3560243,73.2024487,390001
Gujarat,-,Unnamed Zone,unclassified,50,22.3555607,73.20274165,390001
Gujarat,-,Unnamed Zone,tertiary,60,22.35629145,73.20648505,390001
Gujarat,-,Unnamed Zone,tertiary,60,22.35615605,73.20647115,390001
Gujarat,-,Unnamed Zone,unclassified,50,22.35612595,73.2025836,390001
Gujarat,Z100,Ahmadabad Vadodara Expressway,motorway,100,22.73887005,72.8644508,387002
Gujarat,Z100,Ahmadabad Vadodara Expressway,motorway,100,22.7384907,72.86460055,387002
Gujarat,Z100,Ahmadabad Vadodara Expressway,motorway,100,22.73853445,72.86475105,387002
Gujarat,Z100,Ahmadabad Vadodara Expressway,motorway,100,22.7389184,72.86459785,387002
Gujarat,-,Unnamed Zone,primary,40,22.549923,72.9286165,388120
Gujarat,-,Unnamed Zone,residential,20,22.55032055,72.91702385,380120
Gujarat,Z100,Ahmadabad Vadodara Expressway,motorway,100,22.43333345,73.1289745,391350
Gujarat,Z100,Ahmadabad Vadodara Expressway,motorway,100,22.43267735,73.1295945,391350
Gujarat,Z100,Ahmadabad Vadodara Expressway,motorway,100,22.43277085,73.12971945,391350
Gujarat,Z100,Ahmadabad Vadodara Expressway,motorway,100,22.4321747,73.13029085,391350
Gujarat,-,Unnamed Zone,trunk,80,22.54302725,71.51717945,363435
Gujarat,-,Unnamed Zone,trunk,80,22.5431843,71.51596185,363430
Gujarat,-,Unnamed Zone,primary,40,22.54984115,72.9285814,388120
Gujarat,Z244,Atlantis Lane,service,40,22.3181424,73.16653205,390007
Gujarat,Z150,VKV Road,secondary,30,22.69069295,72.8638907,387001
Gujarat,Z150,VKV Road,secondary,30,22.69073695,72.86395635,387001
Gujarat,-,Unnamed Zone,primary,20,22.6930262,72.85977,387001
Gujarat,-,Unnamed Zone,primary,20,22.69295805,72.8599826,387001
Gujarat,Z333,Cul-de-sac,unclassified,20,23.24274315,72.6498057,382023
Gujarat,-,Unnamed Zone,trunk,80,22.42975055,71.08525095,Pincode Not Found
Gujarat,-,Unnamed Zone,trunk,80,22.4144402,71.11898325,Pincode Not Found
Gujarat,-,Unnamed Zone,trunk,80,22.4146823,71.11971905,Pincode Not Found
Gujarat,-,Unnamed Zone,trunk,80,22.4146004,71.11975155,Pincode Not Found
Gujarat,-,Unnamed Zone,secondary,50,22.2771473,73.21141375,390001
Gujarat,Z124,M.G. Road,secondary,40,20.95147845,72.9285805,396400
Gujarat,Z124,M.G. Road,secondary,40,20.95169665,72.92694115,396400
Gujarat,Z124,M.G. Road,secondary,40,20.9516738,72.92626615,396400
Gujarat,Z124,M.G. Road,secondary,40,20.95147805,72.928617,396400
Gujarat,Z176,Vijalpore Road,secondary,30,20.9473878,72.92437875,396445
Gujarat,Z176,Vijalpore Road,secondary,30,20.9471956,72.9233529,396445
Gujarat,Z176,Vijalpore Road,secondary,30,20.94654435,72.92173235,396445
Gujarat,Z283,Gaurav Path Road,secondary,60,21.19753425,72.77036,395009
Gujarat,Z288,Asnani Road,tertiary,40,21.1932622,72.7803534,395009
Gujarat,Z334,444,residential,45,21.19634525,72.7818967,395009
Gujarat,Z335,45,residential,40,21.1956753,72.7821458,395009
Gujarat,-,Unnamed Zone,residential,30,21.18697655,72.78363485,359009
Gujarat,Z283,Gaurav Path Road,secondary,60,21.18293245,72.77284035,395007
Gujarat,Z283,Gaurav Path Road,secondary,60,21.18201795,72.7729636,395007
Gujarat,Z283,Gaurav Path Road,secondary,60,21.183327,72.77270685,395009
Gujarat,-,Unnamed Zone,trunk,60,21.18093705,72.7658922,395007
Gujarat,-,Unnamed Zone,secondary,60,20.87817155,72.9412082,396472
Gujarat,-,Unnamed Zone,secondary,60,20.87805765,72.94110745,396472
Gujarat,-,Unnamed Zone,trunk,60,22.6395021,71.7667109,Pincode Not Found
Gujarat,-,Unnamed Zone,trunk,60,22.66196655,71.7451171,Pincode Not Found
Gujarat,-,Unnamed Zone,trunk,60,22.78551945,71.6163494,Pincode Not Found
Gujarat,-,Unnamed Zone,trunk,60,22.77824455,71.6170257,Pincode Not Found
Gujarat,-,Unnamed Zone,trunk,60,22.78413315,71.61645685,Pincode Not Found
Gujarat,-,Unnamed Zone,trunk,60,22.7798527,71.61686645,Pincode Not Found
Gujarat,-,Unnamed Zone,trunk,60,22.6770989,71.72999645,Pincode Not Found
Gujarat,-,Unnamed Zone,trunk,60,22.6772103,71.72989725,Pincode Not Found
Gujarat,Z177,Maneklal Road,residential,40,20.94630635,72.91627145,396445
Gujarat,-,Unnamed Zone,trunk,60,22.83168665,71.5994934,Pincode Not Found
Gujarat,-,Unnamed Zone,trunk,60,22.83147195,71.59960735,Pincode Not Found
Gujarat,-,Unnamed Zone,trunk,60,22.8409927,71.5968742,Pincode Not Found
Gujarat,-,Unnamed Zone,trunk,60,22.84082315,71.5968468,Pincode Not Found
Gujarat,-,Unnamed Zone,trunk,60,22.71890125,71.65594505,363035
Gujarat,-,Unnamed Zone,trunk,60,22.71904705,71.65492405,363035
Gujarat,-,Unnamed Zone,trunk_link,60,20.93666925,72.97440695,396400
Gujarat,-,Unnamed Zone,secondary,60,20.86071105,72.96708355,396370
Gujarat,-,Unnamed Zone,secondary,60,20.86038235,72.96708555,396370
Gujarat,-,Unnamed Zone,trunk,60,22.72508625,71.63687135,363002
Gujarat,-,Unnamed Zone,trunk,60,22.72508045,71.6350122,363002
Gujarat,-,Unnamed Zone,trunk,60,22.7250665,71.6347625,363001
Gujarat,-,Unnamed Zone,secondary,60,20.83878725,72.9725259,396370
Gujarat,-,Unnamed Zone,secondary,60,20.8543104,72.96230485,396370
Gujarat,-,Unnamed Zone,secondary,60,20.89344635,72.9604224,396400
Gujarat,-,Unnamed Zone,secondary,60,20.89303625,72.96042055,396400
Gujarat,Z336,Bhesta to sarvodaya print road,service,40,21.12657225,72.85352645,395023
Gujarat,-,Unnamed Zone,secondary,60,20.8893443,72.95095805,396472
Gujarat,-,Unnamed Zone,secondary,60,20.889595,72.95127335,396472
Gujarat,-,Unnamed Zone,secondary,40,21.14796025,72.84803835,394210
Gujarat,Z177,Maneklal Road,residential,5,20.94557085,72.9176926,396445
Gujarat,-,Unnamed Zone,trunk,100,22.2255203,68.9887105,361335
Gujarat,-,Unnamed Zone,trunk,100,22.2205637,69.0044349,Pincode Not Found
Gujarat,-,Unnamed Zone,trunk,100,22.15945015,69.05184025,Pincode Not Found
Gujarat,-,Unnamed Zone,trunk,100,22.1370253,69.06816405,Pincode Not Found
Gujarat,-,Unnamed Zone,trunk,100,22.13457035,69.0698792,Pincode Not Found
Gujarat,-,Unnamed Zone,trunk,60,22.7192067,71.67655535,363035
Gujarat,-,Unnamed Zone,trunk,60,22.71546355,71.67728515,363035
Gujarat,-,Unnamed Zone,trunk,60,22.71914075,71.6766182,363035
Gujarat,-,Unnamed Zone,trunk,80,22.5658043,71.698061,Pincode Not Found
Gujarat,-,Unnamed Zone,trunk,80,22.5658151,71.69794075,Pincode Not Found
Gujarat,-,Unnamed Zone,trunk,60,22.7288467,71.62854745,363001
Gujarat,-,Unnamed Zone,trunk,60,22.72860935,71.62853725,363001
Gujarat,-,Unnamed Zone,trunk,60,22.72513895,71.628496,363001
Gujarat,Z337,Del Perro Rural Road,unclassified,100,21.90563595,69.720316,360510
Gujarat,Z338,Local Street,residential,30,21.33810325,72.7506739,394540
Gujarat,Z105,Variyali Bazar Main Road,secondary,30,21.1978023,72.8195292,395003
Gujarat,Z339,Delhi - Vadodara Expressway,construction,100,22.65081305,73.454691,Pincode Not Found
Gujarat,Z339,Delhi - Vadodara Expressway,construction,100,22.8224095,73.79200235,389001
Gujarat,Z339,Delhi - Vadodara Expressway,construction,100,22.78519945,73.56839015,389001
Gujarat,Z339,Delhi - Vadodara Expressway,construction,100,22.73600605,73.5320728,389001
Gujarat,Z339,Delhi - Vadodara Expressway,construction,100,22.73311935,73.5307994,389001
Gujarat,Z339,Delhi - Vadodara Expressway,construction,100,22.7357202,73.53227205,389001
Gujarat,Z339,Delhi - Vadodara Expressway,construction,100,22.7046818,73.4997097,389001
Gujarat,Z339,Delhi - Vadodara Expressway,construction,100,22.7022459,73.49858155,Pincode Not Found
Gujarat,Z339,Delhi - Vadodara Expressway,construction,100,22.70377105,73.49913495,Pincode Not Found
Gujarat,Z339,Delhi - Vadodara Expressway,construction,100,22.70362325,73.49949345,Pincode Not Found
Gujarat,Z339,Delhi - Vadodara Expressway,construction,100,22.4975987,73.3004821,Pincode Not Found
Gujarat,Z339,Delhi - Vadodara Expressway,construction,100,22.56536345,73.38263605,Pincode Not Found
Gujarat,Z339,Delhi - Vadodara Expressway,construction,100,22.4661752,73.1508446,391775
Gujarat,Z339,Delhi - Vadodara Expressway,construction,100,22.49541485,73.29341655,391775
Gujarat,Z339,Delhi - Vadodara Expressway,construction,100,23.00262785,74.3515533,Pincode Not Found
Gujarat,Z339,Delhi - Vadodara Expressway,construction,100,23.0023317,74.35176515,Pincode Not Found
Gujarat,-,Unnamed Zone,trunk,80,22.56589745,71.751052,363421
Gujarat,-,Unnamed Zone,trunk,80,22.5677342,71.76306275,363421
Gujarat,Z100,Ahmadabad Vadodara Expressway,motorway,100,22.37063645,73.1870431,390001
Gujarat,-,Unnamed Zone,primary,60,23.93909775,73.0388564,362248
Gujarat,Z144,State Highway 54,trunk,50,24.31700595,71.63076885,Pincode Not Found
Gujarat,Z144,State Highway 54,trunk,50,24.3488574,71.62787385,Pincode Not Found
Gujarat,-,Unnamed Zone,trunk,60,22.99190215,72.37713205,382110
Gujarat,-,Unnamed Zone,trunk,60,23.0146634,72.33622795,382110
Gujarat,-,Unnamed Zone,trunk,60,23.01455995,72.33693475,382110
Gujarat,-,Unnamed Zone,trunk,60,23.0148539,72.336367,382110
Gujarat,-,Unnamed Zone,trunk,60,20.92141675,72.92039405,396450
Gujarat,-,Unnamed Zone,trunk,60,20.92146445,72.92163155,396450
Gujarat,Z100,Ahmadabad Vadodara Expressway,motorway,100,22.93147845,72.73068125,387110
Gujarat,Z100,Ahmadabad Vadodara Expressway,motorway,100,22.93523645,72.72328635,387110
Gujarat,Z100,Ahmadabad Vadodara Expressway,motorway,100,22.93490765,72.72385735,387110
Gujarat,Z100,Ahmadabad Vadodara Expressway,motorway,100,22.93473025,72.72444825,387110
Gujarat,Z100,Ahmadabad Vadodara Expressway,motorway,100,22.93502465,72.7239197,387110
Gujarat,Z100,Ahmadabad Vadodara Expressway,motorway,100,22.93535435,72.72334625,387110
Gujarat,Z276,Radhanpur-Mehsana sh-68ext,trunk,60,23.61974205,72.3452911,384205
Gujarat,-,Unnamed Zone,trunk,60,22.99819245,71.493199,363320
Gujarat,-,Unnamed Zone,trunk,60,23.0024258,71.5345673,363320
Gujarat,-,Unnamed Zone,unclassified,30,21.1515052,70.59928965,362135
Gujarat,Z340,Rathore street,residential,20,22.42438535,69.0212829,361347
Gujarat,Z341,Rathore road,residential,20,22.425904,69.0212753,361347
Gujarat,Z342,Rathore Steet,residential,20,22.4240386,69.02105215,361347
Gujarat,Z343,Rathore Street,residential,20,22.4255314,69.02086965,361347
Gujarat,Z140,Tunda-Mandvi,primary,80,22.8349464,69.35752975,370405
Gujarat,-,Unnamed Zone,service,40,22.1279816,73.1716715,391243
Gujarat,Z344,Sola-Thaltej Overbridge,tertiary,40,23.06504105,72.51532705,380059
Gujarat,Z344,Sola-Thaltej Overbridge,tertiary,40,23.06032885,72.5147042,380059
Gujarat,-,Unnamed Zone,unclassified,60,20.46888,72.916495,396185
Gujarat,-,Unnamed Zone,residential,5,22.58194095,71.7403082,Pincode Not Found
Gujarat,Z111,Daman Road,construction,60,20.37463245,72.9120847,396191
Gujarat,Z207,Dhrol - Tankara State Highway,primary,65,22.6492273,70.74236345,363650
Gujarat,Z345,Ahemedabad - Dholera Expressway,proposed,120,22.81239445,72.4569917,382260
Gujarat,Z345,Ahemedabad - Dholera Expressway,proposed,120,22.2342439,72.1773517,382455
Gujarat,Z345,Ahemedabad - Dholera Expressway,construction,120,22.2385112,72.1796058,382455
Gujarat,Z345,Ahemedabad - Dholera Expressway,proposed,120,22.494586,72.3838235,Pincode Not Found
Gujarat,Z345,Ahemedabad - Dholera Expressway,construction,120,22.4960551,72.3933534,Pincode Not Found
Gujarat,Z345,Ahemedabad - Dholera Expressway,proposed,120,22.60418805,72.41886625,382265
Gujarat,Z345,Ahemedabad - Dholera Expressway,construction,120,22.61028845,72.4186529,382265
Gujarat,Z117,State Highway 7,primary,60,22.9936337,71.4601693,363300
Gujarat,Z117,State Highway 7,primary,60,22.98994165,71.47244095,363300
Gujarat,Z117,State Highway 7,primary,60,22.99521795,71.47489475,363300
Gujarat,Z346,Pavan Appartment,residential,20,23.0699733,72.64835915,382325
Gujarat,-,Unnamed Zone,residential,20,23.09448935,72.5457316,382481
Gujarat,Z207,Dhrol - Tankara State Highway,primary,65,22.6426235,70.7355621,363650
Gujarat,Z229,Gurudwara Road,unclassified,30,22.47317515,70.065405,361002
Gujarat,Z345,Ahemedabad - Dholera Expressway,proposed,120,22.7087073,72.44082585,387800
Gujarat,Z345,Ahemedabad - Dholera Expressway,construction,120,22.7109355,72.44268695,387800
Gujarat,-,Unnamed Zone,trunk,100,22.218005,69.6405273,361300
Gujarat,-,Unnamed Zone,trunk,60,23.71868295,72.1182107,384220
Gujarat,Z126,Navagam Road,tertiary,40,22.4818474,70.06719685,361008
Gujarat,-,Unnamed Zone,residential,40,22.97587245,72.45735465,382213
Gujarat,Z232,Air Force Road,tertiary,40,22.47023325,70.04126685,361006
Gujarat,Z232,Air Force Road,tertiary,40,22.470305,70.0404006,361006
Gujarat,Z232,Air Force Road,tertiary,40,22.4705068,70.03800435,361006
Gujarat,Z232,Air Force Road,tertiary,40,22.4703554,70.0388886,361006
Gujarat,Z347,Service Road,primary_link,30,22.64842785,70.7484534,363650
Gujarat,Z347,Service Road,primary_link,30,22.6516735,70.74734165,363650
Gujarat,Z347,Service Road,primary_link,30,22.6564759,70.74637845,363650
Gujarat,Z347,Service Road,primary_link,30,22.65180415,70.7469921,363650
Gujarat,Z348,Modheshwari Mata Mandir Road,tertiary,30,22.6158859,70.8651534,Pincode Not Found
Gujarat,-,Unnamed Zone,primary,60,22.65176255,70.74713015,363650
Gujarat,-,Unnamed Zone,trunk,100,22.21882865,69.64279065,361300
Gujarat,Z347,Service Road,primary_link,30,22.6518603,70.74730055,363650
Gujarat,Z347,Service Road,primary_link,30,22.6517067,70.7470054,363650
Gujarat,-,Unnamed Zone,secondary,40,22.64653915,70.74860605,363650
Gujarat,-,Unnamed Zone,primary,60,22.5647579,70.74636945,Pincode Not Found
Gujarat,-,Unnamed Zone,primary,60,22.5597578,70.74689955,Pincode Not Found
Gujarat,-,Unnamed Zone,primary,80,22.5611652,70.7466392,Pincode Not Found
Gujarat,Z113,Rajkot - Morbi Highway,primary,80,22.5656311,70.74624185,Pincode Not Found
Gujarat,Z347,Service Road,primary_link,40,22.5655173,70.74620985,Pincode Not Found
Gujarat,Z347,Service Road,primary_link,40,22.56268675,70.74637515,Pincode Not Found
Gujarat,Z347,Service Road,primary_link,40,22.56160995,70.7464775,Pincode Not Found
Gujarat,Z347,Service Road,primary_link,40,22.5613231,70.74652245,Pincode Not Found
Gujarat,Z113,Rajkot - Morbi Highway,primary,80,22.49985505,70.7559027,Pincode Not Found
Gujarat,Z212,Chandlodia Lake Road,residential,20,23.0804869,72.55154125,382481
Gujarat,-,Unnamed Zone,tertiary,30,23.08929555,72.54436585,382481
Gujarat,Z207,Dhrol - Tankara State Highway,primary,80,22.61264135,70.4927771,Pincode Not Found
Gujarat,Z207,Dhrol - Tankara State Highway,primary,80,22.6125724,70.49255085,Pincode Not Found
Gujarat,-,Unnamed Zone,tertiary,40,22.9952442,72.4724172,380058
Gujarat,Z207,Dhrol - Tankara State Highway,primary,80,22.623056,70.7137881,363650
Gujarat,Z207,Dhrol - Tankara State Highway,primary,80,22.6228297,70.71357255,Pincode Not Found
Gujarat,-,Unnamed Zone,trunk,80,21.5768242,72.1305591,Pincode Not Found
Gujarat,-,Unnamed Zone,trunk,80,21.5828269,72.12518455,Pincode Not Found
Gujarat,Z322,Tansa Bypass,trunk,80,21.5166201,72.11689965,Pincode Not Found
Gujarat,-,Unnamed Zone,trunk,80,21.5158002,72.1168909,Pincode Not Found
Gujarat,-,Unnamed Zone,trunk,80,21.4848174,72.1142435,Pincode Not Found
Gujarat,-,Unnamed Zone,trunk,80,21.42301995,72.0980722,Pincode Not Found
Gujarat,-,Unnamed Zone,trunk,80,21.42267405,72.09786605,Pincode Not Found
Gujarat,-,Unnamed Zone,tertiary,30,20.9734078,70.7591972,Pincode Not Found
Gujarat,Z111,Daman Road,primary,60,20.3791496,72.9070923,396191
Gujarat,Z111,Daman Road,primary,60,20.38164055,72.90454725,396191
Gujarat,Z111,Daman Road,primary,60,20.38155935,72.90465985,396191
Gujarat,Z186,Gondal Road,secondary,40,22.2801096,70.7992032,360001
Gujarat,Z273,Pipaliya Goga Maharaj Road,residential,30,23.465027,73.09903605,383305
Gujarat,Z349,Shaktinahar Road,residential,50,23.4677233,73.10687355,383305
Gujarat,Z350,Shaktinagar Road,unclassified,30,23.46701505,73.10619855,383305
Gujarat,Z350,Shaktinagar Road,residential,30,23.4672632,73.10656515,383305
Gujarat,Z272,Main Market Road,residential,65,23.466524,73.11341415,383305
Gujarat,-,Unnamed Zone,unclassified,60,20.9626889,71.2039681,Pincode Not Found
Gujarat,Z216,IIM Overbridge,secondary,50,23.03547595,72.53327365,380054
Gujarat,Z216,IIM Overbridge,secondary,50,23.03542385,72.53323275,380054
Gujarat,-,Unnamed Zone,tertiary,40,22.99506405,72.4726495,382213
Gujarat,Z351,Gota-Chokdi Flyover,trunk,70,23.09571905,72.53078015,382481
Gujarat,Z351,Gota-Chokdi Flyover,trunk,70,23.1018703,72.53269385,382481
Gujarat,Z221,Ellis Flyover,secondary,60,23.022607,72.57321075,380043
Gujarat,Z221,Ellis Flyover,secondary,60,23.02249525,72.57299155,380043
Gujarat,Z174,Swami Vivekananda Road,secondary,50,23.0220549,72.5780084,380001
Gujarat,Z174,Swami Vivekananda Road,secondary,50,23.0220569,72.5785272,380001
Gujarat,Z216,IIM Overbridge,secondary,50,23.03540645,72.5334082,380054
Gujarat,Z216,IIM Overbridge,secondary,50,23.03534395,72.53339465,380054
Gujarat,Z216,IIM Overbridge,secondary,50,23.0324052,72.53749865,380015
Gujarat,Z216,IIM Overbridge,secondary,50,23.03262975,72.5373448,380015
Gujarat,-,Unnamed Zone,tertiary,40,21.17168755,72.787025,395007
Gujarat,Z244,Atlantis Lane,service,40,22.31832925,73.166241,390023
Gujarat,Z193,Mehsana-Himatnagar Vijapur road,primary,100,23.56725525,72.3780368,384002
Gujarat,Z193,Mehsana-Himatnagar Vijapur road,primary,100,23.56718955,72.37853525,384001
Gujarat,Z193,Mehsana-Himatnagar Vijapur road,primary,100,23.5675805,72.37303465,384002
Gujarat,Z193,Mehsana-Himatnagar Vijapur road,primary,100,23.56702335,72.3881459,384002
Gujarat,Z193,Mehsana-Himatnagar Vijapur road,primary,100,23.56763495,72.3717134,384002
Gujarat,Z352,Krushnagadh Jamvali,tertiary,70,21.9747224,69.95050675,360515
Gujarat,Z353,Mota Vadiya Krushnagadh Road,tertiary,70,21.9584927,69.9188237,360515
Gujarat,-,Unnamed Zone,trunk,60,23.7935275,71.41650705,Pincode Not Found
Gujarat,-,Unnamed Zone,trunk,60,23.79553585,71.4139032,Pincode Not Found
Gujarat,-,Unnamed Zone,trunk,60,23.79730745,71.413269,Pincode Not Found
Gujarat,-,Unnamed Zone,trunk,60,23.79931115,71.41161545,Pincode Not Found
Gujarat,-,Unnamed Zone,primary,60,24.08249665,71.5293471,385320
Gujarat,-,Unnamed Zone,primary,60,24.083141,71.52357895,Pincode Not Found
Gujarat,Z193,Mehsana-Himatnagar Vijapur road,primary,100,23.56694915,72.39151765,384002
Gujarat,Z193,Mehsana-Himatnagar Vijapur road,primary,100,23.5669396,72.3918767,384002
Gujarat,Z193,Mehsana-Himatnagar Vijapur road,primary,100,23.5669445,72.39178685,384002
Gujarat,Z193,Mehsana-Himatnagar Vijapur road,primary,100,23.56693365,72.39198635,384002
Gujarat,Z339,Delhi - Vadodara Expressway,motorway,100,22.460681,73.1183508,391350
Gujarat,Z339,Delhi - Vadodara Expressway,construction,100,22.85231905,73.9729882,389130
Gujarat,Z339,Delhi - Vadodara Expressway,construction,100,22.82262255,73.8001253,Pincode Not Found
Gujarat,Z339,Delhi - Vadodara Expressway,construction,100,22.82314025,73.80889605,389130
Gujarat,Z339,Delhi - Vadodara Expressway,construction,100,22.8229375,73.80010915,Pincode Not Found
Gujarat,Z339,Delhi - Vadodara Expressway,construction,100,22.8782634,74.05410645,389146
Gujarat,Z339,Delhi - Vadodara Expressway,construction,100,22.8535994,73.97684525,389140
Gujarat,Z339,Delhi - Vadodara Expressway,construction,100,22.9835761,74.2979485,Pincode Not Found
Gujarat,Z339,Delhi - Vadodara Expressway,construction,100,22.8862057,74.08027405,Pincode Not Found
Gujarat,Z339,Delhi - Vadodara Expressway,construction,100,22.8841992,74.07154075,Pincode Not Found
Gujarat,Z339,Delhi - Vadodara Expressway,construction,100,22.8835666,74.06971685,Pincode Not Found
Gujarat,Z339,Delhi - Vadodara Expressway,construction,100,22.98782045,74.3090163,Pincode Not Found
Gujarat,Z339,Delhi - Vadodara Expressway,construction,100,23.0017775,74.35020575,Pincode Not Found
Gujarat,Z339,Delhi - Vadodara Expressway,construction,100,22.8551361,73.98036745,389146
Gujarat,Z339,Delhi - Vadodara Expressway,construction,100,22.8539057,73.9768094,389140
Gujarat,Z339,Delhi - Vadodara Expressway,construction,100,22.88524725,74.07405935,Pincode Not Found
Gujarat,Z339,Delhi - Vadodara Expressway,construction,100,22.87995255,74.0576125,Pincode Not Found
Gujarat,Z339,Delhi - Vadodara Expressway,construction,100,22.88696775,74.0824767,Pincode Not Found
Gujarat,Z339,Delhi - Vadodara Expressway,construction,100,22.8845241,74.07149715,Pincode Not Found
Gujarat,Z186,Gondal Road,secondary,40,22.27925295,70.79917035,360001
Gujarat,Z186,Gondal Road,secondary,40,22.2797653,70.7992445,360001
Gujarat,Z186,Gondal Road,secondary,40,22.2784597,70.7990177,360001
Gujarat,Z186,Gondal Road,secondary,40,22.27975535,70.79916385,360001
Gujarat,-,Unnamed Zone,secondary,60,20.8540753,72.9623285,396370
Gujarat,Z135,Joggers park Road,unclassified,30,22.4795685,70.0548081,361008
Gujarat,Z339,Delhi - Vadodara Expressway,construction,100,22.7793975,73.56391375,389001
Gujarat,Z339,Delhi - Vadodara Expressway,construction,100,22.7369904,73.53264105,389001
Gujarat,Z339,Delhi - Vadodara Expressway,construction,100,22.78272,73.56671545,389001
Gujarat,Z339,Delhi - Vadodara Expressway,construction,100,22.7828259,73.56636465,389001
Gujarat,Z339,Delhi - Vadodara Expressway,construction,100,22.64429995,73.44801395,389320
Gujarat,Z339,Delhi - Vadodara Expressway,construction,100,22.6429758,73.44598415,389320
Gujarat,Z339,Delhi - Vadodara Expressway,construction,100,22.64863495,73.45229815,389320
Gujarat,Z339,Delhi - Vadodara Expressway,construction,100,22.6498575,73.4536445,389320
Gujarat,Z339,Delhi - Vadodara Expressway,construction,100,22.6492434,73.45349175,389320
Gujarat,Z339,Delhi - Vadodara Expressway,construction,100,22.6497004,73.4539893,389320
Gujarat,Z339,Delhi - Vadodara Expressway,construction,100,22.6373118,73.43944345,389330
Gujarat,Z339,Delhi - Vadodara Expressway,construction,100,22.6399892,73.4432046,389330
Gujarat,Z339,Delhi - Vadodara Expressway,construction,100,22.62714185,73.4282473,389330
Gujarat,Z339,Delhi - Vadodara Expressway,construction,100,22.63349105,73.43577685,389330
Gujarat,Z339,Delhi - Vadodara Expressway,construction,100,22.6194331,73.4205842,389320
Gujarat,Z339,Delhi - Vadodara Expressway,construction,100,22.609833,73.40906655,389320
Gujarat,Z339,Delhi - Vadodara Expressway,construction,100,22.60671725,73.4057866,Pincode Not Found
Gujarat,Z339,Delhi - Vadodara Expressway,construction,100,22.6069301,73.40650785,Pincode Not Found
Gujarat,Z339,Delhi - Vadodara Expressway,construction,100,22.6051775,73.4049055,Pincode Not Found
Gujarat,Z339,Delhi - Vadodara Expressway,construction,100,22.57353975,73.3895682,Pincode Not Found
Gujarat,Z339,Delhi - Vadodara Expressway,construction,100,22.46098175,73.1186278,391350
Gujarat,Z339,Delhi - Vadodara Expressway,construction,100,22.46499615,73.14405065,391350
Gujarat,Z339,Delhi - Vadodara Expressway,construction,100,22.4655621,73.14843455,391350
Gujarat,Z339,Delhi - Vadodara Expressway,construction,100,22.46590315,73.14856405,391350
Gujarat,Z354,Godrej Garden City Road,tertiary,30,23.1082513,72.5523598,382470
Gujarat,-,Unnamed Zone,trunk,60,24.65966715,71.7645111,Pincode Not Found
Gujarat,-,Unnamed Zone,trunk,60,24.41830015,71.64972695,385565
Gujarat,Z355,Internal Road 1,unclassified,30,22.3657678,69.84277065,361280
Gujarat,Z355,Internal Road 1,unclassified,30,22.3663002,69.8422288,361280
Gujarat,-,Unnamed Zone,residential,40,22.99502595,72.4723498,380058
Gujarat,Z107,lal bahadur shashtri road,secondary,50,23.0215173,72.519741,380015
Gujarat,Z108,Danapith Road,tertiary,40,23.0226134,72.5861744,380001
Gujarat,-,Unnamed Zone,primary,50,22.99923905,72.62471565,380026
Gujarat,-,Unnamed Zone,primary,50,23.00483905,72.627102,380026
Gujarat,-,Unnamed Zone,primary,50,23.0044441,72.62702855,380026
Gujarat,Z222,Sukharam Nagar Road,secondary,40,23.01452925,72.63341775,380023
Gujarat,-,Unnamed Zone,tertiary,50,23.0199793,72.6328417,380023
Gujarat,Z189,Port Road SouthWestbound Ghandhidham,trunk,80,23.2588053,70.30550835,Pincode Not Found
Gujarat,Z189,Port Road SouthWestbound Ghandhidham,trunk,80,23.2595423,70.30804875,Pincode Not Found
Gujarat,Z121,Port Road NorthEastbound Bhachau,trunk,80,23.25892515,70.3056187,Pincode Not Found
Gujarat,Z121,Port Road NorthEastbound Bhachau,trunk,80,23.2589146,70.30591285,Pincode Not Found
Gujarat,-,Unnamed Zone,primary,80,23.11553545,70.0367661,370110
Gujarat,-,Unnamed Zone,residential,30,23.10037175,72.54836155,382481
Gujarat,-,Unnamed Zone,residential,30,23.10150695,72.54836965,382481
Gujarat,-,Unnamed Zone,primary,60,22.4003377,70.79323305,Pincode Not Found
Gujarat,Z110,State Highway 9,primary,60,23.6056509,72.96205895,383001
Gujarat,Z110,State Highway 9,primary,60,23.60975875,72.96424375,383001
Gujarat,Z110,State Highway 9,primary,60,23.64486735,72.9592646,Pincode Not Found
Gujarat,Z110,State Highway 9,primary,60,23.6169149,72.96404545,383001
Gujarat,Z110,State Highway 9,primary,60,23.66301215,72.9636164,Pincode Not Found
Gujarat,-,Unnamed Zone,primary,60,22.39334765,70.7957491,Pincode Not Found
Gujarat,-,Unnamed Zone,primary,60,22.3932614,70.79573255,Pincode Not Found
Gujarat,-,Unnamed Zone,primary,60,22.3473215,70.80787115,360003
Gujarat,Z250,Mundra-Luni,primary,80,22.8415619,69.7191212,370421
Gujarat,Z250,Mundra-Luni,primary,80,22.8628536,69.74570725,370421
Gujarat,Z320,SH6 link to NH41 via Gundala,primary,80,22.86311825,69.7439526,370421
Gujarat,Z274,Shilp Bunglows Road,residential,20,23.0614357,72.66426715,382350
Gujarat,Z145,Mundra Fort-Dhrab,primary,80,22.8349998,69.68250815,370421
Gujarat,Z145,Mundra Fort-Dhrab,primary,80,22.8352687,69.68411945,370421
Gujarat,Z286,Sanmati Society Access Road,residential,20,22.29467275,73.1759535,390020
Gujarat,Z167,Dr. Hariprasad Desai Marg,residential,40,23.01603785,72.56131545,380007
Gujarat,-,Unnamed Zone,tertiary,30,23.0893935,72.5444022,382481
Gujarat,Z251,SH6,tertiary,80,23.0562755,69.91831825,370130
Gujarat,-,Unnamed Zone,trunk,80,23.08075845,69.9512811,Pincode Not Found
Gujarat,-,Unnamed Zone,tertiary,80,23.0542334,69.9168104,370130
Gujarat,Z285,Lane to Police Line Control Office,residential,20,22.3000929,73.1775354,390001
Gujarat,Z191,SH6 Westbound Bachau,trunk,80,23.3118992,70.4673788,370150
Gujarat,Z191,SH6 Westbound Bachau,trunk,80,23.3064851,70.5003103,370150
Gujarat,Z190,SH6 Eastbound Samakhyali,trunk,80,23.31207215,70.46799905,370150
Gujarat,Z190,SH6 Eastbound Samakhyali,trunk,80,23.3120303,70.46738105,370150
Gujarat,-,Unnamed Zone,trunk,80,22.64005325,72.1959437,Pincode Not Found
Gujarat,-,Unnamed Zone,trunk,80,22.64302955,72.2042279,Pincode Not Found
Gujarat,-,Unnamed Zone,trunk,80,22.63767225,72.191206,Pincode Not Found
Gujarat,-,Unnamed Zone,trunk,80,22.63945395,72.19471915,Pincode Not Found
Gujarat,-,Unnamed Zone,trunk,80,22.63919945,72.19438835,Pincode Not Found
Gujarat,-,Unnamed Zone,trunk,80,22.6393799,72.19475155,Pincode Not Found
Gujarat,-,Unnamed Zone,trunk,80,22.63962665,72.19507995,Pincode Not Found
Gujarat,-,Unnamed Zone,trunk,80,22.63975975,72.19550855,Pincode Not Found
Gujarat,-,Unnamed Zone,trunk,80,22.6449,72.20618135,Pincode Not Found
Gujarat,-,Unnamed Zone,trunk,80,22.64507145,72.2063206,Pincode Not Found
Gujarat,-,Unnamed Zone,trunk,80,22.6433631,72.20466845,Pincode Not Found
Gujarat,-,Unnamed Zone,trunk,80,22.64512355,72.20625235,Pincode Not Found
Gujarat,-,Unnamed Zone,trunk,80,22.64541855,72.20649795,Pincode Not Found
Gujarat,-,Unnamed Zone,trunk,80,22.66826865,72.2297968,Pincode Not Found
Gujarat,-,Unnamed Zone,trunk,80,22.66491975,72.2277175,Pincode Not Found
Gujarat,-,Unnamed Zone,trunk,80,22.66821565,72.22990745,Pincode Not Found
Gujarat,-,Unnamed Zone,trunk,80,22.66794865,72.2297611,Pincode Not Found
Gujarat,-,Unnamed Zone,trunk,80,22.66509005,72.2277032,Pincode Not Found
Gujarat,-,Unnamed Zone,trunk,80,22.67150085,72.23171125,Pincode Not Found
Gujarat,-,Unnamed Zone,trunk,80,22.6686531,72.2300134,Pincode Not Found
Gujarat,-,Unnamed Zone,trunk,60,23.0549371,70.860642,Pincode Not Found
Gujarat,-,Unnamed Zone,trunk,60,23.0535699,70.8637971,Pincode Not Found
Gujarat,-,Unnamed Zone,trunk,60,23.0536636,70.86321425,Pincode Not Found
Gujarat,-,Unnamed Zone,trunk,60,23.05343755,70.8637232,Pincode Not Found
Gujarat,-,Unnamed Zone,trunk,80,22.7067909,72.24956535,382240
Gujarat,-,Unnamed Zone,trunk,80,22.69485185,72.2381223,382240
Gujarat,-,Unnamed Zone,trunk,80,22.6982524,72.2411326,382240
Gujarat,-,Unnamed Zone,trunk,80,22.6949049,72.2380199,382240
Gujarat,-,Unnamed Zone,trunk,80,22.6966166,72.2397385,382240
Gujarat,-,Unnamed Zone,trunk,80,22.69504925,72.23812465,382240
Gujarat,-,Unnamed Zone,trunk,80,22.69472385,72.23802835,382240
Gujarat,-,Unnamed Zone,trunk,80,22.69167465,72.23580065,382240
Gujarat,Z115,Sanand-Viramgam Highway,trunk,60,23.0148632,72.33584835,382110
Gujarat,Z115,Sanand-Viramgam Highway,trunk,60,23.02275395,72.3212527,382110
Gujarat,-,Unnamed Zone,trunk,80,22.7090011,72.25174085,382240
Gujarat,-,Unnamed Zone,trunk,80,22.7559284,72.31065585,382240
Gujarat,-,Unnamed Zone,trunk,80,22.75616735,72.3107968,Pincode Not Found
Gujarat,-,Unnamed Zone,trunk,80,22.7595815,72.3152495,Pincode Not Found
Gujarat,-,Unnamed Zone,trunk,80,22.76356105,72.31733235,Pincode Not Found
Gujarat,-,Unnamed Zone,trunk,80,22.7805736,72.32627315,Pincode Not Found
Gujarat,-,Unnamed Zone,trunk,80,22.7758372,72.3239043,Pincode Not Found
Gujarat,-,Unnamed Zone,trunk,80,22.7805274,72.3263805,Pincode Not Found
Gujarat,-,Unnamed Zone,trunk,80,22.77651875,72.3241384,Pincode Not Found
Gujarat,-,Unnamed Zone,trunk,80,22.78035405,72.32629185,Pincode Not Found
Gujarat,-,Unnamed Zone,trunk,80,22.78298875,72.3276853,Pincode Not Found
Gujarat,-,Unnamed Zone,trunk,80,22.78138595,72.32669695,Pincode Not Found
Gujarat,-,Unnamed Zone,trunk,80,22.76002825,72.31545795,Pincode Not Found
Gujarat,-,Unnamed Zone,trunk,80,22.7597995,72.31529005,Pincode Not Found
Gujarat,-,Unnamed Zone,trunk,80,22.7630688,72.31721265,Pincode Not Found
Gujarat,-,Unnamed Zone,trunk,80,22.7598016,72.31541685,Pincode Not Found
Gujarat,Z100,Ahmadabad Vadodara Expressway,motorway,100,22.9786519,72.64526275,382245
Gujarat,Z100,Ahmadabad Vadodara Expressway,motorway,100,22.97469975,72.65211965,382245
Gujarat,Z100,Ahmadabad Vadodara Expressway,motorway,100,22.9863339,72.6318782,380026
Gujarat,Z193,Mehsana-Himatnagar Vijapur road,primary,100,23.56565095,72.45105615,382711
Gujarat,Z193,Mehsana-Himatnagar Vijapur road,primary,100,23.5647986,72.4255378,384001
Gujarat,Z193,Mehsana-Himatnagar Vijapur road,primary,100,23.5646899,72.4258894,384001
Gujarat,Z193,Mehsana-Himatnagar Vijapur road,primary,100,23.5647848,72.42445705,384001
Gujarat,Z193,Mehsana-Himatnagar Vijapur road,primary,100,23.5647209,72.4247693,384001
Gujarat,-,Unnamed Zone,primary,50,23.50596215,72.0612977,334220
Gujarat,Z117,State Highway 7,primary,60,22.99802075,71.4930043,363300
Gujarat,-,Unnamed Zone,primary,50,23.4947642,72.04238825,384210
Gujarat,-,Unnamed Zone,primary,50,23.4987677,72.04498555,384210
Gujarat,-,Unnamed Zone,primary,50,23.4986915,72.04481405,384210
Gujarat,-,Unnamed Zone,primary,50,23.4937754,72.0417882,334220
Gujarat,-,Unnamed Zone,primary,50,23.4989823,72.04523155,384210
Gujarat,-,Unnamed Zone,primary,50,23.50102695,72.0506899,384210
Gujarat,-,Unnamed Zone,primary,50,23.50123295,72.0511564,334220
Gujarat,-,Unnamed Zone,primary,50,23.50181085,72.0525081,334220
Gujarat,-,Unnamed Zone,primary,50,23.51819915,72.08195135,334220
Gujarat,-,Unnamed Zone,primary,50,23.51488065,72.08019445,334220
Gujarat,-,Unnamed Zone,primary,50,23.54234055,72.1050164,Pincode Not Found
Gujarat,-,Unnamed Zone,primary,50,23.54366945,72.10663695,Pincode Not Found
Gujarat,-,Unnamed Zone,primary,50,23.54495555,72.1080336,Pincode Not Found
Gujarat,-,Unnamed Zone,primary,50,23.544241,72.1072188,Pincode Not Found
Gujarat,-,Unnamed Zone,primary,50,23.57589425,72.13029455,Pincode Not Found
Gujarat,-,Unnamed Zone,primary,50,23.5906228,72.14064825,Pincode Not Found
Gujarat,-,Unnamed Zone,primary,50,23.58924855,72.13989065,Pincode Not Found
Gujarat,-,Unnamed Zone,primary,50,23.578302,72.1324335,Pincode Not Found
Gujarat,-,Unnamed Zone,primary,50,23.60039955,72.13803255,Pincode Not Found
Gujarat,-,Unnamed Zone,primary,50,23.5898873,72.14031215,Pincode Not Found
Gujarat,Z173,RTO Road,tertiary,40,22.9864793,72.6636635,382433
Gujarat,Z173,RTO Road,tertiary,40,22.9908923,72.65451795,382418
Gujarat,Z173,RTO Road,tertiary,40,22.9986566,72.64738955,382418
Gujarat,Z173,RTO Road,tertiary,40,22.9982881,72.64769925,382418
Gujarat,Z117,State Highway 7,primary,60,22.99558445,71.45817555,363300
Gujarat,Z117,State Highway 7,primary,60,22.99394485,71.4598712,363300
Gujarat,Z117,State Highway 7,primary,60,22.9946704,71.45910275,363300
Gujarat,Z117,State Highway 7,primary,60,22.9939769,71.4599011,363300
Gujarat,Z292,Sanand Bypass,primary,50,22.98008065,72.371933,382110
Gujarat,Z292,Sanand Bypass,primary,50,22.9858677,72.39609045,382110
Gujarat,Z292,Sanand Bypass,primary,50,22.9805498,72.3703405,382110
Gujarat,Z292,Sanand Bypass,primary,50,22.9808422,72.3691978,382110
Gujarat,Z193,Mehsana-Himatnagar Vijapur road,primary,100,23.5642674,72.43546175,382711
Gujarat,Z193,Mehsana-Himatnagar Vijapur road,primary,100,23.5647189,72.42702695,382711
Gujarat,Z193,Mehsana-Himatnagar Vijapur road,primary,100,23.5652919,72.4424395,382711
Gujarat,Z193,Mehsana-Himatnagar Vijapur road,primary,100,23.56432495,72.4365077,382711
Gujarat,Z193,Mehsana-Himatnagar Vijapur road,primary,100,23.56568445,72.4557552,382711
Gujarat,Z193,Mehsana-Himatnagar Vijapur road,primary,100,23.5655647,72.44371075,382711
Gujarat,Z241,Canal Corridor,secondary,50,21.18947025,72.86149445,394212
Gujarat,Z241,Canal Corridor,secondary,50,21.1908328,72.8630317,394212
Gujarat,Z144,State Highway 54,trunk,50,24.2197595,71.6487778,Pincode Not Found
Gujarat,Z282,LP Savani Road,secondary,60,21.2014431,72.78209205,395009
Gujarat,Z356,Veer Savarkar Circle,secondary,60,21.20794005,72.78274425,395009
Gujarat,Z357,Dvarkesh Road,tertiary,30,21.10482955,71.71336335,364290
Gujarat,Z358,Pramukh Swami Road,secondary,30,21.08084355,71.75680615,364290
Gujarat,Z358,Pramukh Swami Road,secondary,30,21.08138325,71.76052435,364290
Gujarat,Z282,LP Savani Road,secondary,60,21.2082224,72.78261215,395009
Gujarat,Z244,Atlantis Lane,service,40,22.3186385,73.16610075,390023
Gujarat,-,Unnamed Zone,primary,50,23.0167723,72.63331675,380023
Gujarat,-,Unnamed Zone,tertiary,50,23.01701795,72.63320785,380023
Gujarat,Z216,IIM Overbridge,secondary,50,23.03225055,72.5376278,380015
Gujarat,Z216,IIM Overbridge,secondary,50,23.0323157,72.5377172,380015
Gujarat,-,Unnamed Zone,living_street,40,22.32583735,73.18632335,390001
Gujarat,Z225,Somnath Park Society Road,residential,20,23.1954358,72.6146141,382006
Gujarat,Z111,Daman Road,construction,60,20.37704645,72.9091927,396191
Gujarat,Z111,Daman Road,construction,60,20.3777572,72.90841605,396191
Gujarat,Z193,Mehsana-Himatnagar Vijapur road,primary,100,23.5670979,72.38505705,384001
Gujarat,Z193,Mehsana-Himatnagar Vijapur road,primary,100,23.56672025,72.3943334,384002
Gujarat,-,Unnamed Zone,trunk,60,20.9209446,72.9254684,396450
Gujarat,-,Unnamed Zone,trunk,60,20.92167805,72.9224119,396450
Gujarat,-,Unnamed Zone,trunk,60,20.9212974,72.9187862,396450
Gujarat,-,Unnamed Zone,trunk,60,20.9213025,72.9198591,396450
Gujarat,Z359,Shyamprasad Mukharji Flyover,primary,40,23.00675605,72.5328235,380055
Gujarat,Z359,Shyamprasad Mukharji Flyover,primary,40,23.0067917,72.5328918,380055
Gujarat,Z172,Anupam Bridge | Kankaria Railway Overbridge,primary,50,23.0072456,72.6090487,380008
Gujarat,Z324,Harinagar Flyover,primary,30,22.31253775,73.1491551,390021
Gujarat,Z324,Harinagar Flyover,primary,30,22.3125534,73.14907315,390021
Gujarat,Z240,Amit Nagar Flyover,primary,80,22.3276576,73.21037135,390018
Gujarat,-,Unnamed Zone,primary,60,22.3275556,73.2106981,390018
Gujarat,Z240,Amit Nagar Flyover,primary,80,22.3269563,73.20441085,390018
Gujarat,Z360,Swami Vivekananda Flyover,secondary,40,22.2783721,70.7990061,360001
Gujarat,Z360,Swami Vivekananda Flyover,secondary,40,22.2782438,70.7990635,360001
Gujarat,-,Unnamed Zone,primary,60,23.68800155,71.9462018,384240
Gujarat,-,Unnamed Zone,primary,60,23.6879987,71.9465276,384240
Gujarat,Z361,Dave Road,secondary,40,23.08397285,72.51635575,380060
Gujarat,Z361,Dave Road,secondary,40,23.08395235,72.51704145,380060
Gujarat,Z361,Dave Road,secondary,40,23.08448895,72.5109067,380060
Gujarat,-,Unnamed Zone,trunk,80,22.5677996,71.7747271,363421
Gujarat,-,Unnamed Zone,trunk,80,22.56772585,71.76329515,363421
Gujarat,Z100,Ahmadabad Vadodara Expressway,motorway,100,22.72666235,72.873006,387002
Gujarat,Z100,Ahmadabad Vadodara Expressway,motorway,100,22.72738815,72.8723537,387002
Gujarat,Z100,Ahmadabad Vadodara Expressway,motorway,100,22.7265102,72.8728813,387002
Gujarat,Z100,Ahmadabad Vadodara Expressway,motorway,100,22.72723245,72.87223215,387002
Gujarat,-,Unnamed Zone,trunk,80,22.6317211,70.95910125,363621
Gujarat,-,Unnamed Zone,trunk,80,22.63250695,70.959548,363621
Gujarat,-,Unnamed Zone,trunk,80,22.6316416,70.9591974,363621
Gujarat,-,Unnamed Zone,trunk,80,22.63244805,70.9596576,363621
Gujarat,Z330,Airforce Road Underpass,secondary,40,22.46067205,70.0388539,361006
Gujarat,Z330,Airforce Road Underpass,secondary,40,22.4606538,70.03838445,361006
Gujarat,Z330,Airforce Road Underpass,secondary,40,22.4607867,70.0410017,361006
Gujarat,Z237,Airforce Road,secondary,40,22.46079295,70.0411333,361006
Gujarat,-,Unnamed Zone,service,10,23.2303141,72.6669192,382020
